{
  "type": "FeatureCollection",
  "features": [
    {"type": "Feature", "properties": {"name": "Gulf Coast Aquifer", "description": "Mapped extent of the aquifer within Grimes County", "Rank": "Major aquifer"}, "geometry": {"type": "Polygon", "coordinates": [[[-96.13323, 30.467481], [-96.128287, 30.473089], [-96.121711, 30.483491], [-96.119774, 30.486062], [-96.117653, 30.488061], [-96.107765, 30.495195], [-96.106376, 30.496392], [-96.105506, 30.497709], [-96.104775, 30.498106], [-96.101203, 30.497582], [-96.100212, 30.497865], [-96.099342, 30.498551], [-96.097892, 30.498033], [-96.096764, 30.497971], [-96.094505, 30.499799], [-96.093986, 30.498994], [-96.093452, 30.498823], [-96.092659, 30.49939], [-96.092521, 30.50002], [-96.092841, 30.500997], [-96.092506, 30.50237], [-96.089393, 30.503964], [-96.085884, 30.503324], [-96.085563, 30.502351], [-96.085167, 30.50189], [-96.084709, 30.501889], [-96.083701, 30.502571], [-96.081047, 30.50686], [-96.080711, 30.507203], [-96.079719, 30.507371], [-96.078193, 30.507311], [-96.076469, 30.506791], [-96.075676, 30.505872], [-96.075356, 30.504899], [-96.07476, 30.504895], [-96.073234, 30.505978], [-96.072364, 30.507351], [-96.07151, 30.507748], [-96.070717, 30.506776], [-96.069526, 30.506482], [-96.068794, 30.505967], [-96.068397, 30.504822], [-96.067878, 30.504362], [-96.066689, 30.504358], [-96.065971, 30.502751], [-96.06504, 30.501775], [-96.06272, 30.501828], [-96.061072, 30.50142], [-96.059471, 30.502332], [-96.058418, 30.502618], [-96.056297, 30.501981], [-96.054909, 30.501863], [-96.054649, 30.502148], [-96.053581, 30.502374], [-96.052528, 30.501798], [-96.051537, 30.500649], [-96.050941, 30.500646], [-96.050484, 30.50076], [-96.048347, 30.50293], [-96.04583, 30.503838], [-96.047217, 30.506818], [-96.047004, 30.508825], [-96.046532, 30.509736], [-96.044883, 30.510075], [-96.042305, 30.509667], [-96.040244, 30.510404], [-96.03997, 30.511434], [-96.040169, 30.514184], [-96.039558, 30.5155], [-96.038628, 30.515896], [-96.038093, 30.516583], [-96.03823, 30.517328], [-96.037819, 30.519101], [-96.037422, 30.519788], [-96.033637, 30.522122], [-96.03344, 30.522924], [-96.0335, 30.523668], [-96.034752, 30.524701], [-96.034812, 30.526704], [-96.035926, 30.528371], [-96.037254, 30.529577], [-96.040748, 30.531476], [-96.041602, 30.532452], [-96.042594, 30.534745], [-96.042655, 30.535947], [-96.041709, 30.53795], [-96.041176, 30.538346], [-96.03939, 30.538857], [-96.039176, 30.541493], [-96.038184, 30.543492], [-96.037253, 30.544176], [-96.035193, 30.544114], [-96.034461, 30.543824], [-96.033088, 30.541932], [-96.032494, 30.541872], [-96.029563, 30.543408], [-96.027702, 30.546265], [-96.026634, 30.549009], [-96.024162, 30.551518], [-96.02317, 30.553751], [-96.019843, 30.556661], [-96.018974, 30.557802], [-96.016318, 30.559682], [-96.014839, 30.562368], [-96.013191, 30.563508], [-96.012382, 30.564481], [-96.01046, 30.564931], [-96.008537, 30.566759], [-96.006141, 30.567209], [-96.004082, 30.569146], [-96.001487, 30.570913], [-95.999306, 30.571934], [-96.000007, 30.573594], [-95.998939, 30.574026], [-95.997444, 30.575708], [-95.996284, 30.577668], [-95.995186, 30.578714], [-95.991295, 30.579857], [-95.989234, 30.579831], [-95.9869, 30.579121], [-95.985496, 30.577829], [-95.984321, 30.578988], [-95.983696, 30.580884], [-95.982033, 30.584054], [-95.980353, 30.58608], [-95.978203, 30.587999], [-95.978432, 30.590169], [-95.978126, 30.59103], [-95.97663, 30.592423], [-95.974922, 30.593195], [-95.972068, 30.593293], [-95.971961, 30.594551], [-95.970786, 30.595884], [-95.966575, 30.590798], [-95.966148, 30.592462], [-95.966377, 30.593545], [-95.966072, 30.594865], [-95.965416, 30.595849], [-95.96357, 30.596276], [-95.962822, 30.59863], [-95.961021, 30.601289], [-95.959786, 30.602906], [-95.957831, 30.604707], [-95.956183, 30.605474], [-95.951423, 30.605718], [-95.948707, 30.605584], [-95.947731, 30.606569], [-95.946663, 30.60664], [-95.944206, 30.606107], [-95.943397, 30.605546], [-95.942985, 30.604753], [-95.940666, 30.604841], [-95.93946, 30.604344], [-95.945838, 30.611913], [-95.943855, 30.612229], [-95.942909, 30.614644], [-95.941276, 30.61644], [-95.940589, 30.618051], [-95.939476, 30.619267], [-95.937767, 30.620264], [-95.936256, 30.620401], [-95.934043, 30.622548], [-95.93232, 30.623144], [-95.930931, 30.622994], [-95.931496, 30.625215], [-95.930747, 30.62711], [-95.930153, 30.627866], [-95.927802, 30.629669], [-95.926887, 30.630254], [-95.925574, 30.630617], [-95.92408, 30.632585], [-95.922386, 30.633924], [-95.921455, 30.637364], [-95.918784, 30.640436], [-95.916954, 30.641836], [-95.916892, 30.645093], [-95.91613, 30.647165], [-95.914192, 30.650162], [-95.911842, 30.652027], [-95.911461, 30.653233], [-95.910499, 30.65439], [-95.910393, 30.655709], [-95.909354, 30.657667], [-95.904319, 30.661169], [-95.90284, 30.663648], [-95.901802, 30.664578], [-95.899833, 30.665864], [-95.898704, 30.665879], [-95.897971, 30.665547], [-95.89698, 30.666074], [-95.895728, 30.666952], [-95.895163, 30.6681], [-95.894111, 30.668916], [-95.89312, 30.669332], [-95.891654, 30.66895], [-95.889229, 30.670358], [-95.887763, 30.669976], [-95.88523, 30.672643], [-95.884376, 30.673112], [-95.880988, 30.672818], [-95.87873, 30.673135], [-95.878242, 30.675199], [-95.877601, 30.67624], [-95.87577, 30.678094], [-95.874717, 30.678677], [-95.872214, 30.679231], [-95.870278, 30.678972], [-95.868538, 30.678251], [-95.867973, 30.679516], [-95.866188, 30.680398], [-95.864997, 30.68047], [-95.862877, 30.680101], [-95.861564, 30.68115], [-95.859382, 30.681637], [-95.857429, 30.683492], [-95.855843, 30.68403], [-95.853064, 30.684353], [-95.850624, 30.688619], [-95.851524, 30.690949], [-95.851417, 30.69238], [-95.850777, 30.694104], [-95.849067, 30.695042], [-95.847968, 30.696088], [-95.847037, 30.696099], [-95.845786, 30.697091], [-95.844535, 30.697335], [-95.844429, 30.698708], [-95.844047, 30.69946], [-95.845482, 30.701898], [-95.845436, 30.703385], [-95.844658, 30.704484], [-95.846214, 30.706063], [-95.852989, 30.702081], [-95.860221, 30.698324], [-95.864723, 30.694601], [-95.871742, 30.689588], [-95.873832, 30.688355], [-95.877067, 30.687055], [-95.884209, 30.682321], [-95.886253, 30.681321], [-95.889793, 30.678925], [-95.890892, 30.677823], [-95.89405, 30.675894], [-95.895866, 30.674153], [-95.900992, 30.671166], [-95.903663, 30.668667], [-95.906883, 30.667306], [-95.910164, 30.664976], [-95.915092, 30.662389], [-95.919136, 30.658727], [-95.921165, 30.657385], [-95.923972, 30.654829], [-95.927115, 30.652669], [-95.932518, 30.6475], [-95.936515, 30.644929], [-95.938347, 30.643357], [-95.938637, 30.644784], [-95.938133, 30.646389], [-95.936759, 30.64721], [-95.935111, 30.647405], [-95.934807, 30.649182], [-95.934105, 30.65028], [-95.932853, 30.650868], [-95.932014, 30.65191], [-95.930824, 30.652673], [-95.930229, 30.656053], [-95.929328, 30.657952], [-95.942481, 30.648331], [-95.943199, 30.650892], [-95.943214, 30.654953], [-95.940605, 30.657277], [-95.937949, 30.657831], [-95.937522, 30.659379], [-95.936378, 30.661683], [-95.934273, 30.662572], [-95.932564, 30.663911], [-95.930595, 30.664681], [-95.929817, 30.665894], [-95.928581, 30.667054], [-95.926079, 30.668065], [-95.922508, 30.668459], [-95.920738, 30.669797], [-95.918632, 30.670743], [-95.9188, 30.673028], [-95.918434, 30.674405], [-95.917671, 30.676305], [-95.916572, 30.677976], [-95.920127, 30.676381], [-95.920417, 30.677464], [-95.919715, 30.678735], [-95.916496, 30.681065], [-95.912604, 30.682434], [-95.912558, 30.683294], [-95.911903, 30.683419], [-95.910042, 30.682988], [-95.909782, 30.684076], [-95.908684, 30.685464], [-95.907509, 30.686112], [-95.905723, 30.686536], [-95.904654, 30.686379], [-95.901969, 30.688477], [-95.900992, 30.68889], [-95.899665, 30.689023], [-95.899834, 30.691251], [-95.899253, 30.691774], [-95.897468, 30.6922], [-95.893166, 30.696664], [-95.890174, 30.696648], [-95.888236, 30.695931], [-95.886863, 30.697038], [-95.885154, 30.697804], [-95.88404, 30.697991], [-95.88137, 30.697629], [-95.880104, 30.697248], [-95.87957, 30.696798], [-95.877143, 30.698488], [-95.876014, 30.698674], [-95.874473, 30.698125], [-95.872459, 30.696607], [-95.871467, 30.696794], [-95.870475, 30.697266], [-95.869743, 30.700479], [-95.869285, 30.701111], [-95.867255, 30.702341], [-95.866371, 30.704926], [-95.865272, 30.706373], [-95.864357, 30.706842], [-95.858513, 30.707093], [-95.857246, 30.706826], [-95.853416, 30.711625], [-95.851921, 30.712903], [-95.849098, 30.71483], [-95.847312, 30.715425], [-95.846183, 30.715383], [-95.844734, 30.716088], [-95.842759, 30.717746], [-95.83007, 30.629045], [-95.818951, 30.512924], [-95.817308, 30.498743], [-95.814638, 30.463365], [-95.813864, 30.459147], [-95.813948, 30.455742], [-95.804393, 30.338674], [-95.804306, 30.24557], [-95.842138, 30.243445], [-95.8521, 30.242456], [-95.923283, 30.237284], [-95.926415, 30.237292], [-95.928931, 30.237624], [-95.938612, 30.237527], [-95.948958, 30.236882], [-95.953773, 30.236964], [-95.99633, 30.234178], [-96.069319, 30.229964], [-96.072849, 30.229491], [-96.088941, 30.228718], [-96.091453, 30.225994], [-96.093165, 30.225187], [-96.094114, 30.227008], [-96.09557, 30.22876], [-96.098248, 30.230439], [-96.101477, 30.23076], [-96.104367, 30.231473], [-96.105379, 30.23287], [-96.103145, 30.238681], [-96.101346, 30.24088], [-96.098571, 30.242736], [-96.096936, 30.243007], [-96.094423, 30.242386], [-96.090396, 30.238883], [-96.087671, 30.23777], [-96.083327, 30.238312], [-96.081741, 30.240882], [-96.080839, 30.244305], [-96.083911, 30.250354], [-96.08605, 30.252541], [-96.089438, 30.253041], [-96.094873, 30.252392], [-96.0981, 30.253867], [-96.09912, 30.255174], [-96.099253, 30.258049], [-96.09886, 30.259704], [-96.098039, 30.261674], [-96.095514, 30.265597], [-96.094859, 30.268309], [-96.094683, 30.271205], [-96.093256, 30.275503], [-96.091737, 30.278013], [-96.090602, 30.279071], [-96.085089, 30.282607], [-96.084382, 30.28376], [-96.084049, 30.285065], [-96.084382, 30.28766], [-96.084794, 30.28822], [-96.086855, 30.289407], [-96.089809, 30.289668], [-96.09393, 30.289078], [-96.096933, 30.289], [-96.098424, 30.289585], [-96.099316, 30.290258], [-96.100321, 30.291809], [-96.10058, 30.292805], [-96.100402, 30.294802], [-96.099345, 30.298466], [-96.097614, 30.300984], [-96.095342, 30.302824], [-96.093637, 30.305195], [-96.093513, 30.306532], [-96.093829, 30.308171], [-96.094404, 30.309371], [-96.095613, 30.310493], [-96.096515, 30.310851], [-96.097193, 30.311112], [-96.098587, 30.311021], [-96.10408, 30.30882], [-96.115056, 30.306001], [-96.117372, 30.304195], [-96.119506, 30.304821], [-96.120477, 30.305689], [-96.122703, 30.309368], [-96.125273, 30.311563], [-96.126191, 30.311878], [-96.131635, 30.312434], [-96.135057, 30.313508], [-96.136547, 30.314752], [-96.137078, 30.316669], [-96.137298, 30.321058], [-96.137944, 30.321859], [-96.138866, 30.322453], [-96.147462, 30.324168], [-96.150568, 30.326058], [-96.152789, 30.32801], [-96.15463, 30.330288], [-96.154268, 30.330647], [-96.154171, 30.332094], [-96.154438, 30.333234], [-96.154013, 30.334002], [-96.153232, 30.334475], [-96.148346, 30.335397], [-96.144092, 30.336957], [-96.14249, 30.338037], [-96.141546, 30.339083], [-96.140259, 30.339654], [-96.139812, 30.340291], [-96.140093, 30.341723], [-96.140997, 30.342766], [-96.145874, 30.343225], [-96.148465, 30.345], [-96.148542, 30.346564], [-96.149693, 30.349892], [-96.149758, 30.352225], [-96.149069, 30.353116], [-96.14762, 30.353278], [-96.14536, 30.352165], [-96.143597, 30.352102], [-96.142423, 30.352905], [-96.141639, 30.355356], [-96.141778, 30.356308], [-96.142623, 30.35806], [-96.142511, 30.361131], [-96.141712, 30.362947], [-96.141609, 30.36551], [-96.14215, 30.367815], [-96.142617, 30.368367], [-96.144657, 30.369365], [-96.1455, 30.370874], [-96.14548, 30.371828], [-96.144249, 30.374493], [-96.144134, 30.37698], [-96.145035, 30.378137], [-96.146243, 30.379009], [-96.147067, 30.380284], [-96.147412, 30.381353], [-96.147255, 30.38284], [-96.146023, 30.383993], [-96.14591, 30.384444], [-96.145251, 30.384822], [-96.138971, 30.383138], [-96.136528, 30.383621], [-96.135024, 30.384464], [-96.134193, 30.384583], [-96.1337, 30.386271], [-96.132247, 30.387902], [-96.12941, 30.388324], [-96.126016, 30.387775], [-96.122444, 30.384078], [-96.121478, 30.383999], [-96.120898, 30.386047], [-96.120004, 30.386766], [-96.119669, 30.387469], [-96.12025, 30.389109], [-96.121515, 30.390278], [-96.121524, 30.391891], [-96.120956, 30.392253], [-96.119319, 30.392115], [-96.117595, 30.391278], [-96.117152, 30.39145], [-96.116756, 30.392229], [-96.118416, 30.398448], [-96.118262, 30.39932], [-96.117367, 30.399791], [-96.116317, 30.399332], [-96.115672, 30.398342], [-96.114046, 30.396912], [-96.114076, 30.394845], [-96.113772, 30.394337], [-96.113067, 30.394102], [-96.112343, 30.394433], [-96.111445, 30.395211], [-96.11118, 30.39682], [-96.111932, 30.398324], [-96.113234, 30.399887], [-96.11355, 30.401183], [-96.112698, 30.402295], [-96.110011, 30.404167], [-96.108193, 30.406208], [-96.107914, 30.406987], [-96.10862, 30.407622], [-96.11096, 30.407053], [-96.1116, 30.407357], [-96.111879, 30.407835], [-96.112015, 30.408973], [-96.113342, 30.411377], [-96.11369, 30.412727], [-96.112194, 30.415668], [-96.10736, 30.417582], [-96.106528, 30.418263], [-96.106154, 30.418928], [-96.106155, 30.419714], [-96.106533, 30.421322], [-96.106341, 30.421933], [-96.105601, 30.422125], [-96.103517, 30.421211], [-96.103052, 30.420419], [-96.103456, 30.418892], [-96.101321, 30.41739], [-96.100592, 30.417425], [-96.098259, 30.419841], [-96.09746, 30.420027], [-96.095537, 30.419696], [-96.095338, 30.418817], [-96.095878, 30.418195], [-96.095818, 30.417429], [-96.095309, 30.416926], [-96.094498, 30.416651], [-96.091697, 30.416471], [-96.087926, 30.417293], [-96.086653, 30.418299], [-96.082934, 30.422949], [-96.082812, 30.42364], [-96.083347, 30.424985], [-96.082524, 30.428255], [-96.082094, 30.428615], [-96.080777, 30.428937], [-96.080216, 30.429422], [-96.080009, 30.430435], [-96.080387, 30.431043], [-96.080975, 30.43129], [-96.085383, 30.430026], [-96.086791, 30.42989], [-96.087431, 30.430756], [-96.087328, 30.431409], [-96.085882, 30.433865], [-96.086, 30.435559], [-96.086571, 30.436069], [-96.088471, 30.436779], [-96.090585, 30.438024], [-96.092821, 30.440101], [-96.093651, 30.440047], [-96.094352, 30.438887], [-96.09558, 30.438846], [-96.096234, 30.437566], [-96.09689, 30.437409], [-96.09732, 30.437586], [-96.099056, 30.440058], [-96.100629, 30.440693], [-96.103808, 30.437507], [-96.105196, 30.437023], [-96.105709, 30.437608], [-96.106526, 30.440015], [-96.104766, 30.440835], [-96.104598, 30.443787], [-96.10534, 30.444408], [-96.106775, 30.443648], [-96.108706, 30.443801], [-96.111013, 30.443155], [-96.111887, 30.442693], [-96.112195, 30.441357], [-96.113073, 30.440607], [-96.114222, 30.441275], [-96.115132, 30.440451], [-96.115909, 30.440427], [-96.118987, 30.441512], [-96.119062, 30.4424], [-96.119354, 30.442696], [-96.119644, 30.442619], [-96.119972, 30.441859], [-96.120453, 30.441921], [-96.121095, 30.443029], [-96.121976, 30.443579], [-96.1218, 30.444834], [-96.122177, 30.445047], [-96.122238, 30.445701], [-96.123164, 30.446118], [-96.123016, 30.447038], [-96.124507, 30.448197], [-96.125902, 30.448769], [-96.126509, 30.449508], [-96.125683, 30.450215], [-96.12589, 30.450884], [-96.125398, 30.451479], [-96.124367, 30.451274], [-96.12371, 30.451799], [-96.12353, 30.453286], [-96.122784, 30.454464], [-96.123073, 30.455139], [-96.123638, 30.455544], [-96.124356, 30.455586], [-96.124795, 30.455121], [-96.124795, 30.453969], [-96.128129, 30.453441], [-96.128918, 30.452538], [-96.129821, 30.452384], [-96.130018, 30.452555], [-96.129903, 30.454093], [-96.129403, 30.455314], [-96.128739, 30.456024], [-96.126619, 30.456492], [-96.126175, 30.457521], [-96.126602, 30.45801], [-96.127166, 30.457773], [-96.128057, 30.458213], [-96.128363, 30.458983], [-96.129276, 30.459519], [-96.129709, 30.460115], [-96.129655, 30.460787], [-96.128808, 30.461745], [-96.130283, 30.463871], [-96.129483, 30.466248], [-96.130138, 30.466608], [-96.131014, 30.466297], [-96.132395, 30.467246], [-96.13323, 30.467481]]]}},
    {"type": "Feature", "properties": {"name": "Yegua-Jackson Aquifer", "description": "Mapped extent of the aquifer within Grimes County", "Rank": "Minor aquifer"}, "geometry": {"type": "Polygon", "coordinates": [[[-95.841369, 30.699075], [-95.84114, 30.697359], [-95.842681, 30.695093], [-95.847167, 30.690305], [-95.848991, 30.688839], [-95.849555, 30.686992], [-95.852264, 30.683443], [-95.852836, 30.682054], [-95.860313, 30.677845], [-95.862823, 30.677455], [-95.865257, 30.676208], [-95.867019, 30.674741], [-95.870041, 30.673366], [-95.873672, 30.669397], [-95.875252, 30.66868], [-95.880218, 30.66819], [-95.885352, 30.666374], [-95.89447, 30.661274], [-95.897957, 30.659946], [-95.901488, 30.657587], [-95.90416, 30.655126], [-95.907723, 30.651388], [-95.90953, 30.648944], [-95.912842, 30.642282], [-95.914725, 30.637312], [-95.916526, 30.634868], [-95.919708, 30.631538], [-95.922248, 30.629541], [-95.928161, 30.623634], [-95.929313, 30.621547], [-95.932441, 30.619251], [-95.935081, 30.618627], [-95.936958, 30.616527], [-95.939987, 30.61228], [-95.940407, 30.610149], [-95.940238, 30.608488], [-95.939201, 30.606556], [-95.937927, 30.605718], [-95.936836, 30.604418], [-95.936409, 30.602991], [-95.937507, 30.601707], [-95.940154, 30.60166], [-95.946747, 30.602684], [-95.948959, 30.603906], [-95.954307, 30.602888], [-95.957763, 30.60024], [-95.960587, 30.598984], [-95.962325, 30.596712], [-95.963539, 30.591581], [-95.964706, 30.590124], [-95.967003, 30.589277], [-95.968482, 30.590167], [-95.971321, 30.592811], [-95.974205, 30.591324], [-95.976028, 30.589681], [-95.979545, 30.580661], [-95.980827, 30.578857], [-95.983848, 30.577537], [-95.989623, 30.577774], [-95.991325, 30.576707], [-95.995071, 30.572275], [-95.996406, 30.570102], [-96.003128, 30.566572], [-96.006515, 30.564226], [-96.01435, 30.557412], [-96.017677, 30.553404], [-96.019737, 30.5514], [-96.022857, 30.547448], [-96.02565, 30.545101], [-96.027641, 30.542638], [-96.029365, 30.542409], [-96.035079, 30.540119], [-96.035941, 30.539089], [-96.035873, 30.538114], [-96.034149, 30.536912], [-96.032096, 30.536054], [-96.030769, 30.534967], [-96.02951, 30.532447], [-96.029122, 30.529298], [-96.030448, 30.52798], [-96.031113, 30.526378], [-96.031181, 30.522428], [-96.032112, 30.520938], [-96.033776, 30.519449], [-96.034836, 30.51756], [-96.035903, 30.514295], [-96.037101, 30.513094], [-96.04155, 30.507194], [-96.042877, 30.50456], [-96.047126, 30.501697], [-96.052895, 30.500551], [-96.057335, 30.501693], [-96.066161, 30.501461], [-96.067283, 30.502262], [-96.06768, 30.502891], [-96.068214, 30.504724], [-96.07206, 30.503061], [-96.076301, 30.503977], [-96.081008, 30.504316], [-96.082672, 30.502139], [-96.082672, 30.50111], [-96.085059, 30.501108], [-96.087249, 30.500591], [-96.091423, 30.498929], [-96.09262, 30.497898], [-96.096999, 30.496807], [-96.102966, 30.494626], [-96.10907, 30.490785], [-96.110725, 30.489181], [-96.111725, 30.487577], [-96.113845, 30.486316], [-96.118225, 30.482934], [-96.120613, 30.479955], [-96.124191, 30.478921], [-96.126449, 30.476686], [-96.128036, 30.473993], [-96.128769, 30.47113], [-96.130691, 30.467006], [-96.130676, 30.466291], [-96.133409, 30.467531], [-96.134453, 30.467282], [-96.135187, 30.466149], [-96.136151, 30.466286], [-96.136457, 30.467084], [-96.135892, 30.469241], [-96.137328, 30.470225], [-96.137983, 30.471037], [-96.13975, 30.471545], [-96.139988, 30.472262], [-96.138803, 30.474204], [-96.139731, 30.474797], [-96.140852, 30.47497], [-96.141089, 30.4753], [-96.14079, 30.475572], [-96.139885, 30.475598], [-96.139499, 30.476014], [-96.139124, 30.477646], [-96.139567, 30.478764], [-96.139329, 30.479179], [-96.137724, 30.47916], [-96.137646, 30.477032], [-96.136907, 30.476453], [-96.136253, 30.476741], [-96.136155, 30.477672], [-96.136996, 30.478836], [-96.135553, 30.47947], [-96.135281, 30.479857], [-96.135445, 30.480363], [-96.13674, 30.48086], [-96.137004, 30.481359], [-96.135604, 30.483317], [-96.133907, 30.483344], [-96.133113, 30.483868], [-96.133038, 30.486226], [-96.132554, 30.488708], [-96.13276, 30.48954], [-96.1321, 30.49054], [-96.132556, 30.491103], [-96.132504, 30.491905], [-96.132867, 30.492282], [-96.133232, 30.492395], [-96.134647, 30.491839], [-96.135082, 30.493419], [-96.136102, 30.493021], [-96.136585, 30.493207], [-96.136061, 30.494197], [-96.136032, 30.494975], [-96.136668, 30.495394], [-96.13772, 30.495428], [-96.137955, 30.49572], [-96.137852, 30.496995], [-96.136604, 30.499378], [-96.136836, 30.500077], [-96.137819, 30.501184], [-96.138342, 30.501417], [-96.139522, 30.500156], [-96.140285, 30.500792], [-96.141996, 30.500319], [-96.14253, 30.500989], [-96.142913, 30.502442], [-96.144127, 30.502645], [-96.144663, 30.503108], [-96.144688, 30.503893], [-96.144152, 30.504453], [-96.142481, 30.503719], [-96.142248, 30.503928], [-96.142561, 30.50598], [-96.141061, 30.506389], [-96.141009, 30.50785], [-96.140187, 30.508407], [-96.140079, 30.508997], [-96.140334, 30.509215], [-96.141584, 30.509175], [-96.142569, 30.510503], [-96.143473, 30.511118], [-96.144798, 30.510675], [-96.144783, 30.511692], [-96.143677, 30.512759], [-96.143606, 30.51347], [-96.145955, 30.514696], [-96.1463, 30.515634], [-96.146713, 30.515797], [-96.147294, 30.515498], [-96.148898, 30.51762], [-96.150154, 30.518337], [-96.150315, 30.519006], [-96.149167, 30.519675], [-96.149196, 30.520585], [-96.150011, 30.520848], [-96.151493, 30.519904], [-96.152123, 30.520059], [-96.152643, 30.520855], [-96.152453, 30.521672], [-96.151637, 30.522295], [-96.151839, 30.52327], [-96.151592, 30.523742], [-96.150046, 30.523559], [-96.148947, 30.524008], [-96.149138, 30.524555], [-96.15007, 30.52481], [-96.150381, 30.525169], [-96.149315, 30.52615], [-96.149549, 30.527168], [-96.148672, 30.527574], [-96.148262, 30.528146], [-96.148421, 30.528715], [-96.149091, 30.52924], [-96.151591, 30.530177], [-96.152001, 30.530945], [-96.151767, 30.531462], [-96.152468, 30.532082], [-96.153587, 30.532227], [-96.154291, 30.53191], [-96.155032, 30.531256], [-96.155479, 30.53014], [-96.157004, 30.530285], [-96.1571, 30.531304], [-96.156077, 30.532116], [-96.155845, 30.533205], [-96.156496, 30.534384], [-96.158149, 30.53515], [-96.158499, 30.535143], [-96.158477, 30.534299], [-96.159713, 30.533559], [-96.16098, 30.533668], [-96.161231, 30.533919], [-96.161171, 30.535164], [-96.160335, 30.537144], [-96.160604, 30.538455], [-96.160297, 30.540332], [-96.160551, 30.541211], [-96.161536, 30.541834], [-96.161568, 30.542748], [-96.16105, 30.543672], [-96.161756, 30.544669], [-96.160962, 30.545498], [-96.161885, 30.547093], [-96.160843, 30.548027], [-96.159634, 30.552066], [-96.16052, 30.556307], [-96.158764, 30.557989], [-96.158604, 30.55864], [-96.160285, 30.559776], [-96.160831, 30.561527], [-96.161433, 30.562419], [-96.161063, 30.563644], [-96.161586, 30.565443], [-96.161302, 30.56645], [-96.160072, 30.566826], [-96.159764, 30.567302], [-96.160816, 30.568173], [-96.162518, 30.568611], [-96.162572, 30.569091], [-96.161736, 30.569699], [-96.16205, 30.570645], [-96.164107, 30.570991], [-96.164797, 30.570481], [-96.165311, 30.570467], [-96.167843, 30.571698], [-96.167763, 30.572338], [-96.16599, 30.572604], [-96.165498, 30.572952], [-96.165517, 30.573266], [-96.166404, 30.574609], [-96.167432, 30.574446], [-96.167788, 30.574831], [-96.167806, 30.575554], [-96.168709, 30.575598], [-96.169133, 30.576564], [-96.170238, 30.577474], [-96.171417, 30.577755], [-96.172125, 30.578231], [-96.171629, 30.579775], [-96.172097, 30.5805], [-96.17257, 30.580607], [-96.17311, 30.580307], [-96.173823, 30.580493], [-96.175689, 30.58153], [-96.175749, 30.581826], [-96.175128, 30.58236], [-96.175375, 30.583596], [-96.177771, 30.585282], [-96.178862, 30.585268], [-96.180661, 30.58596], [-96.181236, 30.586465], [-96.182038, 30.586228], [-96.182599, 30.586349], [-96.18462, 30.587948], [-96.184792, 30.588328], [-96.183466, 30.589005], [-96.183723, 30.589823], [-96.182512, 30.59259], [-96.182475, 30.595072], [-96.184121, 30.596064], [-96.184658, 30.596696], [-96.185094, 30.597529], [-96.185014, 30.598554], [-96.185249, 30.598846], [-96.187765, 30.598737], [-96.188314, 30.599614], [-96.187359, 30.601379], [-96.187425, 30.60176], [-96.188178, 30.602162], [-96.188155, 30.602684], [-96.187482, 30.603242], [-96.186111, 30.603393], [-96.186668, 30.606023], [-96.185079, 30.606622], [-96.182448, 30.606798], [-96.181497, 30.608126], [-96.181675, 30.609224], [-96.1813, 30.609894], [-96.181232, 30.611281], [-96.181996, 30.611761], [-96.182011, 30.612241], [-96.182601, 30.612271], [-96.182717, 30.612521], [-96.181649, 30.613245], [-96.181634, 30.614464], [-96.181168, 30.615412], [-96.181309, 30.615748], [-96.182165, 30.61577], [-96.182542, 30.616938], [-96.182313, 30.617635], [-96.180587, 30.617996], [-96.179807, 30.617386], [-96.179095, 30.618161], [-96.179229, 30.618403], [-96.180404, 30.618471], [-96.17977, 30.619076], [-96.180248, 30.61999], [-96.180368, 30.621536], [-96.17872, 30.622085], [-96.178059, 30.621942], [-96.177519, 30.623205], [-96.177194, 30.623337], [-96.175055, 30.62298], [-96.174416, 30.622601], [-96.173597, 30.622704], [-96.174151, 30.623617], [-96.173663, 30.625158], [-96.174283, 30.625916], [-96.173795, 30.626472], [-96.173886, 30.627622], [-96.173102, 30.627962], [-96.173224, 30.628831], [-96.172138, 30.629657], [-96.170938, 30.629672], [-96.170624, 30.629365], [-96.170358, 30.629886], [-96.169117, 30.630137], [-96.169338, 30.630493], [-96.170463, 30.630812], [-96.170576, 30.631528], [-96.169933, 30.632462], [-96.171164, 30.633199], [-96.171076, 30.633724], [-96.171664, 30.634163], [-96.170742, 30.635844], [-96.171025, 30.636088], [-96.172046, 30.635127], [-96.172786, 30.635253], [-96.172992, 30.635747], [-96.172054, 30.638129], [-96.169809, 30.638676], [-96.168404, 30.638697], [-96.169373, 30.639236], [-96.169638, 30.639734], [-96.168892, 30.640241], [-96.168963, 30.641981], [-96.168126, 30.642553], [-96.167799, 30.643163], [-96.167053, 30.643833], [-96.166153, 30.643096], [-96.165556, 30.643085], [-96.165784, 30.64403], [-96.166331, 30.644489], [-96.165758, 30.647063], [-96.167365, 30.647218], [-96.16769, 30.647732], [-96.167151, 30.649144], [-96.167363, 30.649568], [-96.167781, 30.649986], [-96.169282, 30.649893], [-96.169508, 30.650318], [-96.16901, 30.651353], [-96.168106, 30.650997], [-96.167784, 30.651318], [-96.167122, 30.653019], [-96.167173, 30.65499], [-96.166891, 30.655024], [-96.166486, 30.654239], [-96.165944, 30.654375], [-96.165406, 30.657601], [-96.163978, 30.658997], [-96.164689, 30.659477], [-96.165459, 30.660689], [-96.165359, 30.660936], [-96.164458, 30.661182], [-96.164355, 30.661489], [-96.164391, 30.662275], [-96.164905, 30.662948], [-96.165987, 30.663136], [-96.167117, 30.662703], [-96.169297, 30.663656], [-96.16749, 30.66527], [-96.167663, 30.665737], [-96.168537, 30.665944], [-96.168772, 30.666356], [-96.168772, 30.667882], [-96.168083, 30.669144], [-96.169062, 30.669912], [-96.168439, 30.67112], [-96.169141, 30.672707], [-96.170745, 30.672082], [-96.171364, 30.672122], [-96.170142, 30.67368], [-96.171712, 30.67584], [-96.171925, 30.678191], [-96.172736, 30.679843], [-96.172498, 30.680248], [-96.171867, 30.680407], [-96.170623, 30.680211], [-96.169999, 30.681358], [-96.17092, 30.681437], [-96.171485, 30.682109], [-96.171201, 30.684121], [-96.170491, 30.685337], [-96.170822, 30.68719], [-96.169786, 30.688212], [-96.170935, 30.688419], [-96.170383, 30.689544], [-96.171483, 30.690103], [-96.171954, 30.691453], [-96.173034, 30.691924], [-96.172156, 30.693618], [-96.173287, 30.693464], [-96.174102, 30.693978], [-96.175378, 30.696055], [-96.176896, 30.696838], [-96.176295, 30.697933], [-96.175373, 30.697767], [-96.175647, 30.698707], [-96.174884, 30.699077], [-96.176629, 30.700362], [-96.176589, 30.701953], [-96.176086, 30.702033], [-96.175496, 30.701591], [-96.175113, 30.702033], [-96.175645, 30.70358], [-96.176968, 30.703081], [-96.177537, 30.703938], [-96.177141, 30.705141], [-96.177824, 30.706141], [-96.176603, 30.705993], [-96.176293, 30.706442], [-96.177176, 30.707175], [-96.177254, 30.708217], [-96.177946, 30.709513], [-96.177223, 30.709971], [-96.175227, 30.709191], [-96.174142, 30.709528], [-96.174083, 30.710004], [-96.175142, 30.711155], [-96.174625, 30.711844], [-96.173099, 30.711497], [-96.173035, 30.712089], [-96.172061, 30.712256], [-96.171722, 30.714089], [-96.172079, 30.715165], [-96.170736, 30.716151], [-96.170674, 30.716631], [-96.171415, 30.716969], [-96.171259, 30.717367], [-96.170296, 30.71801], [-96.169717, 30.717425], [-96.16875, 30.717173], [-96.169186, 30.718483], [-96.168804, 30.719246], [-96.168092, 30.719669], [-96.168138, 30.720415], [-96.167789, 30.720761], [-96.165498, 30.721309], [-96.164549, 30.721978], [-96.164696, 30.72383], [-96.164236, 30.724373], [-96.163327, 30.724739], [-96.162064, 30.727836], [-96.16221, 30.728857], [-96.161953, 30.729863], [-96.162573, 30.730825], [-96.162499, 30.731677], [-96.161427, 30.732564], [-96.162172, 30.734291], [-96.160224, 30.735165], [-96.161233, 30.735259], [-96.162072, 30.73583], [-96.162203, 30.736407], [-96.16149, 30.737216], [-96.162628, 30.737496], [-96.162083, 30.738711], [-96.162587, 30.739797], [-96.165044, 30.740715], [-96.165451, 30.741199], [-96.165659, 30.742476], [-96.166775, 30.743135], [-96.16506, 30.744422], [-96.168502, 30.746832], [-96.170145, 30.748855], [-96.17057, 30.750646], [-96.170472, 30.752868], [-96.168717, 30.753086], [-96.168088, 30.754347], [-96.169843, 30.755141], [-96.169752, 30.755551], [-96.16848, 30.756402], [-96.168167, 30.757012], [-96.16851, 30.757168], [-96.169578, 30.756663], [-96.169747, 30.756996], [-96.169455, 30.757993], [-96.16851, 30.758541], [-96.16656, 30.758653], [-96.166209, 30.759244], [-96.16652, 30.760319], [-96.165864, 30.76038], [-96.16534, 30.75985], [-96.164965, 30.759911], [-96.164306, 30.760631], [-96.16444, 30.762219], [-96.162839, 30.763039], [-96.162753, 30.763558], [-96.16314, 30.764136], [-96.164007, 30.764525], [-96.164589, 30.764207], [-96.16489, 30.764667], [-96.163603, 30.766269], [-96.163693, 30.767831], [-96.163018, 30.768381], [-96.163591, 30.768733], [-96.163794, 30.769228], [-96.163469, 30.769541], [-96.162644, 30.769509], [-96.164521, 30.772245], [-96.164338, 30.773351], [-96.165103, 30.77431], [-96.166102, 30.774571], [-96.166659, 30.774171], [-96.166352, 30.773338], [-96.165249, 30.772779], [-96.165787, 30.772115], [-96.167185, 30.772509], [-96.167236, 30.773405], [-96.168153, 30.773659], [-96.168062, 30.775027], [-96.167445, 30.775425], [-96.166362, 30.775221], [-96.166013, 30.776303], [-96.167371, 30.77694], [-96.168206, 30.7779], [-96.169249, 30.780202], [-96.169801, 30.780287], [-96.170542, 30.779507], [-96.170947, 30.780086], [-96.171487, 30.78171], [-96.171036, 30.783158], [-96.171855, 30.783397], [-96.172186, 30.784062], [-96.17174, 30.784984], [-96.172366, 30.785329], [-96.172834, 30.78486], [-96.172851, 30.784174], [-96.173224, 30.784126], [-96.174378, 30.784582], [-96.174742, 30.785089], [-96.175656, 30.785359], [-96.175461, 30.786185], [-96.177008, 30.786491], [-96.17938, 30.789198], [-96.179503, 30.790311], [-96.179951, 30.790632], [-96.180178, 30.791785], [-96.181817, 30.79227], [-96.182924, 30.792255], [-96.182986, 30.792567], [-96.181933, 30.792888], [-96.181698, 30.793398], [-96.181992, 30.793837], [-96.183032, 30.793933], [-96.183641, 30.795136], [-96.183525, 30.795751], [-96.18289, 30.796122], [-96.18333, 30.797133], [-96.18322, 30.797739], [-96.182696, 30.797451], [-96.181908, 30.797538], [-96.180995, 30.798096], [-96.18009, 30.797626], [-96.179471, 30.797756], [-96.179907, 30.798399], [-96.179311, 30.79882], [-96.17934, 30.799882], [-96.178485, 30.800224], [-96.17815, 30.801092], [-96.177607, 30.800984], [-96.177174, 30.799368], [-96.176264, 30.799269], [-96.17648, 30.800336], [-96.176308, 30.801242], [-96.175627, 30.800858], [-96.173915, 30.801083], [-96.173991, 30.801654], [-96.173545, 30.802665], [-96.172851, 30.802627], [-96.172463, 30.803028], [-96.172488, 30.803962], [-96.173303, 30.803792], [-96.173698, 30.803979], [-96.173659, 30.805084], [-96.173175, 30.805892], [-96.171564, 30.805946], [-96.170908, 30.806743], [-96.172831, 30.807342], [-96.172398, 30.808584], [-96.173423, 30.808694], [-96.175575, 30.809541], [-96.175536, 30.810925], [-96.174713, 30.811577], [-96.173929, 30.811315], [-96.174286, 30.812895], [-96.17315, 30.813527], [-96.172737, 30.814211], [-96.172747, 30.815436], [-96.173912, 30.815172], [-96.174184, 30.815472], [-96.174055, 30.81592], [-96.172955, 30.817404], [-96.17017, 30.819359], [-96.168629, 30.822037], [-96.16837, 30.822997], [-96.125235, 30.826603], [-96.125235, 30.827393], [-96.118499, 30.827677], [-95.915146, 30.856533], [-95.875228, 30.862672], [-95.873019, 30.862635], [-95.863059, 30.864125], [-95.840331, 30.70077], [-95.841369, 30.699075]]]}},
    {"type": "Feature", "properties": {"name": "Sparta Aquifer", "description": "Mapped extent of the aquifer within Grimes County", "Rank": "Minor aquifer"}, "geometry": {"type": "Polygon", "coordinates": [[[-95.843986, 30.674642], [-95.863883, 30.666821], [-95.874245, 30.66319], [-95.884315, 30.659219], [-95.893425, 30.656632], [-95.913596, 30.649659], [-95.927925, 30.646768], [-95.95208, 30.643445], [-95.96035, 30.642526], [-95.98075, 30.641083], [-95.994971, 30.639215], [-96.007668, 30.63815], [-96.016624, 30.636518], [-96.025505, 30.635286], [-96.031075, 30.634846], [-96.036781, 30.633378], [-96.053642, 30.631082], [-96.074471, 30.626847], [-96.08097, 30.625836], [-96.087333, 30.624364], [-96.097495, 30.621301], [-96.103324, 30.62063], [-96.128806, 30.613138], [-96.146324, 30.607397], [-96.15229, 30.605118], [-96.178245, 30.593148], [-96.18371, 30.589886], [-96.182512, 30.59259], [-96.182475, 30.595072], [-96.184121, 30.596064], [-96.184658, 30.596696], [-96.185094, 30.597529], [-96.185014, 30.598554], [-96.185249, 30.598846], [-96.188037, 30.59889], [-96.188314, 30.599614], [-96.187359, 30.601379], [-96.187425, 30.60176], [-96.188178, 30.602162], [-96.188155, 30.602684], [-96.187482, 30.603242], [-96.186111, 30.603393], [-96.186668, 30.606023], [-96.185079, 30.606622], [-96.182448, 30.606798], [-96.181497, 30.608126], [-96.181675, 30.609224], [-96.1813, 30.609894], [-96.181232, 30.611281], [-96.181996, 30.611761], [-96.182011, 30.612241], [-96.182601, 30.612271], [-96.182717, 30.612521], [-96.181649, 30.613245], [-96.181634, 30.614464], [-96.181168, 30.615412], [-96.181309, 30.615748], [-96.182165, 30.61577], [-96.182542, 30.616938], [-96.182313, 30.617635], [-96.180587, 30.617996], [-96.179807, 30.617386], [-96.179095, 30.618161], [-96.179229, 30.618403], [-96.180404, 30.618471], [-96.17977, 30.619076], [-96.180248, 30.61999], [-96.180368, 30.621536], [-96.17872, 30.622085], [-96.178059, 30.621942], [-96.177519, 30.623205], [-96.177194, 30.623337], [-96.175055, 30.62298], [-96.174416, 30.622601], [-96.173597, 30.622704], [-96.174151, 30.623617], [-96.173663, 30.625158], [-96.174283, 30.625916], [-96.173795, 30.626472], [-96.173886, 30.627622], [-96.173102, 30.627962], [-96.173224, 30.628831], [-96.172138, 30.629657], [-96.170938, 30.629672], [-96.170624, 30.629365], [-96.170358, 30.629886], [-96.169117, 30.630137], [-96.169338, 30.630493], [-96.170463, 30.630812], [-96.170576, 30.631528], [-96.169933, 30.632462], [-96.171164, 30.633199], [-96.171076, 30.633724], [-96.171664, 30.634163], [-96.170742, 30.635844], [-96.171025, 30.636088], [-96.172046, 30.635127], [-96.172786, 30.635253], [-96.172992, 30.635747], [-96.172054, 30.638129], [-96.169809, 30.638676], [-96.168404, 30.638697], [-96.169373, 30.639236], [-96.169638, 30.639734], [-96.168892, 30.640241], [-96.168963, 30.641981], [-96.168126, 30.642553], [-96.167799, 30.643163], [-96.167053, 30.643833], [-96.166153, 30.643096], [-96.165556, 30.643085], [-96.165784, 30.64403], [-96.166331, 30.644489], [-96.165758, 30.647063], [-96.167365, 30.647218], [-96.16769, 30.647732], [-96.167151, 30.649144], [-96.167363, 30.649568], [-96.167781, 30.649986], [-96.169282, 30.649893], [-96.169508, 30.650318], [-96.16901, 30.651353], [-96.168106, 30.650997], [-96.167784, 30.651318], [-96.167122, 30.653019], [-96.167173, 30.65499], [-96.166891, 30.655024], [-96.166486, 30.654239], [-96.165944, 30.654375], [-96.165406, 30.657601], [-96.163978, 30.658997], [-96.164689, 30.659477], [-96.165459, 30.660689], [-96.165359, 30.660936], [-96.164458, 30.661182], [-96.164355, 30.661489], [-96.164391, 30.662275], [-96.164905, 30.662948], [-96.165987, 30.663136], [-96.167117, 30.662703], [-96.169297, 30.663656], [-96.16749, 30.66527], [-96.167663, 30.665737], [-96.168537, 30.665944], [-96.168772, 30.666356], [-96.168772, 30.667882], [-96.168083, 30.669144], [-96.169062, 30.669912], [-96.168439, 30.67112], [-96.169141, 30.672707], [-96.170745, 30.672082], [-96.171364, 30.672122], [-96.170142, 30.67368], [-96.171712, 30.67584], [-96.171925, 30.678191], [-96.172736, 30.679843], [-96.172498, 30.680248], [-96.171867, 30.680407], [-96.170623, 30.680211], [-96.169999, 30.681358], [-96.17092, 30.681437], [-96.171485, 30.682109], [-96.171201, 30.684121], [-96.170491, 30.685337], [-96.170822, 30.68719], [-96.169786, 30.688212], [-96.170935, 30.688419], [-96.170383, 30.689544], [-96.171483, 30.690103], [-96.171954, 30.691453], [-96.173034, 30.691924], [-96.172156, 30.693618], [-96.173287, 30.693464], [-96.174102, 30.693978], [-96.175378, 30.696055], [-96.176896, 30.696838], [-96.176295, 30.697933], [-96.175373, 30.697767], [-96.175647, 30.698707], [-96.174884, 30.699077], [-96.176629, 30.700362], [-96.176589, 30.701953], [-96.176086, 30.702033], [-96.175496, 30.701591], [-96.175113, 30.702033], [-96.175645, 30.70358], [-96.176968, 30.703081], [-96.177537, 30.703938], [-96.177141, 30.705141], [-96.177824, 30.706141], [-96.176603, 30.705993], [-96.176293, 30.706442], [-96.177176, 30.707175], [-96.177254, 30.708217], [-96.177946, 30.709513], [-96.177223, 30.709971], [-96.175227, 30.709191], [-96.174142, 30.709528], [-96.174083, 30.710004], [-96.175142, 30.711155], [-96.174625, 30.711844], [-96.173099, 30.711497], [-96.173035, 30.712089], [-96.172061, 30.712256], [-96.171722, 30.714089], [-96.172079, 30.715165], [-96.170736, 30.716151], [-96.170674, 30.716631], [-96.171415, 30.716969], [-96.171259, 30.717367], [-96.170296, 30.71801], [-96.169717, 30.717425], [-96.16875, 30.717173], [-96.169186, 30.718483], [-96.168804, 30.719246], [-96.168092, 30.719669], [-96.168138, 30.720415], [-96.167789, 30.720761], [-96.165498, 30.721309], [-96.164549, 30.721978], [-96.164696, 30.72383], [-96.164236, 30.724373], [-96.163327, 30.724739], [-96.162064, 30.727836], [-96.16221, 30.728857], [-96.161953, 30.729863], [-96.162573, 30.730825], [-96.162499, 30.731677], [-96.161427, 30.732564], [-96.162172, 30.734291], [-96.160224, 30.735165], [-96.161233, 30.735259], [-96.162072, 30.73583], [-96.162203, 30.736407], [-96.16149, 30.737216], [-96.162628, 30.737496], [-96.162083, 30.738711], [-96.162587, 30.739797], [-96.165044, 30.740715], [-96.165451, 30.741199], [-96.165659, 30.742476], [-96.166775, 30.743135], [-96.16506, 30.744422], [-96.168502, 30.746832], [-96.170145, 30.748855], [-96.17057, 30.750646], [-96.170472, 30.752868], [-96.168717, 30.753086], [-96.168088, 30.754347], [-96.169843, 30.755141], [-96.169752, 30.755551], [-96.16848, 30.756402], [-96.168167, 30.757012], [-96.16851, 30.757168], [-96.169578, 30.756663], [-96.169747, 30.756996], [-96.169455, 30.757993], [-96.16851, 30.758541], [-96.16656, 30.758653], [-96.166209, 30.759244], [-96.16652, 30.760319], [-96.165864, 30.76038], [-96.16534, 30.75985], [-96.164965, 30.759911], [-96.164306, 30.760631], [-96.16444, 30.762219], [-96.162839, 30.763039], [-96.162753, 30.763558], [-96.16314, 30.764136], [-96.164007, 30.764525], [-96.164589, 30.764207], [-96.16489, 30.764667], [-96.163603, 30.766269], [-96.163693, 30.767831], [-96.163018, 30.768381], [-96.163591, 30.768733], [-96.163794, 30.769228], [-96.163469, 30.769541], [-96.162644, 30.769509], [-96.164521, 30.772245], [-96.164338, 30.773351], [-96.165103, 30.77431], [-96.166102, 30.774571], [-96.166659, 30.774171], [-96.166352, 30.773338], [-96.165249, 30.772779], [-96.165787, 30.772115], [-96.167185, 30.772509], [-96.167236, 30.773405], [-96.168153, 30.773659], [-96.168062, 30.775027], [-96.167445, 30.775425], [-96.166362, 30.775221], [-96.166013, 30.776303], [-96.167371, 30.77694], [-96.168206, 30.7779], [-96.169249, 30.780202], [-96.169801, 30.780287], [-96.170542, 30.779507], [-96.170947, 30.780086], [-96.171487, 30.78171], [-96.171036, 30.783158], [-96.171855, 30.783397], [-96.172186, 30.784062], [-96.17174, 30.784984], [-96.172366, 30.785329], [-96.172834, 30.78486], [-96.172851, 30.784174], [-96.173224, 30.784126], [-96.174378, 30.784582], [-96.174742, 30.785089], [-96.175656, 30.785359], [-96.175461, 30.786185], [-96.177008, 30.786491], [-96.17938, 30.789198], [-96.179503, 30.790311], [-96.179951, 30.790632], [-96.180178, 30.791785], [-96.181817, 30.79227], [-96.182924, 30.792255], [-96.182986, 30.792567], [-96.181933, 30.792888], [-96.181698, 30.793398], [-96.181992, 30.793837], [-96.183032, 30.793933], [-96.183641, 30.795136], [-96.183525, 30.795751], [-96.18289, 30.796122], [-96.18333, 30.797133], [-96.18322, 30.797739], [-96.182696, 30.797451], [-96.181908, 30.797538], [-96.180995, 30.798096], [-96.18009, 30.797626], [-96.179471, 30.797756], [-96.179907, 30.798399], [-96.179311, 30.79882], [-96.17934, 30.799882], [-96.178485, 30.800224], [-96.17815, 30.801092], [-96.177607, 30.800984], [-96.177174, 30.799368], [-96.176264, 30.799269], [-96.17648, 30.800336], [-96.176308, 30.801242], [-96.175627, 30.800858], [-96.173915, 30.801083], [-96.173991, 30.801654], [-96.173545, 30.802665], [-96.172851, 30.802627], [-96.172463, 30.803028], [-96.172488, 30.803962], [-96.173303, 30.803792], [-96.173698, 30.803979], [-96.173659, 30.805084], [-96.173175, 30.805892], [-96.171564, 30.805946], [-96.170908, 30.806743], [-96.172831, 30.807342], [-96.172398, 30.808584], [-96.173423, 30.808694], [-96.175575, 30.809541], [-96.175489, 30.8111], [-96.174713, 30.811577], [-96.173929, 30.811315], [-96.174286, 30.812895], [-96.17315, 30.813527], [-96.172737, 30.814211], [-96.172747, 30.815436], [-96.173912, 30.815172], [-96.174184, 30.815472], [-96.174055, 30.81592], [-96.172955, 30.817404], [-96.17017, 30.819359], [-96.168629, 30.822037], [-96.16837, 30.822997], [-96.125235, 30.826603], [-96.125235, 30.827393], [-96.118499, 30.827677], [-95.915146, 30.856533], [-95.875228, 30.862672], [-95.873019, 30.862635], [-95.863059, 30.864125], [-95.845972, 30.740206], [-95.836898, 30.676777], [-95.843986, 30.674642]]]}},
    {"type": "Feature", "properties": {"name": "Queen City Aquifer", "description": "Mapped extent of the aquifer within Grimes County", "Rank": "Minor aquifer"}, "geometry": {"type": "Polygon", "coordinates": [[[-95.858923, 30.834416], [-95.874763, 30.829518], [-95.882301, 30.826669], [-95.893394, 30.823655], [-95.925148, 30.811826], [-95.935508, 30.808305], [-95.954842, 30.801164], [-95.964347, 30.798337], [-95.972191, 30.794736], [-95.978874, 30.790693], [-95.994164, 30.784177], [-96.003593, 30.781037], [-96.015174, 30.77501], [-96.028832, 30.765263], [-96.042671, 30.756833], [-96.05352, 30.749196], [-96.059257, 30.744401], [-96.061713, 30.74212], [-96.070122, 30.732984], [-96.079109, 30.725225], [-96.087364, 30.717176], [-96.107887, 30.694554], [-96.115608, 30.686845], [-96.121131, 30.682107], [-96.135383, 30.667542], [-96.143226, 30.660578], [-96.151481, 30.651834], [-96.159462, 30.644524], [-96.166709, 30.63641], [-96.170665, 30.632811], [-96.171164, 30.633199], [-96.171076, 30.633724], [-96.171664, 30.634163], [-96.170742, 30.635844], [-96.171025, 30.636088], [-96.172046, 30.635127], [-96.172786, 30.635253], [-96.172992, 30.635747], [-96.172054, 30.638129], [-96.169809, 30.638676], [-96.168404, 30.638697], [-96.169373, 30.639236], [-96.169638, 30.639734], [-96.168892, 30.640241], [-96.168963, 30.641981], [-96.167053, 30.643833], [-96.166153, 30.643096], [-96.165556, 30.643085], [-96.165784, 30.64403], [-96.166331, 30.644489], [-96.165758, 30.647063], [-96.167365, 30.647218], [-96.16769, 30.647732], [-96.167151, 30.649144], [-96.167363, 30.649568], [-96.167781, 30.649986], [-96.169282, 30.649893], [-96.169508, 30.650318], [-96.16901, 30.651353], [-96.168106, 30.650997], [-96.167784, 30.651318], [-96.167122, 30.653019], [-96.167173, 30.65499], [-96.166891, 30.655024], [-96.166486, 30.654239], [-96.165944, 30.654375], [-96.165406, 30.657601], [-96.163978, 30.658997], [-96.164689, 30.659477], [-96.165459, 30.660689], [-96.165359, 30.660936], [-96.164458, 30.661182], [-96.164355, 30.661489], [-96.164391, 30.662275], [-96.164905, 30.662948], [-96.165987, 30.663136], [-96.167117, 30.662703], [-96.169297, 30.663656], [-96.16749, 30.66527], [-96.167663, 30.665737], [-96.168537, 30.665944], [-96.168772, 30.666356], [-96.168772, 30.667882], [-96.168083, 30.669144], [-96.169062, 30.669912], [-96.168439, 30.67112], [-96.169141, 30.672707], [-96.170745, 30.672082], [-96.171364, 30.672122], [-96.170142, 30.67368], [-96.171712, 30.67584], [-96.171925, 30.678191], [-96.172736, 30.679843], [-96.172498, 30.680248], [-96.171867, 30.680407], [-96.170623, 30.680211], [-96.169999, 30.681358], [-96.17092, 30.681437], [-96.171485, 30.682109], [-96.171201, 30.684121], [-96.170491, 30.685337], [-96.170822, 30.68719], [-96.169786, 30.688212], [-96.170935, 30.688419], [-96.170383, 30.689544], [-96.171483, 30.690103], [-96.171954, 30.691453], [-96.173034, 30.691924], [-96.172156, 30.693618], [-96.173287, 30.693464], [-96.174102, 30.693978], [-96.175378, 30.696055], [-96.176896, 30.696838], [-96.176295, 30.697933], [-96.175373, 30.697767], [-96.175647, 30.698707], [-96.174884, 30.699077], [-96.176629, 30.700362], [-96.176589, 30.701953], [-96.176086, 30.702033], [-96.175496, 30.701591], [-96.175113, 30.702033], [-96.175645, 30.70358], [-96.176968, 30.703081], [-96.177537, 30.703938], [-96.177141, 30.705141], [-96.177824, 30.706141], [-96.176603, 30.705993], [-96.176293, 30.706442], [-96.177176, 30.707175], [-96.177254, 30.708217], [-96.177946, 30.709513], [-96.177223, 30.709971], [-96.175227, 30.709191], [-96.174142, 30.709528], [-96.174083, 30.710004], [-96.175142, 30.711155], [-96.174625, 30.711844], [-96.173099, 30.711497], [-96.173035, 30.712089], [-96.172061, 30.712256], [-96.171722, 30.714089], [-96.172079, 30.715165], [-96.170736, 30.716151], [-96.170674, 30.716631], [-96.171415, 30.716969], [-96.171259, 30.717367], [-96.170296, 30.71801], [-96.169717, 30.717425], [-96.16875, 30.717173], [-96.169186, 30.718483], [-96.168804, 30.719246], [-96.168092, 30.719669], [-96.168138, 30.720415], [-96.167789, 30.720761], [-96.165498, 30.721309], [-96.164549, 30.721978], [-96.164696, 30.72383], [-96.164236, 30.724373], [-96.163327, 30.724739], [-96.162064, 30.727836], [-96.16221, 30.728857], [-96.161953, 30.729863], [-96.162573, 30.730825], [-96.162499, 30.731677], [-96.161427, 30.732564], [-96.162172, 30.734291], [-96.160224, 30.735165], [-96.161233, 30.735259], [-96.162072, 30.73583], [-96.162203, 30.736407], [-96.16149, 30.737216], [-96.162628, 30.737496], [-96.162083, 30.738711], [-96.162587, 30.739797], [-96.165044, 30.740715], [-96.165451, 30.741199], [-96.165659, 30.742476], [-96.166775, 30.743135], [-96.16506, 30.744422], [-96.168502, 30.746832], [-96.170145, 30.748855], [-96.17057, 30.750646], [-96.170472, 30.752868], [-96.168717, 30.753086], [-96.168088, 30.754347], [-96.169843, 30.755141], [-96.169752, 30.755551], [-96.16848, 30.756402], [-96.168167, 30.757012], [-96.16851, 30.757168], [-96.169578, 30.756663], [-96.169747, 30.756996], [-96.169455, 30.757993], [-96.16851, 30.758541], [-96.16656, 30.758653], [-96.166209, 30.759244], [-96.16652, 30.760319], [-96.165864, 30.76038], [-96.16534, 30.75985], [-96.164965, 30.759911], [-96.164306, 30.760631], [-96.16444, 30.762219], [-96.162839, 30.763039], [-96.162753, 30.763558], [-96.16314, 30.764136], [-96.164007, 30.764525], [-96.164589, 30.764207], [-96.16489, 30.764667], [-96.163603, 30.766269], [-96.163693, 30.767831], [-96.163018, 30.768381], [-96.163591, 30.768733], [-96.163794, 30.769228], [-96.163469, 30.769541], [-96.162644, 30.769509], [-96.164521, 30.772245], [-96.164338, 30.773351], [-96.165103, 30.77431], [-96.166102, 30.774571], [-96.166659, 30.774171], [-96.166352, 30.773338], [-96.165249, 30.772779], [-96.165787, 30.772115], [-96.167185, 30.772509], [-96.167236, 30.773405], [-96.168153, 30.773659], [-96.168062, 30.775027], [-96.167445, 30.775425], [-96.166362, 30.775221], [-96.166013, 30.776303], [-96.167371, 30.77694], [-96.168206, 30.7779], [-96.169249, 30.780202], [-96.169801, 30.780287], [-96.170542, 30.779507], [-96.170947, 30.780086], [-96.171487, 30.78171], [-96.171036, 30.783158], [-96.171855, 30.783397], [-96.172186, 30.784062], [-96.17174, 30.784984], [-96.172366, 30.785329], [-96.172834, 30.78486], [-96.172851, 30.784174], [-96.173224, 30.784126], [-96.174378, 30.784582], [-96.174742, 30.785089], [-96.175656, 30.785359], [-96.175461, 30.786185], [-96.177008, 30.786491], [-96.17938, 30.789198], [-96.179503, 30.790311], [-96.179951, 30.790632], [-96.180178, 30.791785], [-96.181817, 30.79227], [-96.182924, 30.792255], [-96.182986, 30.792567], [-96.181933, 30.792888], [-96.181698, 30.793398], [-96.181992, 30.793837], [-96.183032, 30.793933], [-96.183641, 30.795136], [-96.183525, 30.795751], [-96.18289, 30.796122], [-96.18333, 30.797133], [-96.18322, 30.797739], [-96.182696, 30.797451], [-96.181908, 30.797538], [-96.180995, 30.798096], [-96.18009, 30.797626], [-96.179471, 30.797756], [-96.179907, 30.798399], [-96.179311, 30.79882], [-96.17934, 30.799882], [-96.178485, 30.800224], [-96.17815, 30.801092], [-96.177607, 30.800984], [-96.177174, 30.799368], [-96.176264, 30.799269], [-96.17648, 30.800336], [-96.176308, 30.801242], [-96.175627, 30.800858], [-96.173915, 30.801083], [-96.173991, 30.801654], [-96.173545, 30.802665], [-96.172851, 30.802627], [-96.172463, 30.803028], [-96.172488, 30.803962], [-96.173303, 30.803792], [-96.173698, 30.803979], [-96.173659, 30.805084], [-96.173175, 30.805892], [-96.171564, 30.805946], [-96.170908, 30.806743], [-96.172831, 30.807342], [-96.172398, 30.808584], [-96.173423, 30.808694], [-96.175575, 30.809541], [-96.175536, 30.810925], [-96.174713, 30.811577], [-96.173929, 30.811315], [-96.174286, 30.812895], [-96.17315, 30.813527], [-96.172737, 30.814211], [-96.172747, 30.815436], [-96.173912, 30.815172], [-96.174184, 30.815472], [-96.174055, 30.81592], [-96.172955, 30.817404], [-96.17017, 30.819359], [-96.168629, 30.822037], [-96.16837, 30.822997], [-96.125235, 30.826603], [-96.125235, 30.827393], [-96.118499, 30.827677], [-95.915146, 30.856533], [-95.875228, 30.862672], [-95.873019, 30.862635], [-95.863059, 30.864125], [-95.858923, 30.834416]]]}},
    {"type": "Feature", "properties": {"name": "Carrizo-Wilcox Aquifer", "description": "Mapped extent of the aquifer within Grimes County", "Rank": "Major aquifer"}, "geometry": {"type": "Polygon", "coordinates": [[[-95.856289, 30.815498], [-95.860359, 30.815137], [-95.865806, 30.815518], [-95.876914, 30.815652], [-95.884651, 30.817487], [-95.899895, 30.822819], [-95.912208, 30.827622], [-95.916374, 30.829679], [-95.919135, 30.83141], [-95.933631, 30.835435], [-95.940315, 30.837625], [-95.942435, 30.83725], [-95.946327, 30.835939], [-95.951926, 30.832998], [-95.970558, 30.820889], [-95.975639, 30.818643], [-95.982368, 30.816258], [-95.990119, 30.815287], [-95.992317, 30.815194], [-95.995246, 30.815495], [-96.000023, 30.816423], [-96.001487, 30.819619], [-96.003867, 30.81997], [-96.00692, 30.820153], [-96.00959, 30.819989], [-96.01609, 30.819211], [-96.017753, 30.8187], [-96.022026, 30.816598], [-96.029549, 30.812097], [-96.043251, 30.805845], [-96.0503, 30.803803], [-96.058083, 30.800565], [-96.066597, 30.797555], [-96.071662, 30.794477], [-96.073387, 30.792878], [-96.077399, 30.787568], [-96.079063, 30.784539], [-96.082878, 30.779854], [-96.089272, 30.774205], [-96.098044, 30.770162], [-96.105355, 30.768293], [-96.108803, 30.767728], [-96.113792, 30.767801], [-96.116844, 30.767575], [-96.122611, 30.767823], [-96.126396, 30.767601], [-96.137749, 30.769116], [-96.142524, 30.77073], [-96.145439, 30.771887], [-96.161735, 30.781484], [-96.177376, 30.792336], [-96.183217, 30.795931], [-96.18289, 30.796122], [-96.18333, 30.797133], [-96.18322, 30.797739], [-96.182696, 30.797451], [-96.181908, 30.797538], [-96.180995, 30.798096], [-96.18009, 30.797626], [-96.179471, 30.797756], [-96.179907, 30.798399], [-96.179311, 30.79882], [-96.17934, 30.799882], [-96.178485, 30.800224], [-96.17815, 30.801092], [-96.177607, 30.800984], [-96.177174, 30.799368], [-96.176264, 30.799269], [-96.17648, 30.800336], [-96.176308, 30.801242], [-96.175627, 30.800858], [-96.173915, 30.801083], [-96.173991, 30.801654], [-96.173545, 30.802665], [-96.172851, 30.802627], [-96.172463, 30.803028], [-96.172488, 30.803962], [-96.173303, 30.803792], [-96.173698, 30.803979], [-96.173659, 30.805084], [-96.173175, 30.805892], [-96.171564, 30.805946], [-96.170908, 30.806743], [-96.172831, 30.807342], [-96.172398, 30.808584], [-96.173423, 30.808694], [-96.175575, 30.809541], [-96.175536, 30.810925], [-96.174713, 30.811577], [-96.173929, 30.811315], [-96.174286, 30.812895], [-96.17315, 30.813527], [-96.172737, 30.814211], [-96.172747, 30.815436], [-96.173912, 30.815172], [-96.174184, 30.815472], [-96.174055, 30.81592], [-96.172955, 30.817404], [-96.17017, 30.819359], [-96.168629, 30.822037], [-96.16837, 30.822997], [-96.125235, 30.826603], [-96.125235, 30.827393], [-96.118499, 30.827677], [-95.915146, 30.856533], [-95.875228, 30.862672], [-95.873019, 30.862635], [-95.863059, 30.864125], [-95.856289, 30.815498]]]}},
    {"type": "Feature", "properties": {"name": "Brazos River Alluvium Aquifer", "description": "Mapped extent of the aquifer within Grimes County", "Rank": "Minor aquifer"}, "geometry": {"type": "MultiPolygon", "coordinates": [[[[-96.107588, 30.41751], [-96.10627, 30.413999], [-96.106285, 30.413083], [-96.10662, 30.411538], [-96.107689, 30.409196], [-96.107688, 30.408505], [-96.106971, 30.406789], [-96.107093, 30.406156], [-96.108359, 30.4045], [-96.111748, 30.401418], [-96.111626, 30.399987], [-96.110038, 30.397004], [-96.11045, 30.394887], [-96.110984, 30.393743], [-96.110862, 30.391739], [-96.110008, 30.388985], [-96.109017, 30.387666], [-96.106651, 30.386517], [-96.103004, 30.387593], [-96.099036, 30.386838], [-96.095924, 30.387288], [-96.094932, 30.388318], [-96.095711, 30.391297], [-96.095573, 30.393529], [-96.095832, 30.395936], [-96.095223, 30.397481], [-96.09423, 30.397992], [-96.093238, 30.39805], [-96.090996, 30.397584], [-96.087563, 30.397688], [-96.086097, 30.397969], [-96.085579, 30.397854], [-96.084984, 30.397221], [-96.084663, 30.394761], [-96.08387, 30.393384], [-96.080833, 30.393434], [-96.079445, 30.393716], [-96.078911, 30.393254], [-96.078392, 30.390733], [-96.07708, 30.387639], [-96.076163, 30.386319], [-96.07444, 30.386144], [-96.073784, 30.386541], [-96.07238, 30.388596], [-96.071114, 30.391171], [-96.070457, 30.391339], [-96.069801, 30.390424], [-96.068946, 30.389962], [-96.068473, 30.389443], [-96.07035, 30.385785], [-96.070824, 30.383668], [-96.070304, 30.381208], [-96.070503, 30.379372], [-96.070304, 30.378628], [-96.066414, 30.376958], [-96.062522, 30.376088], [-96.059608, 30.376076], [-96.058219, 30.376588], [-96.055366, 30.379216], [-96.054436, 30.379555], [-96.050727, 30.38006], [-96.049675, 30.381203], [-96.048607, 30.383489], [-96.047615, 30.383371], [-96.045554, 30.383824], [-96.044243, 30.383817], [-96.04351, 30.383302], [-96.043311, 30.3825], [-96.043586, 30.381871], [-96.045249, 30.380158], [-96.047234, 30.378617], [-96.048912, 30.374845], [-96.048972, 30.373128], [-96.050361, 30.372555], [-96.052543, 30.372391], [-96.054267, 30.37148], [-96.055672, 30.370396], [-96.056327, 30.369084], [-96.058189, 30.367715], [-96.058723, 30.367028], [-96.059059, 30.36554], [-96.058754, 30.361303], [-96.058098, 30.358266], [-96.055793, 30.356255], [-96.050773, 30.353948], [-96.047812, 30.351189], [-96.046364, 30.34924], [-96.045722, 30.346089], [-96.043556, 30.342592], [-96.043175, 30.3411], [-96.043846, 30.338754], [-96.045372, 30.336526], [-96.045448, 30.33521], [-96.046761, 30.334298], [-96.052726, 30.332882], [-96.053642, 30.332886], [-96.05497, 30.333519], [-96.056358, 30.333467], [-96.058006, 30.332268], [-96.061057, 30.32913], [-96.062187, 30.328332], [-96.063042, 30.328274], [-96.063651, 30.327935], [-96.066566, 30.325536], [-96.067024, 30.325483], [-96.067482, 30.325826], [-96.067146, 30.327084], [-96.067863, 30.32995], [-96.069114, 30.330525], [-96.070579, 30.3303], [-96.07296, 30.328305], [-96.073769, 30.324815], [-96.075691, 30.322816], [-96.076485, 30.321499], [-96.076499, 30.321043], [-96.075966, 30.320294], [-96.07386, 30.318341], [-96.071953, 30.315472], [-96.068855, 30.313977], [-96.066947, 30.312139], [-96.06649, 30.311337], [-96.065635, 30.308354], [-96.06443, 30.299649], [-96.064033, 30.29833], [-96.062462, 30.295693], [-96.062538, 30.292485], [-96.062218, 30.289391], [-96.062752, 30.287675], [-96.062767, 30.285214], [-96.063377, 30.282468], [-96.062797, 30.276165], [-96.067711, 30.272114], [-96.068459, 30.267079], [-96.067939, 30.263871], [-96.066108, 30.260774], [-96.063347, 30.257959], [-96.059577, 30.257947], [-96.058525, 30.258519], [-96.056862, 30.257883], [-96.053169, 30.258671], [-96.052177, 30.258042], [-96.05146, 30.256265], [-96.051596, 30.255002], [-96.052131, 30.254606], [-96.053718, 30.254208], [-96.058418, 30.251416], [-96.060279, 30.24896], [-96.061134, 30.247247], [-96.06121, 30.246785], [-96.059043, 30.244718], [-96.056098, 30.238183], [-96.0559, 30.23692], [-96.056709, 30.232686], [-96.056148, 30.230724], [-96.069319, 30.229964], [-96.072849, 30.229491], [-96.088941, 30.228718], [-96.091453, 30.225994], [-96.093165, 30.225187], [-96.094114, 30.227008], [-96.09557, 30.22876], [-96.098248, 30.230439], [-96.101477, 30.23076], [-96.104367, 30.231473], [-96.105379, 30.23287], [-96.103145, 30.238681], [-96.101346, 30.24088], [-96.098571, 30.242736], [-96.096936, 30.243007], [-96.094423, 30.242386], [-96.090396, 30.238883], [-96.087671, 30.23777], [-96.083327, 30.238312], [-96.081741, 30.240882], [-96.080839, 30.244305], [-96.083911, 30.250354], [-96.08605, 30.252541], [-96.089438, 30.253041], [-96.094873, 30.252392], [-96.0981, 30.253867], [-96.09912, 30.255174], [-96.099253, 30.258049], [-96.09886, 30.259704], [-96.098039, 30.261674], [-96.095514, 30.265597], [-96.094859, 30.268309], [-96.094683, 30.271205], [-96.093256, 30.275503], [-96.091737, 30.278013], [-96.090602, 30.279071], [-96.085089, 30.282607], [-96.084382, 30.28376], [-96.084049, 30.285065], [-96.084382, 30.28766], [-96.084794, 30.28822], [-96.086855, 30.289407], [-96.089809, 30.289668], [-96.09393, 30.289078], [-96.096933, 30.289], [-96.098424, 30.289585], [-96.099316, 30.290258], [-96.100321, 30.291809], [-96.10058, 30.292805], [-96.100402, 30.294802], [-96.099345, 30.298466], [-96.097614, 30.300984], [-96.095342, 30.302824], [-96.093637, 30.305195], [-96.093513, 30.306532], [-96.093829, 30.308171], [-96.094404, 30.309371], [-96.095613, 30.310493], [-96.096515, 30.310851], [-96.097193, 30.311112], [-96.098587, 30.311021], [-96.10408, 30.30882], [-96.115056, 30.306001], [-96.117372, 30.304195], [-96.119506, 30.304821], [-96.120477, 30.305689], [-96.122703, 30.309368], [-96.125273, 30.311563], [-96.126191, 30.311878], [-96.131635, 30.312434], [-96.135057, 30.313508], [-96.136547, 30.314752], [-96.137078, 30.316669], [-96.137298, 30.321058], [-96.137944, 30.321859], [-96.138866, 30.322453], [-96.147462, 30.324168], [-96.150568, 30.326058], [-96.152789, 30.32801], [-96.15463, 30.330288], [-96.154268, 30.330647], [-96.154171, 30.332094], [-96.154438, 30.333234], [-96.154013, 30.334002], [-96.153232, 30.334475], [-96.146389, 30.335948], [-96.144092, 30.336957], [-96.14249, 30.338037], [-96.141546, 30.339083], [-96.140259, 30.339654], [-96.139812, 30.340291], [-96.140093, 30.341723], [-96.140997, 30.342766], [-96.145874, 30.343225], [-96.148465, 30.345], [-96.148542, 30.346564], [-96.149693, 30.349892], [-96.149758, 30.352225], [-96.149069, 30.353116], [-96.14762, 30.353278], [-96.14536, 30.352165], [-96.143597, 30.352102], [-96.142423, 30.352905], [-96.141639, 30.355356], [-96.141778, 30.356308], [-96.142623, 30.35806], [-96.142511, 30.361131], [-96.141712, 30.362947], [-96.141609, 30.36551], [-96.14215, 30.367815], [-96.142617, 30.368367], [-96.144657, 30.369365], [-96.1455, 30.370874], [-96.14548, 30.371828], [-96.144249, 30.374493], [-96.144134, 30.37698], [-96.145035, 30.378137], [-96.146243, 30.379009], [-96.147067, 30.380284], [-96.147412, 30.381353], [-96.147255, 30.38284], [-96.146023, 30.383993], [-96.14591, 30.384444], [-96.145251, 30.384822], [-96.138971, 30.383138], [-96.136528, 30.383621], [-96.135024, 30.384464], [-96.134193, 30.384583], [-96.1337, 30.386271], [-96.132247, 30.387902], [-96.12941, 30.388324], [-96.126016, 30.387775], [-96.122444, 30.384078], [-96.121478, 30.383999], [-96.120898, 30.386047], [-96.120004, 30.386766], [-96.119669, 30.387469], [-96.12025, 30.389109], [-96.121515, 30.390278], [-96.121524, 30.391891], [-96.120956, 30.392253], [-96.119319, 30.392115], [-96.117595, 30.391278], [-96.117152, 30.39145], [-96.116756, 30.392229], [-96.118416, 30.398448], [-96.118262, 30.39932], [-96.117367, 30.399791], [-96.116317, 30.399332], [-96.115672, 30.398342], [-96.114046, 30.396912], [-96.114076, 30.394845], [-96.113772, 30.394337], [-96.113067, 30.394102], [-96.112343, 30.394433], [-96.111445, 30.395211], [-96.11118, 30.39682], [-96.111932, 30.398324], [-96.113234, 30.399887], [-96.11355, 30.401183], [-96.112698, 30.402295], [-96.110011, 30.404167], [-96.108193, 30.406208], [-96.107914, 30.406987], [-96.10862, 30.407622], [-96.11096, 30.407053], [-96.1116, 30.407357], [-96.112373, 30.409849], [-96.113342, 30.411377], [-96.113601, 30.413186], [-96.112194, 30.415668], [-96.109523, 30.416902], [-96.107588, 30.41751]]], [[[-96.09719, 30.418958], [-96.099312, 30.418561], [-96.099646, 30.418591], [-96.098259, 30.419841], [-96.09746, 30.420027], [-96.095537, 30.419696], [-96.095307, 30.419209], [-96.095597, 30.418519], [-96.09719, 30.418958]]], [[[-96.104866, 30.420297], [-96.106183, 30.418876], [-96.106533, 30.421322], [-96.106341, 30.421933], [-96.105601, 30.422125], [-96.104315, 30.421723], [-96.103517, 30.421211], [-96.103052, 30.420419], [-96.103199, 30.420078], [-96.103996, 30.42075], [-96.104866, 30.420297]]], [[[-96.12487, 30.466095], [-96.117393, 30.46568], [-96.110588, 30.464287], [-96.108208, 30.463193], [-96.10656, 30.461526], [-96.106361, 30.460496], [-96.107689, 30.458783], [-96.108237, 30.455918], [-96.10685, 30.455632], [-96.102486, 30.456308], [-96.098442, 30.454923], [-96.097388, 30.454747], [-96.09594, 30.454973], [-96.095267, 30.454339], [-96.095161, 30.450619], [-96.095695, 30.447754], [-96.098168, 30.443525], [-96.098366, 30.442665], [-96.097511, 30.441575], [-96.092278, 30.44122], [-96.086143, 30.439141], [-96.083961, 30.438733], [-96.081169, 30.438782], [-96.080055, 30.43855], [-96.076286, 30.437051], [-96.073982, 30.435097], [-96.073723, 30.432694], [-96.074928, 30.429718], [-96.077186, 30.427949], [-96.080116, 30.422807], [-96.081184, 30.422062], [-96.083626, 30.42104], [-96.085289, 30.41887], [-96.086351, 30.418671], [-96.082934, 30.422949], [-96.082812, 30.42364], [-96.083347, 30.424985], [-96.082524, 30.428255], [-96.082094, 30.428615], [-96.080777, 30.428937], [-96.079969, 30.43003], [-96.080387, 30.431043], [-96.080975, 30.43129], [-96.085383, 30.430026], [-96.086791, 30.42989], [-96.087431, 30.430756], [-96.087328, 30.431409], [-96.085882, 30.433865], [-96.085832, 30.435217], [-96.086571, 30.436069], [-96.088471, 30.436779], [-96.090585, 30.438024], [-96.092821, 30.440101], [-96.093651, 30.440047], [-96.094352, 30.438887], [-96.09558, 30.438846], [-96.096234, 30.437566], [-96.09689, 30.437409], [-96.09732, 30.437586], [-96.099056, 30.440058], [-96.100629, 30.440693], [-96.103808, 30.437507], [-96.105196, 30.437023], [-96.105709, 30.437608], [-96.106526, 30.440015], [-96.104766, 30.440835], [-96.104598, 30.443787], [-96.10534, 30.444408], [-96.106775, 30.443648], [-96.108706, 30.443801], [-96.111013, 30.443155], [-96.111887, 30.442693], [-96.112195, 30.441357], [-96.113073, 30.440607], [-96.114222, 30.441275], [-96.115132, 30.440451], [-96.115909, 30.440427], [-96.118987, 30.441512], [-96.119062, 30.4424], [-96.119354, 30.442696], [-96.120202, 30.441805], [-96.121095, 30.443029], [-96.121976, 30.443579], [-96.1218, 30.444834], [-96.122177, 30.445047], [-96.122238, 30.445701], [-96.123164, 30.446118], [-96.123016, 30.447038], [-96.124507, 30.448197], [-96.125902, 30.448769], [-96.126509, 30.449508], [-96.125683, 30.450215], [-96.12589, 30.450884], [-96.125398, 30.451479], [-96.124367, 30.451274], [-96.12371, 30.451799], [-96.12353, 30.453286], [-96.122784, 30.454464], [-96.123073, 30.455139], [-96.123638, 30.455544], [-96.124356, 30.455586], [-96.124795, 30.455121], [-96.124795, 30.453969], [-96.128129, 30.453441], [-96.128918, 30.452538], [-96.129821, 30.452384], [-96.130018, 30.452555], [-96.129903, 30.454093], [-96.129403, 30.455314], [-96.128739, 30.456024], [-96.126619, 30.456492], [-96.12614, 30.457276], [-96.126602, 30.45801], [-96.127166, 30.457773], [-96.128057, 30.458213], [-96.128363, 30.458983], [-96.129276, 30.459519], [-96.129709, 30.460115], [-96.129655, 30.460787], [-96.128808, 30.461745], [-96.130283, 30.463871], [-96.129559, 30.465535], [-96.12487, 30.466095]]]]}}
  ]
}
