{
  "type": "FeatureCollection",
  "features": [
    {"type": "Feature", "properties": {"name": "Drive to Anderson", "description": "Approximate. Estimated without traffic, from the nearest public road to the site.", "Destination": "Anderson", "Drive time (minutes)": 22, "Miles": 12.6}, "geometry": {"type": "LineString", "coordinates": [[-96.096619, 30.62833], [-96.096163, 30.619247], [-96.094614, 30.610934], [-96.093053, 30.607261], [-96.091578, 30.605659], [-96.089809, 30.603196], [-96.088962, 30.602399], [-96.087133, 30.601263], [-96.083224, 30.59821], [-96.07969, 30.595832], [-96.07838, 30.594759], [-96.077471, 30.59353], [-96.07428, 30.587787], [-96.073028, 30.585877], [-96.070155, 30.582845], [-96.067775, 30.581394], [-96.065782, 30.579749], [-96.065278, 30.579472], [-96.059755, 30.577394], [-96.057919, 30.575728], [-96.056334, 30.573921], [-96.055404, 30.573411], [-96.053872, 30.572998], [-96.053077, 30.572416], [-96.050489, 30.569337], [-96.041358, 30.559816], [-96.025573, 30.541718], [-96.023891, 30.540167], [-96.019028, 30.536959], [-96.016813, 30.534809], [-96.016281, 30.533959], [-96.015762, 30.530065], [-96.015302, 30.5286], [-96.014949, 30.528022], [-96.012106, 30.524325], [-96.008516, 30.520942], [-96.005085, 30.516051], [-96.004303, 30.515335], [-96.00337, 30.51496], [-96.002223, 30.514847], [-95.998736, 30.514882], [-95.997528, 30.514714], [-95.996163, 30.514321], [-95.994856, 30.51385], [-95.989917, 30.511463], [-95.9915, 30.501975], [-95.991527, 30.501161], [-95.99123, 30.499934], [-95.988485, 30.493832], [-95.988116, 30.489992], [-95.987608, 30.48799], [-95.987384, 30.487816], [-95.987006, 30.486998]]}},
    {"type": "Feature", "properties": {"name": "Drive to Navasota", "description": "Approximate. Estimated without traffic, from the nearest public road to the site.", "Destination": "Navasota", "Drive time (minutes)": 36, "Miles": 22.1}, "geometry": {"type": "LineString", "coordinates": [[-96.096619, 30.62833], [-96.096163, 30.619247], [-96.094614, 30.610934], [-96.093053, 30.607261], [-96.091578, 30.605659], [-96.089809, 30.603196], [-96.088962, 30.602399], [-96.087133, 30.601263], [-96.083224, 30.59821], [-96.07969, 30.595832], [-96.07838, 30.594759], [-96.077471, 30.59353], [-96.07428, 30.587787], [-96.073028, 30.585877], [-96.070155, 30.582845], [-96.067775, 30.581394], [-96.065782, 30.579749], [-96.065278, 30.579472], [-96.059755, 30.577394], [-96.057919, 30.575728], [-96.056334, 30.573921], [-96.055404, 30.573411], [-96.053872, 30.572998], [-96.053077, 30.572416], [-96.050489, 30.569337], [-96.041358, 30.559816], [-96.025573, 30.541718], [-96.023891, 30.540167], [-96.019028, 30.536959], [-96.016813, 30.534809], [-96.016281, 30.533959], [-96.015762, 30.530065], [-96.015302, 30.5286], [-96.014949, 30.528022], [-96.012106, 30.524325], [-96.008516, 30.520942], [-96.005085, 30.516051], [-96.004303, 30.515335], [-96.00337, 30.51496], [-96.002223, 30.514847], [-95.998736, 30.514882], [-95.997528, 30.514714], [-95.996163, 30.514321], [-95.994856, 30.51385], [-95.989917, 30.511463], [-95.9915, 30.501975], [-95.991527, 30.501161], [-95.99123, 30.499934], [-95.988485, 30.493832], [-95.988116, 30.489992], [-95.987603, 30.488109], [-95.987862, 30.487307], [-95.988447, 30.486739], [-95.990338, 30.48602], [-95.992021, 30.484818], [-95.994049, 30.483939], [-95.99496, 30.483367], [-96.017764, 30.463512], [-96.023328, 30.458601], [-96.024055, 30.457807], [-96.024772, 30.456731], [-96.026314, 30.453716], [-96.026934, 30.452151], [-96.027161, 30.450571], [-96.026981, 30.447328], [-96.027371, 30.445592], [-96.027764, 30.444807], [-96.028721, 30.443576], [-96.042152, 30.428462], [-96.043731, 30.426409], [-96.044531, 30.424729], [-96.050209, 30.410186], [-96.051147, 30.408347], [-96.053083, 30.405663], [-96.056282, 30.403285], [-96.059669, 30.401234], [-96.077063, 30.394769], [-96.087005, 30.389231], [-96.088179, 30.388493], [-96.087802, 30.388127], [-96.088005, 30.388006]]}},
    {"type": "Feature", "properties": {"name": "Drive to Bryan", "description": "Approximate. Estimated without traffic, from the nearest public road to the site.", "Destination": "Bryan", "Drive time (minutes)": 30, "Miles": 21.8}, "geometry": {"type": "LineString", "coordinates": [[-96.096619, 30.62833], [-96.09645, 30.623219], [-96.096075, 30.618631], [-96.094614, 30.610934], [-96.093234, 30.607593], [-96.089231, 30.602602], [-96.087133, 30.601263], [-96.083224, 30.59821], [-96.080561, 30.596426], [-96.080734, 30.595861], [-96.080697, 30.595037], [-96.080909, 30.594789], [-96.081863, 30.594631], [-96.087448, 30.594632], [-96.089711, 30.594954], [-96.090844, 30.595301], [-96.105651, 30.601427], [-96.10787, 30.602073], [-96.110291, 30.60221], [-96.119094, 30.601706], [-96.12067, 30.601724], [-96.122458, 30.602004], [-96.136835, 30.605051], [-96.138535, 30.605048], [-96.159353, 30.603534], [-96.172492, 30.603531], [-96.173868, 30.603963], [-96.187808, 30.610378], [-96.189283, 30.611162], [-96.20137, 30.619397], [-96.207987, 30.626637], [-96.210875, 30.629067], [-96.212161, 30.629924], [-96.213896, 30.630497], [-96.220596, 30.631537], [-96.23945, 30.631323], [-96.240836, 30.631464], [-96.242148, 30.631817], [-96.24343, 30.63244], [-96.244685, 30.633435], [-96.245492, 30.634441], [-96.247351, 30.637826], [-96.248849, 30.63945], [-96.250499, 30.640567], [-96.253549, 30.641945], [-96.254941, 30.642822], [-96.25595, 30.643713], [-96.258384, 30.646452], [-96.262478, 30.649342], [-96.263613, 30.650006], [-96.268355, 30.651735], [-96.271056, 30.653117], [-96.278409, 30.65628], [-96.281882, 30.657042], [-96.285463, 30.658306], [-96.289574, 30.658911], [-96.296685, 30.659687], [-96.300131, 30.660741], [-96.303551, 30.662619], [-96.307085, 30.664193], [-96.312836, 30.666081], [-96.313999, 30.666891], [-96.316583, 30.670072], [-96.317013, 30.670428], [-96.317886, 30.670825], [-96.318839, 30.670983], [-96.326739, 30.670924], [-96.331406, 30.671786], [-96.335961, 30.672202], [-96.340452, 30.672086], [-96.346099, 30.671607], [-96.347909, 30.671842], [-96.352811, 30.671919], [-96.353829, 30.6722], [-96.35481, 30.673341], [-96.355654, 30.6737], [-96.360732, 30.673549], [-96.362031, 30.673371], [-96.363334, 30.673503], [-96.364664, 30.673828], [-96.367837, 30.674158], [-96.367969, 30.673166], [-96.370035, 30.673367], [-96.36995, 30.673995]]}},
    {"type": "Feature", "properties": {"name": "Drive to College Station", "description": "Approximate. Estimated without traffic, from the nearest public road to the site.", "Destination": "College Station", "Drive time (minutes)": 28, "Miles": 20.1}, "geometry": {"type": "LineString", "coordinates": [[-96.096619, 30.62833], [-96.09645, 30.623219], [-96.096075, 30.618631], [-96.094614, 30.610934], [-96.093234, 30.607593], [-96.089231, 30.602602], [-96.087133, 30.601263], [-96.083224, 30.59821], [-96.080561, 30.596426], [-96.080734, 30.595861], [-96.080697, 30.595037], [-96.080909, 30.594789], [-96.081863, 30.594631], [-96.087448, 30.594632], [-96.089711, 30.594954], [-96.090844, 30.595301], [-96.105651, 30.601427], [-96.10787, 30.602073], [-96.110291, 30.60221], [-96.119094, 30.601706], [-96.12067, 30.601724], [-96.122458, 30.602004], [-96.136835, 30.605051], [-96.138535, 30.605048], [-96.159353, 30.603534], [-96.170914, 30.603457], [-96.172492, 30.603531], [-96.173117, 30.603697], [-96.177526, 30.605626], [-96.189283, 30.611162], [-96.20137, 30.619397], [-96.207987, 30.626637], [-96.210875, 30.629067], [-96.212161, 30.629924], [-96.213896, 30.630497], [-96.220596, 30.631537], [-96.23945, 30.631323], [-96.240836, 30.631464], [-96.242148, 30.631817], [-96.24343, 30.63244], [-96.244685, 30.633435], [-96.245492, 30.634441], [-96.247351, 30.637826], [-96.248849, 30.63945], [-96.250499, 30.640567], [-96.253549, 30.641945], [-96.254941, 30.642822], [-96.25595, 30.643713], [-96.258384, 30.646452], [-96.262788, 30.649544], [-96.264211, 30.650265], [-96.268355, 30.651735], [-96.271056, 30.653117], [-96.277942, 30.65612], [-96.281882, 30.657042], [-96.285218, 30.658241], [-96.286846, 30.658527], [-96.288645, 30.656571], [-96.296511, 30.64959], [-96.298303, 30.648234], [-96.313228, 30.638763], [-96.326145, 30.634888], [-96.327892, 30.634067], [-96.329173, 30.633154], [-96.332346, 30.630233], [-96.33184, 30.629825], [-96.333769, 30.627915], [-96.333947, 30.628051]]}},
    {"type": "Feature", "properties": {"name": "Drive to Huntsville", "description": "Approximate. Estimated without traffic, from the nearest public road to the site.", "Destination": "Huntsville", "Drive time (minutes)": 44, "Miles": 37.4}, "geometry": {"type": "LineString", "coordinates": [[-96.096619, 30.62833], [-96.09645, 30.623219], [-96.096075, 30.618631], [-96.094614, 30.610934], [-96.093053, 30.607261], [-96.091578, 30.605659], [-96.090184, 30.603657], [-96.089231, 30.602602], [-96.087133, 30.601263], [-96.083224, 30.59821], [-96.078763, 30.595124], [-96.078003, 30.594304], [-96.077362, 30.593327], [-96.076879, 30.593566], [-96.076188, 30.594418], [-96.074576, 30.59464], [-96.059526, 30.594903], [-96.039491, 30.595525], [-96.031312, 30.595614], [-95.960174, 30.589342], [-95.95789, 30.588829], [-95.940988, 30.583599], [-95.939651, 30.583546], [-95.936799, 30.583949], [-95.935785, 30.584281], [-95.934813, 30.584846], [-95.932621, 30.587072], [-95.931711, 30.5877], [-95.92731, 30.589229], [-95.926291, 30.589808], [-95.923392, 30.593255], [-95.916783, 30.599538], [-95.915864, 30.59999], [-95.905371, 30.603631], [-95.8945, 30.610381], [-95.892755, 30.611279], [-95.886851, 30.613799], [-95.886458, 30.614297], [-95.885534, 30.617462], [-95.882443, 30.62622], [-95.881848, 30.627328], [-95.881276, 30.62794], [-95.880018, 30.628736], [-95.869463, 30.632523], [-95.861449, 30.637139], [-95.859381, 30.638668], [-95.854897, 30.643331], [-95.854042, 30.644488], [-95.85174, 30.648618], [-95.850771, 30.649679], [-95.84677, 30.65191], [-95.833735, 30.658187], [-95.74992, 30.684149], [-95.7487, 30.684297], [-95.740462, 30.684366], [-95.704618, 30.684432], [-95.703349, 30.684523], [-95.627063, 30.699214], [-95.615501, 30.70059], [-95.614206, 30.701027], [-95.613183, 30.701588], [-95.594395, 30.713375], [-95.589763, 30.715608], [-95.5871, 30.716566], [-95.583724, 30.717682], [-95.581283, 30.718112], [-95.575069, 30.718461], [-95.573134, 30.718418], [-95.570809, 30.718127], [-95.568384, 30.718278], [-95.565684, 30.719067], [-95.56352, 30.719385], [-95.562603, 30.719641], [-95.560908, 30.720596], [-95.55758, 30.723091], [-95.556416, 30.723621], [-95.55553, 30.723778], [-95.550501, 30.723774], [-95.550505, 30.723498]]}},
    {"type": "Feature", "properties": {"name": "Drive to Downtown Houston", "description": "Approximate. Estimated without traffic, from the nearest public road to the site.", "Destination": "Downtown Houston", "Drive time (minutes)": 116, "Miles": 80.9}, "geometry": {"type": "LineString", "coordinates": [[-96.096619, 30.62833], [-96.096163, 30.619247], [-96.094614, 30.610934], [-96.093053, 30.607261], [-96.091578, 30.605659], [-96.089809, 30.603196], [-96.088962, 30.602399], [-96.087133, 30.601263], [-96.083224, 30.59821], [-96.07969, 30.595832], [-96.07838, 30.594759], [-96.077471, 30.59353], [-96.07428, 30.587787], [-96.073028, 30.585877], [-96.070155, 30.582845], [-96.067775, 30.581394], [-96.065782, 30.579749], [-96.065278, 30.579472], [-96.059755, 30.577394], [-96.057919, 30.575728], [-96.056334, 30.573921], [-96.055404, 30.573411], [-96.053872, 30.572998], [-96.053077, 30.572416], [-96.050489, 30.569337], [-96.041358, 30.559816], [-96.025573, 30.541718], [-96.023891, 30.540167], [-96.019028, 30.536959], [-96.016813, 30.534809], [-96.016281, 30.533959], [-96.015762, 30.530065], [-96.015302, 30.5286], [-96.014949, 30.528022], [-96.012106, 30.524325], [-96.008516, 30.520942], [-96.005085, 30.516051], [-96.004303, 30.515335], [-96.00337, 30.51496], [-96.002223, 30.514847], [-95.998736, 30.514882], [-95.997528, 30.514714], [-95.996163, 30.514321], [-95.994856, 30.51385], [-95.989917, 30.511463], [-95.9915, 30.501975], [-95.991527, 30.501161], [-95.99123, 30.499934], [-95.988485, 30.493832], [-95.988116, 30.489992], [-95.98761, 30.488205], [-95.987907, 30.487243], [-95.987774, 30.486906], [-95.982031, 30.488828], [-95.980595, 30.489091], [-95.978984, 30.488998], [-95.974657, 30.488023], [-95.972314, 30.487924], [-95.968379, 30.488234], [-95.967432, 30.488037], [-95.96708, 30.487823], [-95.966592, 30.487187], [-95.965689, 30.485477], [-95.964575, 30.482793], [-95.96334, 30.481028], [-95.962437, 30.478689], [-95.960092, 30.473821], [-95.959587, 30.473086], [-95.958757, 30.472343], [-95.956396, 30.471357], [-95.947885, 30.468779], [-95.9309, 30.464386], [-95.925988, 30.462681], [-95.911918, 30.451606], [-95.904254, 30.447078], [-95.903548, 30.446494], [-95.903101, 30.445725], [-95.902678, 30.443839], [-95.90219, 30.431998], [-95.902009, 30.431161], [-95.901314, 30.429942], [-95.89873, 30.427658], [-95.898182, 30.427021], [-95.893577, 30.418872], [-95.893146, 30.417603], [-95.892528, 30.413932], [-95.890442, 30.40778], [-95.889876, 30.407199], [-95.888895, 30.406727], [-95.884422, 30.406627], [-95.882782, 30.406139], [-95.875344, 30.400598], [-95.874818, 30.400128], [-95.874426, 30.399443], [-95.873607, 30.383681], [-95.873292, 30.37311], [-95.873355, 30.3686], [-95.8729, 30.349904], [-95.872984, 30.343103], [-95.872748, 30.34226], [-95.872066, 30.341584], [-95.869356, 30.340586], [-95.868248, 30.339964], [-95.863989, 30.335671], [-95.863194, 30.3341], [-95.86259, 30.333237], [-95.859477, 30.330716], [-95.858555, 30.330376], [-95.857606, 30.330253], [-95.853208, 30.330379], [-95.852304, 30.330272], [-95.850875, 30.32973], [-95.849769, 30.328789], [-95.847806, 30.325834], [-95.846343, 30.323288], [-95.843689, 30.318148], [-95.839576, 30.308937], [-95.83527, 30.301466], [-95.834927, 30.300065], [-95.835209, 30.296947], [-95.835054, 30.295241], [-95.826156, 30.294169], [-95.823689, 30.293573], [-95.820812, 30.292536], [-95.818587, 30.291482], [-95.816394, 30.290179], [-95.814547, 30.288834], [-95.799565, 30.276219], [-95.796484, 30.273208], [-95.793376, 30.269224], [-95.783287, 30.253761], [-95.78138, 30.251855], [-95.779453, 30.250626], [-95.777807, 30.249909], [-95.77664, 30.249556], [-95.773811, 30.249134], [-95.748664, 30.249178], [-95.746154, 30.248594], [-95.743938, 30.247387], [-95.742457, 30.246009], [-95.741365, 30.244253], [-95.738563, 30.234061], [-95.737512, 30.231774], [-95.735984, 30.229849], [-95.711264, 30.210053], [-95.691979, 30.192969], [-95.690717, 30.191295], [-95.689201, 30.187917], [-95.687762, 30.186122], [-95.686716, 30.185337], [-95.681712, 30.182499], [-95.680611, 30.181657], [-95.679557, 30.180527], [-95.678861, 30.179437], [-95.678371, 30.178262], [-95.677418, 30.172881], [-95.677123, 30.171812], [-95.676142, 30.169475], [-95.652974, 30.131772], [-95.651257, 30.128815], [-95.649237, 30.124786], [-95.643105, 30.114489], [-95.641079, 30.108874], [-95.639319, 30.104717], [-95.638101, 30.099966], [-95.6365, 30.096325], [-95.635943, 30.094676], [-95.635639, 30.092159], [-95.636259, 30.08739], [-95.635868, 30.08507], [-95.629289, 30.072459], [-95.628551, 30.07143], [-95.627528, 30.070379], [-95.623725, 30.067273], [-95.622889, 30.066441], [-95.621926, 30.065169], [-95.61728, 30.057619], [-95.615623, 30.052526], [-95.614468, 30.050238], [-95.611472, 30.045792], [-95.607685, 30.041164], [-95.605447, 30.03806], [-95.599234, 30.02676], [-95.590509, 30.012653], [-95.586322, 30.005554], [-95.585217, 30.00387], [-95.580116, 29.997604], [-95.575623, 29.992737], [-95.573774, 29.990471], [-95.572128, 29.988111], [-95.567934, 29.981478], [-95.56333, 29.973158], [-95.560884, 29.970156], [-95.560117, 29.969394], [-95.558802, 29.96845], [-95.552498, 29.96448], [-95.548798, 29.961842], [-95.542371, 29.95636], [-95.539505, 29.954236], [-95.536079, 29.951984], [-95.53077, 29.948089], [-95.524102, 29.942839], [-95.508948, 29.931419], [-95.505936, 29.928941], [-95.494431, 29.920248], [-95.478207, 29.910102], [-95.467694, 29.903347], [-95.463172, 29.898681], [-95.46252, 29.898242], [-95.461535, 29.897791], [-95.460128, 29.897567], [-95.429342, 29.897978], [-95.413036, 29.876835], [-95.410127, 29.873442], [-95.408511, 29.87097], [-95.402452, 29.85912], [-95.40158, 29.85771], [-95.392758, 29.845293], [-95.386682, 29.836018], [-95.382129, 29.830244], [-95.381221, 29.828623], [-95.380087, 29.823931], [-95.379623, 29.822574], [-95.376868, 29.817096], [-95.373576, 29.808689], [-95.371961, 29.800317], [-95.371825, 29.789122], [-95.371295, 29.787763], [-95.368958, 29.784224], [-95.36866, 29.783231], [-95.368561, 29.781116], [-95.36935, 29.778307], [-95.369298, 29.776729], [-95.368758, 29.775584], [-95.366225, 29.771444], [-95.365811, 29.770214], [-95.365804, 29.769204], [-95.365978, 29.768529], [-95.367198, 29.765813], [-95.367646, 29.765113], [-95.368485, 29.764363], [-95.370511, 29.763371], [-95.371805, 29.762551], [-95.372045, 29.762231], [-95.372057, 29.761664], [-95.371639, 29.761134], [-95.370105, 29.760087], [-95.369838, 29.760422]]}}
  ]
}
