{
  "type": "FeatureCollection",
  "features": [
    {"type": "Feature", "properties": {"name": "Likely route to Anderson", "description": "Approximate. Estimated without traffic, from the site's frontage on State Highway 30.", "Destination": "Anderson", "Drive time (minutes)": 14, "Miles": 13.1}, "geometry": {"type": "LineString", "coordinates": [[-96.035147, 30.595602], [-96.031312, 30.595614], [-95.960174, 30.589342], [-95.95789, 30.588829], [-95.944098, 30.584542], [-95.944956, 30.58245], [-95.945878, 30.580859], [-95.983195, 30.528701], [-95.987456, 30.522693], [-95.988033, 30.521669], [-95.98866, 30.519381], [-95.9915, 30.501975], [-95.991527, 30.501161], [-95.99123, 30.499934], [-95.988485, 30.493832], [-95.988116, 30.489992], [-95.987603, 30.488109], [-95.987782, 30.487446], [-95.988282, 30.486846], [-95.987068, 30.48714], [-95.987006, 30.486998]]}},
    {"type": "Feature", "properties": {"name": "Likely route to Navasota", "description": "Approximate. Estimated without traffic, from the site's frontage on State Highway 30.", "Destination": "Navasota", "Drive time (minutes)": 25, "Miles": 22.5}, "geometry": {"type": "LineString", "coordinates": [[-96.035147, 30.595602], [-96.031312, 30.595614], [-95.960174, 30.589342], [-95.95789, 30.588829], [-95.944098, 30.584542], [-95.944956, 30.58245], [-95.945878, 30.580859], [-95.983195, 30.528701], [-95.987456, 30.522693], [-95.988033, 30.521669], [-95.98866, 30.519381], [-95.991535, 30.501575], [-95.99123, 30.499934], [-95.988485, 30.493832], [-95.988116, 30.489992], [-95.98761, 30.488204], [-95.987678, 30.487675], [-95.987967, 30.487156], [-95.988531, 30.486693], [-95.990338, 30.48602], [-95.992021, 30.484818], [-95.994049, 30.483939], [-95.99496, 30.483367], [-96.017764, 30.463512], [-96.023328, 30.458601], [-96.024055, 30.457807], [-96.024772, 30.456731], [-96.026314, 30.453716], [-96.026934, 30.452151], [-96.027161, 30.450571], [-96.026981, 30.447328], [-96.027371, 30.445592], [-96.027764, 30.444807], [-96.028721, 30.443576], [-96.042152, 30.428462], [-96.043731, 30.426409], [-96.044531, 30.424729], [-96.050209, 30.410186], [-96.051147, 30.408347], [-96.053083, 30.405663], [-96.056282, 30.403285], [-96.059669, 30.401234], [-96.077063, 30.394769], [-96.087005, 30.389231], [-96.088179, 30.388493], [-96.087802, 30.388127], [-96.088005, 30.388006]]}},
    {"type": "Feature", "properties": {"name": "Likely route to Bryan", "description": "Approximate. Estimated without traffic, from the site's frontage on State Highway 30.", "Destination": "Bryan", "Drive time (minutes)": 26, "Miles": 22.0}, "geometry": {"type": "LineString", "coordinates": [[-96.035147, 30.595602], [-96.066277, 30.594737], [-96.087797, 30.594646], [-96.089103, 30.594815], [-96.090844, 30.595301], [-96.105651, 30.601427], [-96.106923, 30.60186], [-96.108652, 30.602188], [-96.110291, 30.60221], [-96.119094, 30.601705], [-96.12067, 30.601724], [-96.122458, 30.602004], [-96.135905, 30.604887], [-96.13758, 30.605097], [-96.159353, 30.603534], [-96.172492, 30.603531], [-96.173868, 30.603963], [-96.187808, 30.610378], [-96.189283, 30.611162], [-96.20137, 30.619397], [-96.207987, 30.626637], [-96.210875, 30.629067], [-96.212161, 30.629924], [-96.213896, 30.630497], [-96.220596, 30.631537], [-96.23945, 30.631323], [-96.240836, 30.631464], [-96.242148, 30.631817], [-96.24343, 30.63244], [-96.244685, 30.633435], [-96.245492, 30.634441], [-96.247351, 30.637826], [-96.248849, 30.63945], [-96.250499, 30.640567], [-96.253549, 30.641945], [-96.254941, 30.642822], [-96.25595, 30.643713], [-96.258384, 30.646452], [-96.262478, 30.649342], [-96.263613, 30.650006], [-96.268355, 30.651735], [-96.271056, 30.653117], [-96.278409, 30.656279], [-96.281882, 30.657042], [-96.285463, 30.658306], [-96.289574, 30.658911], [-96.296685, 30.659687], [-96.300131, 30.660741], [-96.303551, 30.662619], [-96.307085, 30.664193], [-96.312836, 30.666081], [-96.313999, 30.666891], [-96.316583, 30.670072], [-96.317013, 30.670428], [-96.317886, 30.670825], [-96.318839, 30.670983], [-96.326739, 30.670924], [-96.331406, 30.671786], [-96.335961, 30.672202], [-96.340452, 30.672086], [-96.346099, 30.671607], [-96.347909, 30.671842], [-96.352811, 30.671919], [-96.353829, 30.6722], [-96.35481, 30.673341], [-96.355654, 30.6737], [-96.360732, 30.673549], [-96.362031, 30.673371], [-96.363436, 30.67352], [-96.364664, 30.673828], [-96.369905, 30.674326], [-96.368897, 30.67417], [-96.369024, 30.67327], [-96.370035, 30.673367], [-96.36995, 30.673995]]}},
    {"type": "Feature", "properties": {"name": "Likely route to College Station", "description": "Approximate. Estimated without traffic, from the site's frontage on State Highway 30.", "Destination": "College Station", "Drive time (minutes)": 23, "Miles": 20.4}, "geometry": {"type": "LineString", "coordinates": [[-96.035147, 30.595602], [-96.066277, 30.594737], [-96.087797, 30.594646], [-96.089103, 30.594815], [-96.090844, 30.595301], [-96.105651, 30.601427], [-96.106923, 30.60186], [-96.108652, 30.602188], [-96.110291, 30.60221], [-96.119094, 30.601705], [-96.12067, 30.601724], [-96.122458, 30.602004], [-96.135905, 30.604887], [-96.13758, 30.605097], [-96.159353, 30.603534], [-96.172492, 30.603531], [-96.173868, 30.603963], [-96.187808, 30.610378], [-96.189283, 30.611162], [-96.20137, 30.619397], [-96.207987, 30.626637], [-96.210875, 30.629067], [-96.212161, 30.629924], [-96.213896, 30.630497], [-96.220596, 30.631537], [-96.23945, 30.631323], [-96.240836, 30.631464], [-96.242148, 30.631817], [-96.24343, 30.63244], [-96.244685, 30.633435], [-96.245492, 30.634441], [-96.247351, 30.637826], [-96.248849, 30.63945], [-96.250499, 30.640567], [-96.253549, 30.641945], [-96.254941, 30.642822], [-96.25595, 30.643713], [-96.258384, 30.646452], [-96.262788, 30.649543], [-96.264211, 30.650265], [-96.268355, 30.651735], [-96.271056, 30.653117], [-96.277942, 30.65612], [-96.281882, 30.657042], [-96.285218, 30.65824], [-96.286846, 30.658527], [-96.288645, 30.656571], [-96.296511, 30.64959], [-96.298303, 30.648234], [-96.313228, 30.638763], [-96.326145, 30.634888], [-96.327892, 30.634067], [-96.329286, 30.633056], [-96.33496, 30.627797], [-96.335523, 30.627313], [-96.336275, 30.627954], [-96.33573, 30.628441], [-96.335056, 30.627879], [-96.33496, 30.627797], [-96.334838, 30.627681], [-96.334234, 30.628272], [-96.333947, 30.628051]]}},
    {"type": "Feature", "properties": {"name": "Likely route to Huntsville", "description": "Approximate. Estimated without traffic, from the site's frontage on State Highway 30.", "Destination": "Huntsville", "Drive time (minutes)": 32, "Miles": 32.1}, "geometry": {"type": "LineString", "coordinates": [[-96.035147, 30.595602], [-96.031312, 30.595614], [-95.962081, 30.589571], [-95.960174, 30.589342], [-95.95789, 30.588829], [-95.940988, 30.583599], [-95.939651, 30.583546], [-95.936799, 30.583949], [-95.935785, 30.584281], [-95.934813, 30.584846], [-95.932621, 30.587072], [-95.931711, 30.5877], [-95.92731, 30.589228], [-95.926291, 30.589808], [-95.923392, 30.593255], [-95.916783, 30.599538], [-95.915864, 30.59999], [-95.905371, 30.603631], [-95.8945, 30.610381], [-95.892755, 30.611279], [-95.886851, 30.613799], [-95.886458, 30.614297], [-95.885534, 30.617462], [-95.882443, 30.62622], [-95.881848, 30.627328], [-95.881276, 30.62794], [-95.880018, 30.628736], [-95.869463, 30.632523], [-95.861449, 30.637139], [-95.859381, 30.638668], [-95.854897, 30.643331], [-95.854042, 30.644488], [-95.85174, 30.648618], [-95.850771, 30.649679], [-95.84677, 30.65191], [-95.833735, 30.658187], [-95.74992, 30.684149], [-95.7487, 30.684297], [-95.740462, 30.684366], [-95.704618, 30.684432], [-95.703349, 30.684523], [-95.627063, 30.699214], [-95.615501, 30.70059], [-95.614206, 30.701027], [-95.613183, 30.701588], [-95.594395, 30.713375], [-95.589763, 30.715608], [-95.5871, 30.716566], [-95.583724, 30.717682], [-95.581283, 30.718112], [-95.575069, 30.718461], [-95.573134, 30.718418], [-95.570809, 30.718127], [-95.568384, 30.718278], [-95.565684, 30.719067], [-95.56352, 30.719385], [-95.562603, 30.719641], [-95.560908, 30.720596], [-95.55758, 30.723091], [-95.556416, 30.723621], [-95.55553, 30.723778], [-95.550501, 30.723774], [-95.550505, 30.723498]]}},
    {"type": "Feature", "properties": {"name": "Likely route to Downtown Houston", "description": "Approximate. Estimated without traffic, from the site's frontage on State Highway 30.", "Destination": "Downtown Houston", "Drive time (minutes)": 93, "Miles": 91.8}, "geometry": {"type": "LineString", "coordinates": [[-96.035147, 30.595602], [-96.031312, 30.595614], [-95.960174, 30.589342], [-95.95789, 30.588829], [-95.944098, 30.584542], [-95.944956, 30.58245], [-95.945878, 30.580859], [-95.983195, 30.528701], [-95.987456, 30.522693], [-95.988033, 30.521669], [-95.98866, 30.519381], [-95.991535, 30.501575], [-95.99123, 30.499934], [-95.988485, 30.493832], [-95.988116, 30.489992], [-95.98761, 30.488204], [-95.987862, 30.487307], [-95.988447, 30.486739], [-95.990338, 30.48602], [-95.992021, 30.484818], [-95.994049, 30.483939], [-95.99496, 30.483367], [-96.017764, 30.463512], [-96.023328, 30.458601], [-96.024055, 30.457807], [-96.024772, 30.456731], [-96.026314, 30.453716], [-96.026934, 30.452151], [-96.027161, 30.450571], [-96.026981, 30.447328], [-96.027371, 30.445592], [-96.027764, 30.444807], [-96.028721, 30.443576], [-96.042152, 30.428462], [-96.043731, 30.426409], [-96.044531, 30.424729], [-96.050209, 30.410186], [-96.051147, 30.408347], [-96.053083, 30.405663], [-96.056282, 30.403285], [-96.059669, 30.401234], [-96.071874, 30.396735], [-96.070519, 30.393939], [-96.069833, 30.391868], [-96.068202, 30.38295], [-96.067871, 30.376227], [-96.063984, 30.376252], [-96.061823, 30.376116], [-96.04461, 30.37416], [-96.040812, 30.373467], [-96.034503, 30.371642], [-96.0246, 30.369485], [-96.021801, 30.368406], [-96.017037, 30.365797], [-96.00437, 30.358336], [-95.998272, 30.354226], [-95.996705, 30.353519], [-95.995289, 30.353144], [-95.993404, 30.352963], [-95.991799, 30.353083], [-95.986647, 30.354411], [-95.984622, 30.354715], [-95.976971, 30.354622], [-95.972456, 30.354734], [-95.967128, 30.355653], [-95.966014, 30.355554], [-95.965235, 30.355319], [-95.964133, 30.354725], [-95.963398, 30.354036], [-95.96198, 30.351344], [-95.961021, 30.349976], [-95.959936, 30.348867], [-95.955014, 30.344582], [-95.953577, 30.342938], [-95.952516, 30.341249], [-95.951695, 30.339313], [-95.951243, 30.337407], [-95.95113, 30.335739], [-95.951187, 30.331672], [-95.950941, 30.329801], [-95.950171, 30.32771], [-95.949082, 30.326042], [-95.947972, 30.32484], [-95.946795, 30.323884], [-95.939672, 30.319167], [-95.938405, 30.317901], [-95.935256, 30.314046], [-95.934033, 30.312849], [-95.932585, 30.311832], [-95.927175, 30.308679], [-95.924572, 30.307714], [-95.921781, 30.307269], [-95.900462, 30.307766], [-95.898473, 30.307672], [-95.895939, 30.30726], [-95.893164, 30.306406], [-95.890291, 30.304991], [-95.888726, 30.30391], [-95.882996, 30.299178], [-95.881525, 30.298458], [-95.880068, 30.298084], [-95.87518, 30.297832], [-95.871509, 30.29785], [-95.869063, 30.298178], [-95.863588, 30.299503], [-95.861443, 30.299737], [-95.853971, 30.299424], [-95.850927, 30.298909], [-95.847025, 30.29752], [-95.845114, 30.297053], [-95.828439, 30.294856], [-95.824685, 30.293995], [-95.819711, 30.292043], [-95.817235, 30.290704], [-95.815465, 30.289534], [-95.808902, 30.284138], [-95.797988, 30.274768], [-95.796127, 30.272818], [-95.793988, 30.270103], [-95.783287, 30.253761], [-95.781657, 30.252083], [-95.779799, 30.250813], [-95.777807, 30.249909], [-95.77664, 30.249556], [-95.773811, 30.249134], [-95.748664, 30.249177], [-95.747367, 30.248958], [-95.745884, 30.248485], [-95.744613, 30.247841], [-95.743302, 30.246874], [-95.742139, 30.245594], [-95.741365, 30.244253], [-95.738563, 30.234061], [-95.737512, 30.231774], [-95.735984, 30.229849], [-95.711264, 30.210053], [-95.691979, 30.192969], [-95.690717, 30.191295], [-95.689201, 30.187917], [-95.687762, 30.186122], [-95.686716, 30.185337], [-95.681158, 30.182109], [-95.680098, 30.181179], [-95.679212, 30.180033], [-95.678371, 30.178262], [-95.677418, 30.17288], [-95.677123, 30.171811], [-95.676142, 30.169475], [-95.652974, 30.131772], [-95.651257, 30.128815], [-95.649237, 30.124786], [-95.642995, 30.114252], [-95.641079, 30.108874], [-95.639319, 30.104717], [-95.637989, 30.099637], [-95.6365, 30.096325], [-95.635943, 30.094676], [-95.635639, 30.092159], [-95.636259, 30.08739], [-95.635868, 30.08507], [-95.629289, 30.072459], [-95.628551, 30.07143], [-95.627528, 30.070378], [-95.623725, 30.067273], [-95.622889, 30.066441], [-95.621926, 30.065169], [-95.61728, 30.057619], [-95.615623, 30.052526], [-95.614468, 30.050238], [-95.611472, 30.045792], [-95.607685, 30.041164], [-95.605447, 30.03806], [-95.599234, 30.02676], [-95.590509, 30.012653], [-95.586322, 30.005554], [-95.585217, 30.00387], [-95.580116, 29.997604], [-95.575623, 29.992737], [-95.573774, 29.990471], [-95.572128, 29.988111], [-95.567934, 29.981477], [-95.56333, 29.973158], [-95.562268, 29.971731], [-95.560117, 29.969394], [-95.558018, 29.96792], [-95.552498, 29.96448], [-95.549856, 29.962632], [-95.542371, 29.95636], [-95.539505, 29.954236], [-95.536079, 29.951984], [-95.53077, 29.948088], [-95.522362, 29.941518], [-95.516963, 29.937071], [-95.516065, 29.936677], [-95.506932, 29.937039], [-95.498376, 29.937071], [-95.468636, 29.93757], [-95.455343, 29.937581], [-95.440174, 29.93793], [-95.433777, 29.937527], [-95.431261, 29.937861], [-95.423998, 29.939758], [-95.421041, 29.940229], [-95.415793, 29.940112], [-95.414825, 29.939762], [-95.41395, 29.938966], [-95.412347, 29.934464], [-95.412101, 29.933493], [-95.412024, 29.932161], [-95.412005, 29.930068], [-95.41273, 29.916384], [-95.41211, 29.87856], [-95.411901, 29.876857], [-95.411173, 29.875138], [-95.40808, 29.870175], [-95.402127, 29.858559], [-95.392758, 29.845293], [-95.386682, 29.836018], [-95.381646, 29.829531], [-95.381069, 29.828257], [-95.380228, 29.824475], [-95.379623, 29.822574], [-95.376868, 29.817096], [-95.374054, 29.810058], [-95.373576, 29.808689], [-95.371961, 29.800317], [-95.371825, 29.789122], [-95.371295, 29.787763], [-95.368958, 29.784224], [-95.368631, 29.783055], [-95.368561, 29.781116], [-95.36935, 29.778307], [-95.369344, 29.776936], [-95.368758, 29.775584], [-95.366225, 29.771444], [-95.365781, 29.769941], [-95.365842, 29.76899], [-95.366097, 29.76822], [-95.367646, 29.765113], [-95.368485, 29.764363], [-95.371023, 29.763064], [-95.371805, 29.762551], [-95.372045, 29.762231], [-95.372057, 29.761664], [-95.371639, 29.761134], [-95.370105, 29.760087], [-95.369838, 29.760422]]}}
  ]
}
