{
  "type": "FeatureCollection",
  "features": [
    {"type": "Feature", "properties": {"name": "Grimes County", "description": "County boundary, U.S. Census Bureau"}, "geometry": {"type": "Polygon", "coordinates": [[[-96.188314, 30.599614], [-96.188037, 30.59889], [-96.187765, 30.598737], [-96.185468, 30.598938], [-96.185249, 30.598846], [-96.185014, 30.598554], [-96.185094, 30.597529], [-96.184658, 30.596696], [-96.184121, 30.596064], [-96.182693, 30.595327], [-96.182475, 30.595072], [-96.182631, 30.594098], [-96.18244, 30.593155], [-96.182512, 30.59259], [-96.183573, 30.590524], [-96.183723, 30.589823], [-96.183466, 30.589005], [-96.184792, 30.588328], [-96.18462, 30.587948], [-96.18365, 30.586983], [-96.182599, 30.586349], [-96.182038, 30.586228], [-96.181236, 30.586465], [-96.180661, 30.58596], [-96.179598, 30.585665], [-96.178862, 30.585268], [-96.177771, 30.585282], [-96.177206, 30.585063], [-96.176232, 30.584095], [-96.175375, 30.583596], [-96.17509, 30.583137], [-96.175128, 30.58236], [-96.175749, 30.581826], [-96.175689, 30.58153], [-96.175422, 30.581259], [-96.17487, 30.58112], [-96.173823, 30.580493], [-96.17311, 30.580307], [-96.17257, 30.580607], [-96.172097, 30.5805], [-96.171687, 30.580055], [-96.171629, 30.579775], [-96.172125, 30.578231], [-96.171417, 30.577755], [-96.170238, 30.577474], [-96.169133, 30.576564], [-96.168975, 30.575765], [-96.168709, 30.575598], [-96.167806, 30.575554], [-96.167788, 30.574831], [-96.167432, 30.574446], [-96.167208, 30.574351], [-96.166608, 30.574729], [-96.166404, 30.574609], [-96.16624, 30.574098], [-96.165517, 30.573266], [-96.165498, 30.572952], [-96.16599, 30.572604], [-96.167763, 30.572338], [-96.167952, 30.572073], [-96.167843, 30.571698], [-96.166225, 30.570789], [-96.165311, 30.570467], [-96.164797, 30.570481], [-96.164107, 30.570991], [-96.16205, 30.570645], [-96.161752, 30.570233], [-96.161736, 30.569699], [-96.162572, 30.569091], [-96.162518, 30.568611], [-96.162223, 30.568374], [-96.160816, 30.568173], [-96.160127, 30.567774], [-96.159764, 30.567302], [-96.160072, 30.566826], [-96.161302, 30.56645], [-96.161586, 30.565443], [-96.161063, 30.563644], [-96.161357, 30.563193], [-96.161433, 30.562419], [-96.160831, 30.561527], [-96.160285, 30.559776], [-96.159939, 30.559377], [-96.158604, 30.55864], [-96.158764, 30.557989], [-96.159774, 30.557001], [-96.160368, 30.556688], [-96.16052, 30.556307], [-96.160291, 30.554432], [-96.160098, 30.553776], [-96.159826, 30.55344], [-96.159634, 30.552066], [-96.159797, 30.551318], [-96.160354, 30.550126], [-96.160843, 30.548027], [-96.161199, 30.547634], [-96.161847, 30.547341], [-96.161885, 30.547093], [-96.161529, 30.546152], [-96.160962, 30.545498], [-96.161756, 30.544669], [-96.16105, 30.543672], [-96.161568, 30.542748], [-96.161536, 30.541834], [-96.161089, 30.541379], [-96.160551, 30.541211], [-96.160297, 30.540332], [-96.160604, 30.538455], [-96.160314, 30.537676], [-96.160335, 30.537144], [-96.160504, 30.536448], [-96.161171, 30.535164], [-96.161231, 30.533919], [-96.16098, 30.533668], [-96.159713, 30.533559], [-96.158477, 30.534299], [-96.158354, 30.534665], [-96.158499, 30.535143], [-96.158149, 30.53515], [-96.156496, 30.534384], [-96.155845, 30.533205], [-96.155879, 30.532466], [-96.156077, 30.532116], [-96.156925, 30.531621], [-96.1571, 30.531304], [-96.157207, 30.530889], [-96.157004, 30.530285], [-96.156736, 30.530126], [-96.155479, 30.53014], [-96.155221, 30.530361], [-96.155032, 30.531256], [-96.154291, 30.53191], [-96.153587, 30.532227], [-96.15313, 30.532066], [-96.152468, 30.532082], [-96.151767, 30.531462], [-96.152001, 30.530945], [-96.151591, 30.530177], [-96.149091, 30.52924], [-96.148421, 30.528715], [-96.148262, 30.528146], [-96.148672, 30.527574], [-96.149352, 30.52739], [-96.149549, 30.527168], [-96.149279, 30.526454], [-96.149315, 30.52615], [-96.149546, 30.525771], [-96.150381, 30.525169], [-96.15007, 30.52481], [-96.149138, 30.524555], [-96.148947, 30.524008], [-96.150046, 30.523559], [-96.15066, 30.523506], [-96.151209, 30.523814], [-96.151592, 30.523742], [-96.151839, 30.52327], [-96.151637, 30.522295], [-96.152453, 30.521672], [-96.152643, 30.520855], [-96.152123, 30.520059], [-96.151493, 30.519904], [-96.150011, 30.520848], [-96.149558, 30.520816], [-96.149196, 30.520585], [-96.149014, 30.520191], [-96.149167, 30.519675], [-96.150126, 30.519237], [-96.150315, 30.519006], [-96.150154, 30.518337], [-96.149923, 30.518044], [-96.148898, 30.51762], [-96.147294, 30.515498], [-96.146713, 30.515797], [-96.1463, 30.515634], [-96.145955, 30.514696], [-96.14464, 30.514033], [-96.144276, 30.514002], [-96.143606, 30.51347], [-96.143521, 30.513197], [-96.143677, 30.512759], [-96.144585, 30.512043], [-96.144783, 30.511692], [-96.144798, 30.510675], [-96.144571, 30.510631], [-96.143473, 30.511118], [-96.142569, 30.510503], [-96.142017, 30.509558], [-96.141584, 30.509175], [-96.141018, 30.509084], [-96.140334, 30.509215], [-96.140079, 30.508997], [-96.140033, 30.508615], [-96.140187, 30.508407], [-96.141009, 30.50785], [-96.141061, 30.506389], [-96.141589, 30.506118], [-96.142561, 30.50598], [-96.142248, 30.503928], [-96.142481, 30.503719], [-96.144152, 30.504453], [-96.144688, 30.503893], [-96.144663, 30.503108], [-96.144127, 30.502645], [-96.143093, 30.502623], [-96.142913, 30.502442], [-96.14253, 30.500989], [-96.142185, 30.50038], [-96.141996, 30.500319], [-96.141425, 30.500413], [-96.140741, 30.500816], [-96.140285, 30.500792], [-96.139897, 30.500252], [-96.139522, 30.500156], [-96.139108, 30.500448], [-96.138778, 30.501096], [-96.138342, 30.501417], [-96.137819, 30.501184], [-96.136836, 30.500077], [-96.136604, 30.499378], [-96.136737, 30.498853], [-96.137486, 30.497935], [-96.137852, 30.496995], [-96.137955, 30.49572], [-96.13772, 30.495428], [-96.136668, 30.495394], [-96.136032, 30.494975], [-96.136061, 30.494197], [-96.136575, 30.493522], [-96.136585, 30.493207], [-96.136102, 30.493021], [-96.135391, 30.493471], [-96.135082, 30.493419], [-96.134917, 30.493103], [-96.134826, 30.492069], [-96.134647, 30.491839], [-96.134135, 30.491867], [-96.133232, 30.492395], [-96.132867, 30.492282], [-96.132504, 30.491905], [-96.132556, 30.491103], [-96.1321, 30.49054], [-96.13276, 30.48954], [-96.132554, 30.488708], [-96.132708, 30.487348], [-96.133038, 30.486226], [-96.132896, 30.48557], [-96.133113, 30.483868], [-96.13335, 30.483579], [-96.133907, 30.483344], [-96.135168, 30.483425], [-96.135604, 30.483317], [-96.137004, 30.481359], [-96.13674, 30.48086], [-96.135445, 30.480363], [-96.135281, 30.479857], [-96.135553, 30.47947], [-96.136996, 30.478836], [-96.136976, 30.478499], [-96.136155, 30.477672], [-96.136253, 30.476741], [-96.13656, 30.476459], [-96.136907, 30.476453], [-96.137646, 30.477032], [-96.137775, 30.477463], [-96.137529, 30.478531], [-96.137724, 30.47916], [-96.139329, 30.479179], [-96.139567, 30.478764], [-96.139124, 30.477646], [-96.139499, 30.476014], [-96.139885, 30.475598], [-96.14079, 30.475572], [-96.141089, 30.4753], [-96.140852, 30.47497], [-96.139731, 30.474797], [-96.138803, 30.474204], [-96.13878, 30.473921], [-96.139988, 30.472262], [-96.139964, 30.471806], [-96.13975, 30.471545], [-96.137983, 30.471037], [-96.137328, 30.470225], [-96.135892, 30.469241], [-96.135812, 30.46893], [-96.136457, 30.467084], [-96.1364, 30.466562], [-96.136151, 30.466286], [-96.135632, 30.466084], [-96.135187, 30.466149], [-96.134896, 30.466396], [-96.134674, 30.46707], [-96.134453, 30.467282], [-96.133409, 30.467531], [-96.132395, 30.467246], [-96.131014, 30.466297], [-96.130572, 30.466289], [-96.130138, 30.466608], [-96.129705, 30.466496], [-96.129483, 30.466248], [-96.129431, 30.465829], [-96.130283, 30.463871], [-96.129405, 30.462564], [-96.128939, 30.462189], [-96.128808, 30.461745], [-96.129143, 30.461182], [-96.129655, 30.460787], [-96.129709, 30.460115], [-96.129276, 30.459519], [-96.128363, 30.458983], [-96.128057, 30.458213], [-96.127166, 30.457773], [-96.126602, 30.45801], [-96.126175, 30.457521], [-96.12614, 30.457276], [-96.126375, 30.456678], [-96.126619, 30.456492], [-96.128739, 30.456024], [-96.129403, 30.455314], [-96.129903, 30.454093], [-96.130018, 30.452555], [-96.129821, 30.452384], [-96.128918, 30.452538], [-96.128129, 30.453441], [-96.124795, 30.453969], [-96.124691, 30.454117], [-96.124894, 30.454644], [-96.124795, 30.455121], [-96.124688, 30.455383], [-96.124356, 30.455586], [-96.123638, 30.455544], [-96.123073, 30.455139], [-96.122819, 30.454816], [-96.122784, 30.454464], [-96.12353, 30.453286], [-96.12371, 30.451799], [-96.124367, 30.451274], [-96.124776, 30.451244], [-96.125398, 30.451479], [-96.125482, 30.451207], [-96.12589, 30.450884], [-96.125683, 30.450215], [-96.126396, 30.449827], [-96.126509, 30.449508], [-96.125902, 30.448769], [-96.124507, 30.448197], [-96.123016, 30.447038], [-96.12288, 30.446714], [-96.123164, 30.446118], [-96.122238, 30.445701], [-96.122177, 30.445047], [-96.1218, 30.444834], [-96.121976, 30.443579], [-96.121095, 30.443029], [-96.120453, 30.441921], [-96.120202, 30.441805], [-96.119972, 30.441859], [-96.1197, 30.442247], [-96.119644, 30.442619], [-96.119354, 30.442696], [-96.119062, 30.4424], [-96.119176, 30.441737], [-96.118987, 30.441512], [-96.118433, 30.441276], [-96.117474, 30.441153], [-96.115909, 30.440427], [-96.115132, 30.440451], [-96.114558, 30.441146], [-96.114222, 30.441275], [-96.113073, 30.440607], [-96.112195, 30.441357], [-96.112109, 30.442317], [-96.111887, 30.442693], [-96.111013, 30.443155], [-96.109604, 30.443675], [-96.108706, 30.443801], [-96.106775, 30.443648], [-96.10534, 30.444408], [-96.10491, 30.444207], [-96.104598, 30.443787], [-96.104842, 30.44176], [-96.104766, 30.440835], [-96.104993, 30.440548], [-96.106217, 30.44028], [-96.106526, 30.440015], [-96.10644, 30.439313], [-96.105766, 30.438024], [-96.105709, 30.437608], [-96.105196, 30.437023], [-96.104669, 30.437032], [-96.103808, 30.437507], [-96.103185, 30.438347], [-96.102248, 30.438976], [-96.100629, 30.440693], [-96.099056, 30.440058], [-96.09827, 30.438888], [-96.097592, 30.438259], [-96.09732, 30.437586], [-96.09689, 30.437409], [-96.096234, 30.437566], [-96.09558, 30.438846], [-96.094352, 30.438887], [-96.093651, 30.440047], [-96.092821, 30.440101], [-96.090585, 30.438024], [-96.088471, 30.436779], [-96.086571, 30.436069], [-96.086, 30.435559], [-96.085832, 30.435217], [-96.086, 30.434552], [-96.085882, 30.433865], [-96.086481, 30.43257], [-96.087328, 30.431409], [-96.087431, 30.430756], [-96.086791, 30.42989], [-96.085383, 30.430026], [-96.080975, 30.43129], [-96.080387, 30.431043], [-96.080009, 30.430435], [-96.079969, 30.43003], [-96.080216, 30.429422], [-96.080777, 30.428937], [-96.082094, 30.428615], [-96.082524, 30.428255], [-96.082887, 30.42606], [-96.083347, 30.424985], [-96.082812, 30.42364], [-96.082934, 30.422949], [-96.084163, 30.421601], [-96.084794, 30.420591], [-96.086653, 30.418299], [-96.087926, 30.417293], [-96.091697, 30.416471], [-96.094498, 30.416651], [-96.095309, 30.416926], [-96.095818, 30.417429], [-96.095878, 30.418195], [-96.095338, 30.418817], [-96.095307, 30.419209], [-96.095537, 30.419696], [-96.096178, 30.419936], [-96.09746, 30.420027], [-96.098259, 30.419841], [-96.098562, 30.419343], [-96.099717, 30.418542], [-96.100592, 30.417425], [-96.101321, 30.41739], [-96.101896, 30.417891], [-96.102814, 30.41829], [-96.103456, 30.418892], [-96.103516, 30.419345], [-96.103052, 30.420419], [-96.103517, 30.421211], [-96.104315, 30.421723], [-96.105601, 30.422125], [-96.106341, 30.421933], [-96.106533, 30.421322], [-96.106155, 30.419714], [-96.106154, 30.418928], [-96.106528, 30.418263], [-96.106625, 30.418172], [-96.106743, 30.418294], [-96.10736, 30.417582], [-96.109523, 30.416902], [-96.112194, 30.415668], [-96.113601, 30.413186], [-96.11369, 30.412727], [-96.113342, 30.411377], [-96.112933, 30.410516], [-96.112373, 30.409849], [-96.112015, 30.408973], [-96.111879, 30.407835], [-96.1116, 30.407357], [-96.11096, 30.407053], [-96.109564, 30.407538], [-96.10862, 30.407622], [-96.108147, 30.407425], [-96.107914, 30.406987], [-96.108193, 30.406208], [-96.110011, 30.404167], [-96.112698, 30.402295], [-96.113373, 30.401621], [-96.11355, 30.401183], [-96.113234, 30.399887], [-96.111932, 30.398324], [-96.11118, 30.39682], [-96.111157, 30.396071], [-96.111445, 30.395211], [-96.112343, 30.394433], [-96.113067, 30.394102], [-96.113772, 30.394337], [-96.114076, 30.394845], [-96.114046, 30.396912], [-96.114443, 30.397486], [-96.115672, 30.398342], [-96.116317, 30.399332], [-96.117367, 30.399791], [-96.118262, 30.39932], [-96.118416, 30.398448], [-96.117772, 30.396044], [-96.117654, 30.394881], [-96.116755, 30.392802], [-96.116756, 30.392229], [-96.117152, 30.39145], [-96.117595, 30.391278], [-96.119319, 30.392115], [-96.120956, 30.392253], [-96.121524, 30.391891], [-96.121683, 30.390834], [-96.121515, 30.390278], [-96.12025, 30.389109], [-96.119669, 30.387469], [-96.119702, 30.38715], [-96.120004, 30.386766], [-96.120898, 30.386047], [-96.121107, 30.385541], [-96.121141, 30.384718], [-96.121478, 30.383999], [-96.12174, 30.383893], [-96.122444, 30.384078], [-96.122909, 30.384709], [-96.126016, 30.387775], [-96.126735, 30.38804], [-96.12941, 30.388324], [-96.132247, 30.387902], [-96.1337, 30.386271], [-96.134193, 30.384583], [-96.135024, 30.384464], [-96.136528, 30.383621], [-96.13786, 30.383217], [-96.138971, 30.383138], [-96.142252, 30.384022], [-96.143641, 30.384238], [-96.144493, 30.384669], [-96.145251, 30.384822], [-96.14591, 30.384444], [-96.146023, 30.383993], [-96.147255, 30.38284], [-96.147418, 30.382322], [-96.147412, 30.381353], [-96.147067, 30.380284], [-96.146243, 30.379009], [-96.145035, 30.378137], [-96.144134, 30.37698], [-96.144249, 30.374493], [-96.14548, 30.371828], [-96.1455, 30.370874], [-96.144657, 30.369365], [-96.143896, 30.368864], [-96.142617, 30.368367], [-96.14215, 30.367815], [-96.141991, 30.366498], [-96.141609, 30.36551], [-96.141712, 30.362947], [-96.142292, 30.362004], [-96.142511, 30.361131], [-96.142437, 30.359626], [-96.142623, 30.35806], [-96.142469, 30.35732], [-96.141778, 30.356308], [-96.141639, 30.355356], [-96.142423, 30.352905], [-96.142737, 30.352525], [-96.143597, 30.352102], [-96.14536, 30.352165], [-96.14762, 30.353278], [-96.148446, 30.353312], [-96.149069, 30.353116], [-96.149758, 30.352225], [-96.149693, 30.349892], [-96.148542, 30.346564], [-96.148465, 30.345], [-96.147843, 30.344424], [-96.145874, 30.343225], [-96.145245, 30.343044], [-96.141712, 30.342953], [-96.140997, 30.342766], [-96.14055, 30.342446], [-96.140093, 30.341723], [-96.139812, 30.340935], [-96.139812, 30.340291], [-96.140259, 30.339654], [-96.141546, 30.339083], [-96.14249, 30.338037], [-96.144092, 30.336957], [-96.146389, 30.335948], [-96.148346, 30.335397], [-96.150813, 30.335088], [-96.151728, 30.334747], [-96.153232, 30.334475], [-96.154013, 30.334002], [-96.154438, 30.333234], [-96.154444, 30.332767], [-96.154171, 30.332094], [-96.154268, 30.330647], [-96.154542, 30.330549], [-96.15463, 30.330288], [-96.152789, 30.32801], [-96.150568, 30.326058], [-96.149386, 30.325187], [-96.147462, 30.324168], [-96.145244, 30.323592], [-96.138866, 30.322453], [-96.137944, 30.321859], [-96.137298, 30.321058], [-96.137044, 30.319254], [-96.137078, 30.316669], [-96.136547, 30.314752], [-96.135057, 30.313508], [-96.131635, 30.312434], [-96.126191, 30.311878], [-96.125273, 30.311563], [-96.122703, 30.309368], [-96.120477, 30.305689], [-96.119506, 30.304821], [-96.117372, 30.304195], [-96.115056, 30.306001], [-96.112305, 30.306601], [-96.10408, 30.30882], [-96.099945, 30.31061], [-96.098587, 30.311021], [-96.097193, 30.311112], [-96.096515, 30.310851], [-96.095613, 30.310493], [-96.094404, 30.309371], [-96.093829, 30.308171], [-96.093513, 30.306532], [-96.093637, 30.305195], [-96.095342, 30.302824], [-96.097614, 30.300984], [-96.098768, 30.299555], [-96.099345, 30.298466], [-96.100046, 30.29669], [-96.100402, 30.294802], [-96.10058, 30.292805], [-96.100321, 30.291809], [-96.099925, 30.29099], [-96.099316, 30.290258], [-96.098424, 30.289585], [-96.096933, 30.289], [-96.09393, 30.289078], [-96.089809, 30.289668], [-96.087691, 30.289623], [-96.086855, 30.289407], [-96.085893, 30.288983], [-96.084794, 30.28822], [-96.084382, 30.28766], [-96.084068, 30.286456], [-96.084049, 30.285065], [-96.084382, 30.28376], [-96.085089, 30.282607], [-96.086737, 30.281369], [-96.090602, 30.279071], [-96.091737, 30.278013], [-96.093256, 30.275503], [-96.093798, 30.274316], [-96.094683, 30.271205], [-96.094859, 30.268309], [-96.095514, 30.265597], [-96.098039, 30.261674], [-96.09886, 30.259704], [-96.099253, 30.258049], [-96.099293, 30.256507], [-96.09912, 30.255174], [-96.09874, 30.254488], [-96.0981, 30.253867], [-96.094873, 30.252392], [-96.089438, 30.253041], [-96.088298, 30.252984], [-96.08605, 30.252541], [-96.084578, 30.251253], [-96.083911, 30.250354], [-96.08304, 30.248753], [-96.08228, 30.246795], [-96.082013, 30.246567], [-96.080839, 30.244305], [-96.081144, 30.242534], [-96.081741, 30.240882], [-96.083327, 30.238312], [-96.087671, 30.23777], [-96.090396, 30.238883], [-96.092994, 30.24133], [-96.094423, 30.242386], [-96.096936, 30.243007], [-96.098571, 30.242736], [-96.101346, 30.24088], [-96.103145, 30.238681], [-96.104444, 30.234947], [-96.105379, 30.23287], [-96.104367, 30.231473], [-96.101477, 30.23076], [-96.098248, 30.230439], [-96.09557, 30.22876], [-96.094114, 30.227008], [-96.093316, 30.225783], [-96.093165, 30.225187], [-96.091453, 30.225994], [-96.08991, 30.227433], [-96.088941, 30.228718], [-96.072849, 30.229491], [-96.069319, 30.229964], [-95.99633, 30.234178], [-95.953773, 30.236964], [-95.948958, 30.236882], [-95.938612, 30.237527], [-95.928931, 30.237624], [-95.926415, 30.237292], [-95.923283, 30.237284], [-95.86731, 30.241454], [-95.8521, 30.242456], [-95.842138, 30.243445], [-95.821199, 30.24475], [-95.814501, 30.24484], [-95.805054, 30.245632], [-95.804306, 30.24557], [-95.804197, 30.269364], [-95.804393, 30.338674], [-95.813948, 30.455742], [-95.813864, 30.459147], [-95.814171, 30.459944], [-95.814339, 30.462462], [-95.814638, 30.463365], [-95.814655, 30.465658], [-95.817308, 30.498743], [-95.817982, 30.503076], [-95.818951, 30.512924], [-95.83007, 30.629045], [-95.845972, 30.740206], [-95.847197, 30.750193], [-95.863059, 30.864125], [-95.873019, 30.862635], [-95.875228, 30.862672], [-95.915146, 30.856533], [-95.995767, 30.845059], [-96.00443, 30.843968], [-96.118499, 30.827677], [-96.125235, 30.827393], [-96.125235, 30.826603], [-96.16837, 30.822997], [-96.168629, 30.822037], [-96.169454, 30.82081], [-96.17017, 30.819359], [-96.17114, 30.818537], [-96.172955, 30.817404], [-96.174055, 30.81592], [-96.174184, 30.815472], [-96.173912, 30.815172], [-96.173056, 30.815488], [-96.172747, 30.815436], [-96.172737, 30.814211], [-96.17315, 30.813527], [-96.174286, 30.812895], [-96.174299, 30.812366], [-96.173882, 30.811594], [-96.173929, 30.811315], [-96.174082, 30.811226], [-96.174713, 30.811577], [-96.175489, 30.8111], [-96.175536, 30.810925], [-96.175575, 30.809541], [-96.175199, 30.809525], [-96.173423, 30.808694], [-96.172398, 30.808584], [-96.17234, 30.808287], [-96.172538, 30.8082], [-96.172875, 30.807524], [-96.172831, 30.807342], [-96.172564, 30.807139], [-96.171297, 30.806952], [-96.170908, 30.806743], [-96.17122, 30.806139], [-96.171564, 30.805946], [-96.173175, 30.805892], [-96.173659, 30.805084], [-96.173698, 30.803979], [-96.173303, 30.803792], [-96.173023, 30.803798], [-96.172793, 30.804023], [-96.172488, 30.803962], [-96.172373, 30.803753], [-96.172463, 30.803028], [-96.172851, 30.802627], [-96.173545, 30.802665], [-96.173692, 30.801935], [-96.173991, 30.801654], [-96.173768, 30.801407], [-96.173915, 30.801083], [-96.175627, 30.800858], [-96.17606, 30.801281], [-96.176308, 30.801242], [-96.17648, 30.800336], [-96.176156, 30.799478], [-96.176264, 30.799269], [-96.176977, 30.799204], [-96.177174, 30.799368], [-96.177607, 30.800984], [-96.177805, 30.801127], [-96.17815, 30.801092], [-96.178485, 30.800224], [-96.179124, 30.800091], [-96.17934, 30.799882], [-96.179311, 30.79882], [-96.179907, 30.798399], [-96.179471, 30.797756], [-96.18009, 30.797626], [-96.180995, 30.798096], [-96.181908, 30.797538], [-96.182126, 30.797642], [-96.182696, 30.797451], [-96.18297, 30.797766], [-96.18322, 30.797739], [-96.18333, 30.797133], [-96.18289, 30.796122], [-96.183525, 30.795751], [-96.183641, 30.795136], [-96.183414, 30.794351], [-96.183032, 30.793933], [-96.181992, 30.793837], [-96.181698, 30.793398], [-96.181933, 30.792888], [-96.182986, 30.792567], [-96.182924, 30.792255], [-96.181817, 30.79227], [-96.180178, 30.791785], [-96.179951, 30.790632], [-96.179503, 30.790311], [-96.17938, 30.789198], [-96.177656, 30.787438], [-96.177008, 30.786491], [-96.176566, 30.786299], [-96.175461, 30.786185], [-96.175387, 30.785915], [-96.175656, 30.785359], [-96.174742, 30.785089], [-96.174378, 30.784582], [-96.173826, 30.7845], [-96.173224, 30.784126], [-96.172851, 30.784174], [-96.172834, 30.78486], [-96.172366, 30.785329], [-96.171931, 30.785215], [-96.17174, 30.784984], [-96.172186, 30.784062], [-96.171855, 30.783397], [-96.171036, 30.783158], [-96.171481, 30.78221], [-96.171487, 30.78171], [-96.170947, 30.780086], [-96.170542, 30.779507], [-96.169801, 30.780287], [-96.169249, 30.780202], [-96.168733, 30.779316], [-96.168758, 30.778765], [-96.16827, 30.778391], [-96.168206, 30.7779], [-96.167371, 30.77694], [-96.166984, 30.776675], [-96.166191, 30.776498], [-96.166013, 30.776303], [-96.165957, 30.776097], [-96.166362, 30.775221], [-96.166806, 30.775188], [-96.167445, 30.775425], [-96.168062, 30.775027], [-96.168244, 30.774601], [-96.168153, 30.773659], [-96.167236, 30.773405], [-96.167312, 30.772724], [-96.167185, 30.772509], [-96.165787, 30.772115], [-96.165347, 30.772372], [-96.165249, 30.772779], [-96.165553, 30.77306], [-96.166352, 30.773338], [-96.166659, 30.774171], [-96.166452, 30.774474], [-96.166102, 30.774571], [-96.165103, 30.77431], [-96.164338, 30.773351], [-96.164608, 30.772701], [-96.164521, 30.772245], [-96.162644, 30.769509], [-96.163469, 30.769541], [-96.163794, 30.769228], [-96.163591, 30.768733], [-96.163018, 30.768381], [-96.163693, 30.767831], [-96.163753, 30.767047], [-96.163603, 30.766269], [-96.16489, 30.764667], [-96.164589, 30.764207], [-96.164007, 30.764525], [-96.16314, 30.764136], [-96.162753, 30.763558], [-96.162839, 30.763039], [-96.163366, 30.762589], [-96.164248, 30.762403], [-96.16444, 30.762219], [-96.164589, 30.761745], [-96.164306, 30.760631], [-96.164965, 30.759911], [-96.16534, 30.75985], [-96.165864, 30.76038], [-96.16652, 30.760319], [-96.166553, 30.760009], [-96.166209, 30.759244], [-96.16656, 30.758653], [-96.167442, 30.758488], [-96.16851, 30.758541], [-96.169455, 30.757993], [-96.169747, 30.756996], [-96.169578, 30.756663], [-96.169022, 30.756755], [-96.16851, 30.757168], [-96.168264, 30.757166], [-96.168167, 30.757012], [-96.16848, 30.756402], [-96.169752, 30.755551], [-96.169843, 30.755141], [-96.169659, 30.754908], [-96.16886, 30.754752], [-96.168088, 30.754347], [-96.168717, 30.753086], [-96.169904, 30.75308], [-96.170472, 30.752868], [-96.170381, 30.751038], [-96.17057, 30.750646], [-96.170145, 30.748855], [-96.168502, 30.746832], [-96.167675, 30.746434], [-96.166498, 30.745295], [-96.16506, 30.744422], [-96.166572, 30.743431], [-96.166775, 30.743135], [-96.166632, 30.742926], [-96.165659, 30.742476], [-96.165443, 30.742017], [-96.165451, 30.741199], [-96.165044, 30.740715], [-96.162587, 30.739797], [-96.162083, 30.738711], [-96.162628, 30.737496], [-96.16149, 30.737216], [-96.161568, 30.736944], [-96.162203, 30.736407], [-96.162072, 30.73583], [-96.161233, 30.735259], [-96.160224, 30.735165], [-96.160384, 30.734955], [-96.161881, 30.734559], [-96.162172, 30.734291], [-96.161427, 30.732564], [-96.161698, 30.732189], [-96.162329, 30.732033], [-96.162499, 30.731677], [-96.162573, 30.730825], [-96.161953, 30.729863], [-96.16221, 30.728857], [-96.162064, 30.727836], [-96.162499, 30.726309], [-96.16305, 30.725592], [-96.163327, 30.724739], [-96.164236, 30.724373], [-96.164696, 30.72383], [-96.164491, 30.723149], [-96.164549, 30.721978], [-96.165498, 30.721309], [-96.167789, 30.720761], [-96.168138, 30.720415], [-96.168092, 30.719669], [-96.168804, 30.719246], [-96.169186, 30.718483], [-96.168737, 30.717576], [-96.16875, 30.717173], [-96.169016, 30.717132], [-96.169717, 30.717425], [-96.170296, 30.71801], [-96.171259, 30.717367], [-96.171415, 30.716969], [-96.171176, 30.716726], [-96.170674, 30.716631], [-96.170736, 30.716151], [-96.170802, 30.715991], [-96.171617, 30.715658], [-96.172079, 30.715165], [-96.171722, 30.714089], [-96.172061, 30.712256], [-96.173035, 30.712089], [-96.172971, 30.711644], [-96.173099, 30.711497], [-96.174625, 30.711844], [-96.175142, 30.711155], [-96.175094, 30.71084], [-96.174083, 30.710004], [-96.174142, 30.709528], [-96.174497, 30.709283], [-96.175227, 30.709191], [-96.176339, 30.709787], [-96.177223, 30.709971], [-96.177696, 30.70985], [-96.177946, 30.709513], [-96.177254, 30.708217], [-96.177176, 30.707175], [-96.176293, 30.706442], [-96.176352, 30.706167], [-96.176603, 30.705993], [-96.177558, 30.706271], [-96.177824, 30.706141], [-96.177141, 30.705141], [-96.177537, 30.703938], [-96.176968, 30.703081], [-96.176477, 30.703115], [-96.175887, 30.703604], [-96.175645, 30.70358], [-96.175113, 30.702033], [-96.175135, 30.701787], [-96.175496, 30.701591], [-96.176086, 30.702033], [-96.176589, 30.701953], [-96.176461, 30.701089], [-96.176629, 30.700362], [-96.175983, 30.700094], [-96.17565, 30.699564], [-96.174884, 30.699077], [-96.174963, 30.698922], [-96.175647, 30.698707], [-96.175373, 30.697767], [-96.176295, 30.697933], [-96.176824, 30.697256], [-96.176896, 30.696838], [-96.176603, 30.696497], [-96.175378, 30.696055], [-96.174702, 30.694758], [-96.174177, 30.694248], [-96.174102, 30.693978], [-96.173645, 30.69389], [-96.173287, 30.693464], [-96.172527, 30.693724], [-96.172156, 30.693618], [-96.172386, 30.692988], [-96.173065, 30.692104], [-96.173034, 30.691924], [-96.171954, 30.691453], [-96.171483, 30.690103], [-96.170383, 30.689544], [-96.170935, 30.688419], [-96.169786, 30.688212], [-96.170822, 30.68719], [-96.170478, 30.686224], [-96.170491, 30.685337], [-96.171201, 30.684121], [-96.171485, 30.682109], [-96.171268, 30.68163], [-96.17092, 30.681437], [-96.170247, 30.68154], [-96.169999, 30.681358], [-96.170623, 30.680211], [-96.171867, 30.680407], [-96.172498, 30.680248], [-96.172736, 30.679843], [-96.171925, 30.678191], [-96.17201, 30.677123], [-96.171712, 30.67584], [-96.171486, 30.675341], [-96.170847, 30.674783], [-96.170142, 30.67368], [-96.170412, 30.673169], [-96.171364, 30.672122], [-96.170745, 30.672082], [-96.169467, 30.672691], [-96.169141, 30.672707], [-96.168741, 30.67226], [-96.168791, 30.67184], [-96.168439, 30.67112], [-96.168651, 30.670336], [-96.169062, 30.669912], [-96.168364, 30.66957], [-96.168083, 30.669144], [-96.168241, 30.668594], [-96.168772, 30.667882], [-96.168772, 30.666356], [-96.168537, 30.665944], [-96.167663, 30.665737], [-96.16749, 30.66527], [-96.167754, 30.664831], [-96.169116, 30.663974], [-96.169297, 30.663656], [-96.16846, 30.663147], [-96.167117, 30.662703], [-96.166632, 30.662727], [-96.165987, 30.663136], [-96.165376, 30.663164], [-96.164905, 30.662948], [-96.164391, 30.662275], [-96.164355, 30.661489], [-96.164458, 30.661182], [-96.165359, 30.660936], [-96.165459, 30.660689], [-96.164825, 30.659992], [-96.164689, 30.659477], [-96.164057, 30.659223], [-96.163978, 30.658997], [-96.164897, 30.658294], [-96.165406, 30.657601], [-96.165944, 30.654375], [-96.166486, 30.654239], [-96.166891, 30.655024], [-96.167173, 30.65499], [-96.167265, 30.653537], [-96.167122, 30.653019], [-96.167245, 30.652281], [-96.167784, 30.651318], [-96.168106, 30.650997], [-96.16901, 30.651353], [-96.169508, 30.650318], [-96.169282, 30.649893], [-96.167781, 30.649986], [-96.167363, 30.649568], [-96.167151, 30.649144], [-96.16769, 30.647732], [-96.167365, 30.647218], [-96.166926, 30.647024], [-96.165758, 30.647063], [-96.166331, 30.644489], [-96.165784, 30.64403], [-96.165556, 30.643085], [-96.165816, 30.642975], [-96.166153, 30.643096], [-96.167053, 30.643833], [-96.167799, 30.643163], [-96.168126, 30.642553], [-96.168963, 30.641981], [-96.169111, 30.641539], [-96.168892, 30.640241], [-96.169638, 30.639734], [-96.169373, 30.639236], [-96.168404, 30.638697], [-96.169809, 30.638676], [-96.170722, 30.638347], [-96.172054, 30.638129], [-96.172552, 30.637246], [-96.172992, 30.635747], [-96.172786, 30.635253], [-96.172046, 30.635127], [-96.171025, 30.636088], [-96.170742, 30.635844], [-96.170717, 30.635635], [-96.171519, 30.634608], [-96.171664, 30.634163], [-96.171076, 30.633724], [-96.171164, 30.633199], [-96.170641, 30.632793], [-96.1702, 30.632807], [-96.169933, 30.632462], [-96.169922, 30.63229], [-96.170576, 30.631528], [-96.170607, 30.631063], [-96.170463, 30.630812], [-96.169338, 30.630493], [-96.169117, 30.630137], [-96.170358, 30.629886], [-96.170624, 30.629365], [-96.170938, 30.629672], [-96.172138, 30.629657], [-96.172377, 30.629312], [-96.173224, 30.628831], [-96.173333, 30.628569], [-96.173102, 30.627962], [-96.173886, 30.627622], [-96.173795, 30.626472], [-96.174283, 30.625916], [-96.174152, 30.625586], [-96.173663, 30.625158], [-96.174077, 30.6244], [-96.173916, 30.623936], [-96.174151, 30.623617], [-96.173597, 30.622704], [-96.174416, 30.622601], [-96.175055, 30.62298], [-96.177194, 30.623337], [-96.177519, 30.623205], [-96.177572, 30.622749], [-96.178059, 30.621942], [-96.17872, 30.622085], [-96.180368, 30.621536], [-96.180248, 30.61999], [-96.17977, 30.619076], [-96.180404, 30.618471], [-96.179966, 30.618321], [-96.179229, 30.618403], [-96.179095, 30.618161], [-96.179807, 30.617386], [-96.180587, 30.617996], [-96.182313, 30.617635], [-96.182542, 30.616938], [-96.182165, 30.61577], [-96.181309, 30.615748], [-96.181168, 30.615412], [-96.181634, 30.614464], [-96.181473, 30.613843], [-96.181649, 30.613245], [-96.182717, 30.612521], [-96.182601, 30.612271], [-96.182011, 30.612241], [-96.181996, 30.611761], [-96.181232, 30.611281], [-96.1813, 30.609894], [-96.181675, 30.609224], [-96.181497, 30.608126], [-96.181832, 30.607469], [-96.182448, 30.606798], [-96.183407, 30.60659], [-96.183837, 30.606716], [-96.185079, 30.606622], [-96.186668, 30.606023], [-96.186749, 30.605698], [-96.186163, 30.604497], [-96.186111, 30.603393], [-96.186375, 30.603208], [-96.187482, 30.603242], [-96.188155, 30.602684], [-96.188178, 30.602162], [-96.187425, 30.60176], [-96.187359, 30.601379], [-96.188314, 30.599614]]]}}
  ]
}
