{
  "type": "FeatureCollection",
  "note": "Tax year 2026. The county-wide median is $27,110 an acre, +26% from tax year 2025, from 15,814 parcels; 11,026 parcels under 1 acre are left out. Click a hexagon for its change since 2025.",
  "features": [
    {"type": "Feature", "properties": {"name": "Land value per acre", "Tax year": "2026", "id": "r734c229", "description": "Too few parcels to show (fewer than 5 of an acre or more)"}, "geometry": {"type": "Polygon", "coordinates": [[[-96.093361, 30.231558], [-96.093596, 30.226212], [-96.094114, 30.227008], [-96.09557, 30.22876], [-96.098248, 30.230439], [-96.101477, 30.23076], [-96.104367, 30.231473], [-96.105379, 30.23287], [-96.104444, 30.234947], [-96.103665, 30.237188], [-96.093361, 30.231558]]]}},
    {"type": "Feature", "properties": {"name": "Land value per acre", "Tax year": "2026", "id": "r734c230", "description": "Median appraised land value: $10,400 an acre", "Median land value per acre ($)": 10400, "Parcels counted": 5, "Change since tax year 2025": "+14.0% (+$1,280 an acre)"}, "geometry": {"type": "Polygon", "coordinates": [[[-96.093361, 30.231558], [-96.067746, 30.243289], [-96.045864, 30.231323], [-96.069319, 30.229964], [-96.072849, 30.229491], [-96.088941, 30.228718], [-96.08991, 30.227433], [-96.091453, 30.225994], [-96.093165, 30.225187], [-96.093316, 30.225783], [-96.093596, 30.226212], [-96.093361, 30.231558]]]}},
    {"type": "Feature", "properties": {"name": "Land value per acre", "Tax year": "2026", "id": "r734c231", "description": "Median appraised land value: $24,420 an acre", "Median land value per acre ($)": 24420, "Parcels counted": 11, "Change since tax year 2025": "+33.7% (+$6,160 an acre)"}, "geometry": {"type": "Polygon", "coordinates": [[[-96.01762, 30.241609], [-96.00331, 30.233777], [-96.039274, 30.231704], [-96.01762, 30.241609]]]}},
    {"type": "Feature", "properties": {"name": "Land value per acre", "Tax year": "2026", "id": "r734c232", "description": "Too few parcels to show (fewer than 5 of an acre or more)"}, "geometry": {"type": "Polygon", "coordinates": [[[-95.967497, 30.23991], [-95.96123, 30.236477], [-95.977314, 30.235425], [-95.967497, 30.23991]]]}},
    {"type": "Feature", "properties": {"name": "Land value per acre", "Tax year": "2026", "id": "r734c233", "description": "Too few parcels to show (fewer than 5 of an acre or more)"}, "geometry": {"type": "Polygon", "coordinates": [[[-95.917375, 30.238192], [-95.916627, 30.237781], [-95.918597, 30.237634], [-95.917375, 30.238192]]]}},
    {"type": "Feature", "properties": {"name": "Land value per acre", "Tax year": "2026", "id": "r735c229", "description": "Median appraised land value: $22,220 an acre", "Median land value per acre ($)": 22220, "Parcels counted": 8, "Change since tax year 2025": "+21.0% (+$3,860 an acre)"}, "geometry": {"type": "Polygon", "coordinates": [[[-96.066635, 30.268416], [-96.067746, 30.243289], [-96.093361, 30.231558], [-96.103665, 30.237188], [-96.103145, 30.238681], [-96.101346, 30.24088], [-96.098571, 30.242736], [-96.096936, 30.243007], [-96.094423, 30.242386], [-96.092994, 30.24133], [-96.090396, 30.238883], [-96.087671, 30.23777], [-96.083327, 30.238312], [-96.081741, 30.240882], [-96.081144, 30.242534], [-96.080839, 30.244305], [-96.082013, 30.246567], [-96.08228, 30.246795], [-96.08304, 30.248753], [-96.083911, 30.250354], [-96.084578, 30.251253], [-96.08605, 30.252541], [-96.088298, 30.252984], [-96.089438, 30.253041], [-96.094873, 30.252392], [-96.0981, 30.253867], [-96.09874, 30.254488], [-96.09912, 30.255174], [-96.099293, 30.256507], [-96.099253, 30.258049], [-96.09886, 30.259704], [-96.098039, 30.261674], [-96.095514, 30.265597], [-96.094859, 30.268309], [-96.094683, 30.271205], [-96.093798, 30.274316], [-96.093256, 30.275503], [-96.091737, 30.278013], [-96.090602, 30.279071], [-96.088463, 30.280343], [-96.066635, 30.268416]]]}},
    {"type": "Feature", "properties": {"name": "Land value per acre", "Tax year": "2026", "id": "r735c230", "description": "Median appraised land value: $34,480 an acre", "Median land value per acre ($)": 34480, "Parcels counted": 150, "Change since tax year 2025": "+30.4% (+$8,040 an acre)"}, "geometry": {"type": "Polygon", "coordinates": [[[-96.067746, 30.243289], [-96.066635, 30.268416], [-96.041007, 30.280142], [-96.016497, 30.266736], [-96.01762, 30.241609], [-96.039274, 30.231704], [-96.045864, 30.231323], [-96.067746, 30.243289]]]}},
    {"type": "Feature", "properties": {"name": "Land value per acre", "Tax year": "2026", "id": "r735c231", "description": "Median appraised land value: $29,030 an acre", "Median land value per acre ($)": 29030, "Parcels counted": 126, "Change since tax year 2025": "+35.0% (+$7,520 an acre)"}, "geometry": {"type": "Polygon", "coordinates": [[[-96.01762, 30.241609], [-96.016497, 30.266736], [-95.990863, 30.278452], [-95.96636, 30.265037], [-95.967497, 30.23991], [-95.977314, 30.235425], [-95.99633, 30.234178], [-96.00331, 30.233777], [-96.01762, 30.241609]]]}},
    {"type": "Feature", "properties": {"name": "Land value per acre", "Tax year": "2026", "id": "r735c232", "description": "Median appraised land value: $40,310 an acre", "Median land value per acre ($)": 40310, "Parcels counted": 223, "Change since tax year 2025": "+29.9% (+$9,290 an acre)"}, "geometry": {"type": "Polygon", "coordinates": [[[-95.967497, 30.23991], [-95.96636, 30.265037], [-95.940721, 30.276743], [-95.916226, 30.263317], [-95.917375, 30.238192], [-95.918597, 30.237634], [-95.923283, 30.237284], [-95.926415, 30.237292], [-95.928931, 30.237624], [-95.938612, 30.237527], [-95.948958, 30.236882], [-95.953773, 30.236964], [-95.96123, 30.236477], [-95.967497, 30.23991]]]}},
    {"type": "Feature", "properties": {"name": "Land value per acre", "Tax year": "2026", "id": "r735c233", "description": "Median appraised land value: $57,660 an acre", "Median land value per acre ($)": 57660, "Parcels counted": 652, "Change since tax year 2025": "+24.9% (+$11,480 an acre)"}, "geometry": {"type": "Polygon", "coordinates": [[[-95.917375, 30.238192], [-95.916226, 30.263317], [-95.890581, 30.275013], [-95.866093, 30.261579], [-95.867023, 30.241473], [-95.86731, 30.241454], [-95.916627, 30.237781], [-95.917375, 30.238192]]]}},
    {"type": "Feature", "properties": {"name": "Land value per acre", "Tax year": "2026", "id": "r735c234", "description": "Median appraised land value: $61,400 an acre", "Median land value per acre ($)": 61400, "Parcels counted": 490, "Change since tax year 2025": "+48.0% (+$19,910 an acre)"}, "geometry": {"type": "Polygon", "coordinates": [[[-95.866093, 30.261579], [-95.840442, 30.273265], [-95.815961, 30.25982], [-95.816664, 30.244811], [-95.821199, 30.24475], [-95.842138, 30.243445], [-95.8521, 30.242456], [-95.867023, 30.241473], [-95.866093, 30.261579]]]}},
    {"type": "Feature", "properties": {"name": "Land value per acre", "Tax year": "2026", "id": "r735c235", "description": "Median appraised land value: $40,220 an acre", "Median land value per acre ($)": 40220, "Parcels counted": 67, "Change since tax year 2025": "+40.0% (+$11,500 an acre)"}, "geometry": {"type": "Polygon", "coordinates": [[[-95.815961, 30.25982], [-95.804216, 30.265166], [-95.804306, 30.24557], [-95.805054, 30.245632], [-95.814501, 30.24484], [-95.816664, 30.244811], [-95.815961, 30.25982]]]}},
    {"type": "Feature", "properties": {"name": "Land value per acre", "Tax year": "2026", "id": "r736c229", "description": "Too few parcels to show (fewer than 5 of an acre or more)"}, "geometry": {"type": "MultiPolygon", "coordinates": [[[[-96.090048, 30.30694], [-96.090814, 30.289524], [-96.09393, 30.289078], [-96.096933, 30.289], [-96.098424, 30.289585], [-96.099316, 30.290258], [-96.099925, 30.29099], [-96.100321, 30.291809], [-96.10058, 30.292805], [-96.100402, 30.294802], [-96.100046, 30.29669], [-96.099345, 30.298466], [-96.098768, 30.299555], [-96.097614, 30.300984], [-96.095342, 30.302824], [-96.093637, 30.305195], [-96.093513, 30.306532], [-96.093829, 30.308171], [-96.09437, 30.3093], [-96.090048, 30.30694]]], [[[-96.114578, 30.320332], [-96.097636, 30.311083], [-96.098587, 30.311021], [-96.099945, 30.31061], [-96.10408, 30.30882], [-96.112305, 30.306601], [-96.115056, 30.306001], [-96.117372, 30.304195], [-96.119506, 30.304821], [-96.120477, 30.305689], [-96.122703, 30.309368], [-96.125273, 30.311563], [-96.126191, 30.311878], [-96.131635, 30.312434], [-96.131745, 30.312469], [-96.114578, 30.320332]]]]}},
    {"type": "Feature", "properties": {"name": "Land value per acre", "Tax year": "2026", "id": "r736c230", "description": "Median appraised land value: $30,780 an acre", "Median land value per acre ($)": 30780, "Parcels counted": 80, "Change since tax year 2025": "+34.3% (+$7,860 an acre)"}, "geometry": {"type": "Polygon", "coordinates": [[[-96.090048, 30.30694], [-96.064412, 30.31867], [-96.039889, 30.305269], [-96.041007, 30.280142], [-96.066635, 30.268416], [-96.088463, 30.280343], [-96.086737, 30.281369], [-96.085089, 30.282607], [-96.084382, 30.28376], [-96.084049, 30.285065], [-96.084068, 30.286456], [-96.084382, 30.28766], [-96.084794, 30.28822], [-96.085893, 30.288983], [-96.086855, 30.289407], [-96.087691, 30.289623], [-96.089809, 30.289668], [-96.090814, 30.289524], [-96.090048, 30.30694]]]}},
    {"type": "Feature", "properties": {"name": "Land value per acre", "Tax year": "2026", "id": "r736c231", "description": "Median appraised land value: $30,280 an acre", "Median land value per acre ($)": 30280, "Parcels counted": 158, "Change since tax year 2025": "+27.5% (+$6,540 an acre)"}, "geometry": {"type": "Polygon", "coordinates": [[[-95.990863, 30.278452], [-96.016497, 30.266736], [-96.041007, 30.280142], [-96.039889, 30.305269], [-96.014248, 30.31699], [-95.989732, 30.303579], [-95.990863, 30.278452]]]}},
    {"type": "Feature", "properties": {"name": "Land value per acre", "Tax year": "2026", "id": "r736c232", "description": "Median appraised land value: $29,090 an acre", "Median land value per acre ($)": 29090, "Parcels counted": 92, "Change since tax year 2025": "+25.9% (+$5,980 an acre)"}, "geometry": {"type": "Polygon", "coordinates": [[[-95.940721, 30.276743], [-95.96636, 30.265037], [-95.990863, 30.278452], [-95.989732, 30.303579], [-95.964085, 30.315289], [-95.939577, 30.301869], [-95.940721, 30.276743]]]}},
    {"type": "Feature", "properties": {"name": "Land value per acre", "Tax year": "2026", "id": "r736c233", "description": "Median appraised land value: $55,610 an acre", "Median land value per acre ($)": 55610, "Parcels counted": 469, "Change since tax year 2025": "+41.5% (+$16,300 an acre)"}, "geometry": {"type": "Polygon", "coordinates": [[[-95.890581, 30.275013], [-95.916226, 30.263317], [-95.940721, 30.276743], [-95.939577, 30.301869], [-95.913924, 30.313569], [-95.889423, 30.300139], [-95.890581, 30.275013]]]}},
    {"type": "Feature", "properties": {"name": "Land value per acre", "Tax year": "2026", "id": "r736c234", "description": "Median appraised land value: $42,460 an acre", "Median land value per acre ($)": 42460, "Parcels counted": 276, "Change since tax year 2025": "+38.4% (+$11,780 an acre)"}, "geometry": {"type": "Polygon", "coordinates": [[[-95.840442, 30.273265], [-95.866093, 30.261579], [-95.890581, 30.275013], [-95.889423, 30.300139], [-95.863765, 30.31183], [-95.839272, 30.29839], [-95.840442, 30.273265]]]}},
    {"type": "Feature", "properties": {"name": "Land value per acre", "Tax year": "2026", "id": "r736c235", "description": "Median appraised land value: $117,900 an acre", "Median land value per acre ($)": 117900, "Parcels counted": 228, "Change since tax year 2025": "+17.8% (+$17,820 an acre)"}, "geometry": {"type": "Polygon", "coordinates": [[[-95.815961, 30.25982], [-95.840442, 30.273265], [-95.839272, 30.29839], [-95.813608, 30.31007], [-95.804298, 30.304957], [-95.804197, 30.269364], [-95.804216, 30.265166], [-95.815961, 30.25982]]]}},
    {"type": "Feature", "properties": {"name": "Land value per acre", "Tax year": "2026", "id": "r737c228", "description": "Median appraised land value: $14,780 an acre", "Median land value per acre ($)": 14780, "Parcels counted": 9, "Change since tax year 2025": "+36.1% (+$3,920 an acre)"}, "geometry": {"type": "Polygon", "coordinates": [[[-96.138023, 30.358847], [-96.113479, 30.345459], [-96.114578, 30.320332], [-96.131745, 30.312469], [-96.135057, 30.313508], [-96.136547, 30.314752], [-96.137078, 30.316669], [-96.137044, 30.319254], [-96.137298, 30.321058], [-96.137944, 30.321859], [-96.138866, 30.322453], [-96.145244, 30.323592], [-96.147462, 30.324168], [-96.149386, 30.325187], [-96.150568, 30.326058], [-96.152789, 30.32801], [-96.15463, 30.330288], [-96.154542, 30.330549], [-96.154268, 30.330647], [-96.154171, 30.332094], [-96.154444, 30.332767], [-96.154438, 30.333234], [-96.154013, 30.334002], [-96.153232, 30.334475], [-96.151728, 30.334747], [-96.150813, 30.335088], [-96.148346, 30.335397], [-96.146389, 30.335948], [-96.144092, 30.336957], [-96.14249, 30.338037], [-96.141546, 30.339083], [-96.140259, 30.339654], [-96.139812, 30.340291], [-96.139812, 30.340935], [-96.140093, 30.341723], [-96.14055, 30.342446], [-96.140997, 30.342766], [-96.141712, 30.342953], [-96.145245, 30.343044], [-96.145874, 30.343225], [-96.147843, 30.344424], [-96.148465, 30.345], [-96.148542, 30.346564], [-96.149693, 30.349892], [-96.149758, 30.352225], [-96.149069, 30.353116], [-96.148446, 30.353312], [-96.14762, 30.353278], [-96.14536, 30.352165], [-96.143597, 30.352102], [-96.142737, 30.352525], [-96.142423, 30.352905], [-96.141639, 30.355356], [-96.141778, 30.356308], [-96.142204, 30.356932], [-96.138023, 30.358847]]]}},
    {"type": "Feature", "properties": {"name": "Land value per acre", "Tax year": "2026", "id": "r737c229", "description": "Median appraised land value: $23,330 an acre", "Median land value per acre ($)": 23330, "Parcels counted": 47, "Change since tax year 2025": "+37.2% (+$6,330 an acre)"}, "geometry": {"type": "Polygon", "coordinates": [[[-96.114578, 30.320332], [-96.113479, 30.345459], [-96.087836, 30.357195], [-96.0633, 30.343798], [-96.064412, 30.31867], [-96.090048, 30.30694], [-96.09437, 30.3093], [-96.094404, 30.309371], [-96.095613, 30.310493], [-96.096515, 30.310851], [-96.097193, 30.311112], [-96.097636, 30.311083], [-96.114578, 30.320332]]]}},
    {"type": "Feature", "properties": {"name": "Land value per acre", "Tax year": "2026", "id": "r737c230", "description": "Median appraised land value: $31,920 an acre", "Median land value per acre ($)": 31920, "Parcels counted": 106, "Change since tax year 2025": "+29.3% (+$7,230 an acre)"}, "geometry": {"type": "Polygon", "coordinates": [[[-96.014248, 30.31699], [-96.039889, 30.305269], [-96.064412, 30.31867], [-96.0633, 30.343798], [-96.037651, 30.355523], [-96.013123, 30.342116], [-96.014248, 30.31699]]]}},
    {"type": "Feature", "properties": {"name": "Land value per acre", "Tax year": "2026", "id": "r737c231", "description": "Median appraised land value: $34,970 an acre", "Median land value per acre ($)": 34970, "Parcels counted": 175, "Change since tax year 2025": "+39.5% (+$9,900 an acre)"}, "geometry": {"type": "Polygon", "coordinates": [[[-95.964085, 30.315289], [-95.989732, 30.303579], [-96.014248, 30.31699], [-96.013123, 30.342116], [-95.987468, 30.353832], [-95.962947, 30.340416], [-95.964085, 30.315289]]]}},
    {"type": "Feature", "properties": {"name": "Land value per acre", "Tax year": "2026", "id": "r737c232", "description": "Median appraised land value: $25,370 an acre", "Median land value per acre ($)": 25370, "Parcels counted": 113, "Change since tax year 2025": "+27.2% (+$5,430 an acre)"}, "geometry": {"type": "Polygon", "coordinates": [[[-95.913924, 30.313569], [-95.939577, 30.301869], [-95.964085, 30.315289], [-95.962947, 30.340416], [-95.937287, 30.352121], [-95.912773, 30.338695], [-95.913924, 30.313569]]]}},
    {"type": "Feature", "properties": {"name": "Land value per acre", "Tax year": "2026", "id": "r737c233", "description": "Median appraised land value: $35,860 an acre", "Median land value per acre ($)": 35860, "Parcels counted": 248, "Change since tax year 2025": "+29.6% (+$8,190 an acre)"}, "geometry": {"type": "Polygon", "coordinates": [[[-95.863765, 30.31183], [-95.889423, 30.300139], [-95.913924, 30.313569], [-95.912773, 30.338695], [-95.887108, 30.35039], [-95.862601, 30.336955], [-95.863765, 30.31183]]]}},
    {"type": "Feature", "properties": {"name": "Land value per acre", "Tax year": "2026", "id": "r737c234", "description": "Median appraised land value: $38,110 an acre", "Median land value per acre ($)": 38110, "Parcels counted": 226, "Change since tax year 2025": "+36.7% (+$10,240 an acre)"}, "geometry": {"type": "Polygon", "coordinates": [[[-95.813608, 30.31007], [-95.839272, 30.29839], [-95.863765, 30.31183], [-95.862601, 30.336955], [-95.83693, 30.34864], [-95.812431, 30.335195], [-95.813608, 30.31007]]]}},
    {"type": "Feature", "properties": {"name": "Land value per acre", "Tax year": "2026", "id": "r737c235", "description": "Median appraised land value: $55,470 an acre", "Median land value per acre ($)": 55470, "Parcels counted": 6, "Change since tax year 2025": "+13.9% (+$6,760 an acre)"}, "geometry": {"type": "Polygon", "coordinates": [[[-95.813608, 30.31007], [-95.812431, 30.335195], [-95.804407, 30.338845], [-95.804393, 30.338674], [-95.804298, 30.304957], [-95.813608, 30.31007]]]}},
    {"type": "Feature", "properties": {"name": "Land value per acre", "Tax year": "2026", "id": "r738c228", "description": "Too few parcels to show (fewer than 5 of an acre or more)"}, "geometry": {"type": "Polygon", "coordinates": [[[-96.138023, 30.358847], [-96.142204, 30.356932], [-96.142469, 30.35732], [-96.142623, 30.35806], [-96.142437, 30.359626], [-96.142511, 30.361131], [-96.142292, 30.362004], [-96.141712, 30.362947], [-96.141609, 30.36551], [-96.141991, 30.366498], [-96.14215, 30.367815], [-96.142617, 30.368367], [-96.143896, 30.368864], [-96.144657, 30.369365], [-96.1455, 30.370874], [-96.14548, 30.371828], [-96.144249, 30.374493], [-96.144134, 30.37698], [-96.145035, 30.378137], [-96.146243, 30.379009], [-96.147067, 30.380284], [-96.147412, 30.381353], [-96.147418, 30.382322], [-96.147255, 30.38284], [-96.146023, 30.383993], [-96.14591, 30.384444], [-96.145251, 30.384822], [-96.144493, 30.384669], [-96.143641, 30.384238], [-96.142252, 30.384022], [-96.138971, 30.383138], [-96.13786, 30.383217], [-96.13695, 30.383493], [-96.138023, 30.358847]]]}},
    {"type": "Feature", "properties": {"name": "Land value per acre", "Tax year": "2026", "id": "r738c229", "description": "Median appraised land value: $30,260 an acre", "Median land value per acre ($)": 30260, "Parcels counted": 189, "Change since tax year 2025": "+28.2% (+$6,660 an acre)"}, "geometry": {"type": "Polygon", "coordinates": [[[-96.08673, 30.382322], [-96.087836, 30.357195], [-96.113479, 30.345459], [-96.138023, 30.358847], [-96.13695, 30.383493], [-96.136528, 30.383621], [-96.135024, 30.384464], [-96.134193, 30.384583], [-96.133976, 30.385327], [-96.127802, 30.388153], [-96.126735, 30.38804], [-96.126016, 30.387775], [-96.122909, 30.384709], [-96.122444, 30.384078], [-96.12174, 30.383893], [-96.121478, 30.383999], [-96.121141, 30.384718], [-96.121107, 30.385541], [-96.120898, 30.386047], [-96.120004, 30.386766], [-96.119702, 30.38715], [-96.119669, 30.387469], [-96.12025, 30.389109], [-96.121515, 30.390278], [-96.121683, 30.390834], [-96.121664, 30.390963], [-96.119235, 30.392074], [-96.117595, 30.391278], [-96.117152, 30.39145], [-96.116756, 30.392229], [-96.116755, 30.392802], [-96.116902, 30.393142], [-96.113883, 30.394523], [-96.113772, 30.394337], [-96.113067, 30.394102], [-96.112343, 30.394433], [-96.111445, 30.395211], [-96.111277, 30.395714], [-96.08673, 30.382322]]]}},
    {"type": "Feature", "properties": {"name": "Land value per acre", "Tax year": "2026", "id": "r738c230", "description": "Median appraised land value: $50,670 an acre", "Median land value per acre ($)": 50670, "Parcels counted": 340, "Change since tax year 2025": "+26.5% (+$10,610 an acre)"}, "geometry": {"type": "Polygon", "coordinates": [[[-96.037651, 30.355523], [-96.0633, 30.343798], [-96.087836, 30.357195], [-96.08673, 30.382322], [-96.061074, 30.394052], [-96.036532, 30.38065], [-96.037651, 30.355523]]]}},
    {"type": "Feature", "properties": {"name": "Land value per acre", "Tax year": "2026", "id": "r738c231", "description": "Median appraised land value: $36,220 an acre", "Median land value per acre ($)": 36220, "Parcels counted": 232, "Change since tax year 2025": "+35.7% (+$9,530 an acre)"}, "geometry": {"type": "Polygon", "coordinates": [[[-95.987468, 30.353832], [-96.013123, 30.342116], [-96.037651, 30.355523], [-96.036532, 30.38065], [-96.01087, 30.39237], [-95.986336, 30.378958], [-95.987468, 30.353832]]]}},
    {"type": "Feature", "properties": {"name": "Land value per acre", "Tax year": "2026", "id": "r738c232", "description": "Median appraised land value: $23,380 an acre", "Median land value per acre ($)": 23380, "Parcels counted": 68, "Change since tax year 2025": "+28.4% (+$5,170 an acre)"}, "geometry": {"type": "Polygon", "coordinates": [[[-95.937287, 30.352121], [-95.962947, 30.340416], [-95.987468, 30.353832], [-95.986336, 30.378958], [-95.960668, 30.390668], [-95.936141, 30.377247], [-95.937287, 30.352121]]]}},
    {"type": "Feature", "properties": {"name": "Land value per acre", "Tax year": "2026", "id": "r738c233", "description": "Median appraised land value: $34,900 an acre", "Median land value per acre ($)": 34900, "Parcels counted": 222, "Change since tax year 2025": "+61.8% (+$13,330 an acre)"}, "geometry": {"type": "Polygon", "coordinates": [[[-95.887108, 30.35039], [-95.912773, 30.338695], [-95.937287, 30.352121], [-95.936141, 30.377247], [-95.910468, 30.388947], [-95.885949, 30.375516], [-95.887108, 30.35039]]]}},
    {"type": "Feature", "properties": {"name": "Land value per acre", "Tax year": "2026", "id": "r738c234", "description": "Median appraised land value: $86,390 an acre", "Median land value per acre ($)": 86390, "Parcels counted": 355, "Change since tax year 2025": "+24.3% (+$16,870 an acre)"}, "geometry": {"type": "Polygon", "coordinates": [[[-95.83693, 30.34864], [-95.862601, 30.336955], [-95.887108, 30.35039], [-95.885949, 30.375516], [-95.86027, 30.387206], [-95.835758, 30.373765], [-95.83693, 30.34864]]]}},
    {"type": "Feature", "properties": {"name": "Land value per acre", "Tax year": "2026", "id": "r738c235", "description": "Median appraised land value: $43,220 an acre", "Median land value per acre ($)": 43220, "Parcels counted": 130, "Change since tax year 2025": "+27.2% (+$9,250 an acre)"}, "geometry": {"type": "Polygon", "coordinates": [[[-95.812431, 30.335195], [-95.83693, 30.34864], [-95.835758, 30.373765], [-95.810074, 30.385445], [-95.80812, 30.384373], [-95.804407, 30.338845], [-95.812431, 30.335195]]]}},
    {"type": "Feature", "properties": {"name": "Land value per acre", "Tax year": "2026", "id": "r739c228", "description": "Too few parcels to show (fewer than 5 of an acre or more)"}, "geometry": {"type": "MultiPolygon", "coordinates": [[[[-96.133976, 30.385327], [-96.1337, 30.386271], [-96.132247, 30.387902], [-96.12941, 30.388324], [-96.127802, 30.388153], [-96.133976, 30.385327]]], [[[-96.121664, 30.390963], [-96.121524, 30.391891], [-96.120956, 30.392253], [-96.119319, 30.392115], [-96.119235, 30.392074], [-96.121664, 30.390963]]], [[[-96.116902, 30.393142], [-96.117654, 30.394881], [-96.117772, 30.396044], [-96.118416, 30.398448], [-96.118262, 30.39932], [-96.117367, 30.399791], [-96.116317, 30.399332], [-96.115672, 30.398342], [-96.114443, 30.397486], [-96.114046, 30.396912], [-96.114076, 30.394845], [-96.113883, 30.394523], [-96.116902, 30.393142]]], [[[-96.111226, 30.396913], [-96.111932, 30.398324], [-96.113234, 30.399887], [-96.11355, 30.401183], [-96.113373, 30.401621], [-96.112698, 30.402295], [-96.110937, 30.403522], [-96.111226, 30.396913]]], [[[-96.110779, 30.407116], [-96.11096, 30.407053], [-96.1116, 30.407357], [-96.111879, 30.407835], [-96.112015, 30.408973], [-96.112373, 30.409849], [-96.112933, 30.410516], [-96.113342, 30.411377], [-96.11369, 30.412727], [-96.113601, 30.413186], [-96.112194, 30.415668], [-96.110368, 30.416512], [-96.110779, 30.407116]]]]}},
    {"type": "Feature", "properties": {"name": "Land value per acre", "Tax year": "2026", "id": "r739c229", "description": "Median appraised land value: $40,880 an acre", "Median land value per acre ($)": 40880, "Parcels counted": 290, "Change since tax year 2025": "+25.4% (+$8,270 an acre)"}, "geometry": {"type": "MultiPolygon", "coordinates": [[[[-96.05996, 30.41918], [-96.061074, 30.394052], [-96.08673, 30.382322], [-96.111277, 30.395714], [-96.111157, 30.396071], [-96.11118, 30.39682], [-96.111226, 30.396913], [-96.110937, 30.403522], [-96.110011, 30.404167], [-96.108193, 30.406208], [-96.107914, 30.406987], [-96.108147, 30.407425], [-96.10862, 30.407622], [-96.109564, 30.407538], [-96.110779, 30.407116], [-96.110368, 30.416512], [-96.109523, 30.416902], [-96.10736, 30.417582], [-96.106743, 30.418294], [-96.106625, 30.418172], [-96.106528, 30.418263], [-96.106154, 30.418928], [-96.106155, 30.419714], [-96.106533, 30.421322], [-96.106341, 30.421933], [-96.105601, 30.422125], [-96.104315, 30.421723], [-96.103517, 30.421211], [-96.103052, 30.420419], [-96.103516, 30.419345], [-96.103456, 30.418892], [-96.102814, 30.41829], [-96.101896, 30.417891], [-96.101321, 30.41739], [-96.100592, 30.417425], [-96.099717, 30.418542], [-96.098562, 30.419343], [-96.098259, 30.419841], [-96.09746, 30.420027], [-96.096178, 30.419936], [-96.095537, 30.419696], [-96.095307, 30.419209], [-96.095338, 30.418817], [-96.095878, 30.418195], [-96.095818, 30.417429], [-96.095309, 30.416926], [-96.094498, 30.416651], [-96.091697, 30.416471], [-96.087926, 30.417293], [-96.086653, 30.418299], [-96.084794, 30.420591], [-96.084163, 30.421601], [-96.082934, 30.422949], [-96.082812, 30.42364], [-96.083347, 30.424985], [-96.082887, 30.42606], [-96.082524, 30.428255], [-96.082094, 30.428615], [-96.080777, 30.428937], [-96.080216, 30.429422], [-96.079969, 30.43003], [-96.079976, 30.430102], [-96.05996, 30.41918]]], [[[-96.084515, 30.432577], [-96.081748, 30.431068], [-96.085383, 30.430026], [-96.086791, 30.42989], [-96.087431, 30.430756], [-96.087348, 30.431282], [-96.084515, 30.432577]]]]}},
    {"type": "Feature", "properties": {"name": "Land value per acre", "Tax year": "2026", "id": "r739c230", "description": "Median appraised land value: $30,580 an acre", "Median land value per acre ($)": 30580, "Parcels counted": 207, "Change since tax year 2025": "+37.5% (+$8,340 an acre)"}, "geometry": {"type": "Polygon", "coordinates": [[[-96.01087, 30.39237], [-96.036532, 30.38065], [-96.061074, 30.394052], [-96.05996, 30.41918], [-96.034291, 30.430904], [-96.009743, 30.417497], [-96.01087, 30.39237]]]}},
    {"type": "Feature", "properties": {"name": "Land value per acre", "Tax year": "2026", "id": "r739c231", "description": "Median appraised land value: $24,720 an acre", "Median land value per acre ($)": 24720, "Parcels counted": 117, "Change since tax year 2025": "+21.9% (+$4,440 an acre)"}, "geometry": {"type": "Polygon", "coordinates": [[[-95.960668, 30.390668], [-95.986336, 30.378958], [-96.01087, 30.39237], [-96.009743, 30.417497], [-95.984068, 30.429212], [-95.959528, 30.415795], [-95.960668, 30.390668]]]}},
    {"type": "Feature", "properties": {"name": "Land value per acre", "Tax year": "2026", "id": "r739c232", "description": "Median appraised land value: $24,250 an acre", "Median land value per acre ($)": 24250, "Parcels counted": 221, "Change since tax year 2025": "+21.4% (+$4,280 an acre)"}, "geometry": {"type": "Polygon", "coordinates": [[[-95.910468, 30.388947], [-95.936141, 30.377247], [-95.960668, 30.390668], [-95.959528, 30.415795], [-95.933848, 30.427499], [-95.909315, 30.414073], [-95.910468, 30.388947]]]}},
    {"type": "Feature", "properties": {"name": "Land value per acre", "Tax year": "2026", "id": "r739c233", "description": "Median appraised land value: $30,790 an acre", "Median land value per acre ($)": 30790, "Parcels counted": 181, "Change since tax year 2025": "+34.2% (+$7,850 an acre)"}, "geometry": {"type": "Polygon", "coordinates": [[[-95.86027, 30.387206], [-95.885949, 30.375516], [-95.910468, 30.388947], [-95.909315, 30.414073], [-95.883629, 30.425768], [-95.859104, 30.412332], [-95.86027, 30.387206]]]}},
    {"type": "Feature", "properties": {"name": "Land value per acre", "Tax year": "2026", "id": "r739c234", "description": "Median appraised land value: $21,100 an acre", "Median land value per acre ($)": 21100, "Parcels counted": 109, "Change since tax year 2025": "+27.2% (+$4,510 an acre)"}, "geometry": {"type": "Polygon", "coordinates": [[[-95.810074, 30.385445], [-95.835758, 30.373765], [-95.86027, 30.387206], [-95.859104, 30.412332], [-95.833412, 30.424016], [-95.810322, 30.411354], [-95.809392, 30.399963], [-95.810074, 30.385445]]]}},
    {"type": "Feature", "properties": {"name": "Land value per acre", "Tax year": "2026", "id": "r739c235", "description": "Too few parcels to show (fewer than 5 of an acre or more)"}, "geometry": {"type": "Polygon", "coordinates": [[[-95.810074, 30.385445], [-95.809392, 30.399963], [-95.80812, 30.384373], [-95.810074, 30.385445]]]}},
    {"type": "Feature", "properties": {"name": "Land value per acre", "Tax year": "2026", "id": "r740c229", "description": "Median appraised land value: $9,810 an acre", "Median land value per acre ($)": 9810, "Parcels counted": 7, "Change since tax year 2025": "+3.7% (+$350 an acre)"}, "geometry": {"type": "Polygon", "coordinates": [[[-96.107974, 30.471098], [-96.083406, 30.457705], [-96.084515, 30.432577], [-96.087348, 30.431282], [-96.087328, 30.431409], [-96.086481, 30.43257], [-96.085882, 30.433865], [-96.086, 30.434552], [-96.085832, 30.435217], [-96.086, 30.435559], [-96.086571, 30.436069], [-96.088471, 30.436779], [-96.090585, 30.438024], [-96.092821, 30.440101], [-96.093651, 30.440047], [-96.094352, 30.438887], [-96.09558, 30.438846], [-96.096234, 30.437566], [-96.09689, 30.437409], [-96.09732, 30.437586], [-96.097592, 30.438259], [-96.09827, 30.438888], [-96.099056, 30.440058], [-96.100629, 30.440693], [-96.102248, 30.438976], [-96.103185, 30.438347], [-96.103808, 30.437507], [-96.104669, 30.437032], [-96.105196, 30.437023], [-96.105709, 30.437608], [-96.105766, 30.438024], [-96.10644, 30.439313], [-96.106526, 30.440015], [-96.106217, 30.44028], [-96.104993, 30.440548], [-96.104766, 30.440835], [-96.104842, 30.44176], [-96.104598, 30.443787], [-96.10491, 30.444207], [-96.10534, 30.444408], [-96.106775, 30.443648], [-96.108706, 30.443801], [-96.109604, 30.443675], [-96.111013, 30.443155], [-96.111887, 30.442693], [-96.112109, 30.442317], [-96.112195, 30.441357], [-96.113073, 30.440607], [-96.114222, 30.441275], [-96.114558, 30.441146], [-96.115132, 30.440451], [-96.115909, 30.440427], [-96.117474, 30.441153], [-96.118433, 30.441276], [-96.118987, 30.441512], [-96.119176, 30.441737], [-96.119062, 30.4424], [-96.119354, 30.442696], [-96.119644, 30.442619], [-96.1197, 30.442247], [-96.119972, 30.441859], [-96.120202, 30.441805], [-96.120453, 30.441921], [-96.121095, 30.443029], [-96.121976, 30.443579], [-96.1218, 30.444834], [-96.122177, 30.445047], [-96.122238, 30.445701], [-96.123164, 30.446118], [-96.12288, 30.446714], [-96.123016, 30.447038], [-96.124507, 30.448197], [-96.125902, 30.448769], [-96.126509, 30.449508], [-96.126396, 30.449827], [-96.125683, 30.450215], [-96.12589, 30.450884], [-96.125482, 30.451207], [-96.125398, 30.451479], [-96.124776, 30.451244], [-96.124367, 30.451274], [-96.12371, 30.451799], [-96.12353, 30.453286], [-96.122784, 30.454464], [-96.122819, 30.454816], [-96.123073, 30.455139], [-96.123638, 30.455544], [-96.124356, 30.455586], [-96.124688, 30.455383], [-96.124795, 30.455121], [-96.124894, 30.454644], [-96.124691, 30.454117], [-96.124795, 30.453969], [-96.128129, 30.453441], [-96.128918, 30.452538], [-96.129821, 30.452384], [-96.130018, 30.452555], [-96.129903, 30.454093], [-96.129403, 30.455314], [-96.128739, 30.456024], [-96.126619, 30.456492], [-96.126375, 30.456678], [-96.12614, 30.457276], [-96.126175, 30.457521], [-96.126602, 30.45801], [-96.127166, 30.457773], [-96.128057, 30.458213], [-96.128363, 30.458983], [-96.129276, 30.459519], [-96.129709, 30.460115], [-96.129655, 30.460787], [-96.129143, 30.461182], [-96.12895, 30.461506], [-96.107974, 30.471098]]]}},
    {"type": "Feature", "properties": {"name": "Land value per acre", "Tax year": "2026", "id": "r740c230", "description": "Median appraised land value: $23,470 an acre", "Median land value per acre ($)": 23470, "Parcels counted": 83, "Change since tax year 2025": "+10.2% (+$2,170 an acre)"}, "geometry": {"type": "Polygon", "coordinates": [[[-96.084515, 30.432577], [-96.083406, 30.457705], [-96.05773, 30.469434], [-96.033169, 30.456031], [-96.034291, 30.430904], [-96.05996, 30.41918], [-96.079976, 30.430102], [-96.080009, 30.430435], [-96.080387, 30.431043], [-96.080975, 30.43129], [-96.081748, 30.431068], [-96.084515, 30.432577]]]}},
    {"type": "Feature", "properties": {"name": "Land value per acre", "Tax year": "2026", "id": "r740c231", "description": "Median appraised land value: $30,820 an acre", "Median land value per acre ($)": 30820, "Parcels counted": 122, "Change since tax year 2025": "+23.6% (+$5,890 an acre)"}, "geometry": {"type": "Polygon", "coordinates": [[[-95.984068, 30.429212], [-96.009743, 30.417497], [-96.034291, 30.430904], [-96.033169, 30.456031], [-96.007487, 30.467751], [-95.982934, 30.454338], [-95.984068, 30.429212]]]}},
    {"type": "Feature", "properties": {"name": "Land value per acre", "Tax year": "2026", "id": "r740c232", "description": "Median appraised land value: $19,730 an acre", "Median land value per acre ($)": 19730, "Parcels counted": 102, "Change since tax year 2025": "+30.3% (+$4,590 an acre)"}, "geometry": {"type": "Polygon", "coordinates": [[[-95.933848, 30.427499], [-95.959528, 30.415795], [-95.984068, 30.429212], [-95.982934, 30.454338], [-95.957246, 30.466048], [-95.9327, 30.452626], [-95.933848, 30.427499]]]}},
    {"type": "Feature", "properties": {"name": "Land value per acre", "Tax year": "2026", "id": "r740c233", "description": "Median appraised land value: $12,900 an acre", "Median land value per acre ($)": 12900, "Parcels counted": 246, "Change since tax year 2025": "+8.5% (+$1,010 an acre)"}, "geometry": {"type": "Polygon", "coordinates": [[[-95.883629, 30.425768], [-95.909315, 30.414073], [-95.933848, 30.427499], [-95.9327, 30.452626], [-95.907007, 30.464325], [-95.882469, 30.450893], [-95.883629, 30.425768]]]}},
    {"type": "Feature", "properties": {"name": "Land value per acre", "Tax year": "2026", "id": "r740c234", "description": "Median appraised land value: $27,750 an acre", "Median land value per acre ($)": 27750, "Parcels counted": 155, "Change since tax year 2025": "+15.0% (+$3,610 an acre)"}, "geometry": {"type": "Polygon", "coordinates": [[[-95.833412, 30.424016], [-95.859104, 30.412332], [-95.883629, 30.425768], [-95.882469, 30.450893], [-95.85677, 30.462583], [-95.832239, 30.449141], [-95.833412, 30.424016]]]}},
    {"type": "Feature", "properties": {"name": "Land value per acre", "Tax year": "2026", "id": "r740c235", "description": "Median appraised land value: $13,620 an acre", "Median land value per acre ($)": 13620, "Parcels counted": 19, "Change since tax year 2025": "+19.2% (+$2,190 an acre)"}, "geometry": {"type": "Polygon", "coordinates": [[[-95.833412, 30.424016], [-95.832239, 30.449141], [-95.813905, 30.457472], [-95.813948, 30.455742], [-95.810322, 30.411354], [-95.833412, 30.424016]]]}},
    {"type": "Feature", "properties": {"name": "Land value per acre", "Tax year": "2026", "id": "r741c228", "description": "Median appraised land value: $11,460 an acre", "Median land value per acre ($)": 11460, "Parcels counted": 15, "Change since tax year 2025": "+1.5% (+$170 an acre)"}, "geometry": {"type": "Polygon", "coordinates": [[[-96.131453, 30.509614], [-96.106872, 30.496226], [-96.107974, 30.471098], [-96.12895, 30.461506], [-96.128808, 30.461745], [-96.128939, 30.462189], [-96.129405, 30.462564], [-96.130283, 30.463871], [-96.129431, 30.465829], [-96.129483, 30.466248], [-96.129705, 30.466496], [-96.130138, 30.466608], [-96.130572, 30.466289], [-96.131014, 30.466297], [-96.132395, 30.467246], [-96.133409, 30.467531], [-96.134453, 30.467282], [-96.134674, 30.46707], [-96.134896, 30.466396], [-96.135187, 30.466149], [-96.135632, 30.466084], [-96.136151, 30.466286], [-96.1364, 30.466562], [-96.136457, 30.467084], [-96.135812, 30.46893], [-96.135892, 30.469241], [-96.137328, 30.470225], [-96.137983, 30.471037], [-96.13975, 30.471545], [-96.139964, 30.471806], [-96.139988, 30.472262], [-96.13878, 30.473921], [-96.138803, 30.474204], [-96.139731, 30.474797], [-96.140852, 30.47497], [-96.141089, 30.4753], [-96.14079, 30.475572], [-96.139885, 30.475598], [-96.139499, 30.476014], [-96.139124, 30.477646], [-96.139567, 30.478764], [-96.139329, 30.479179], [-96.137724, 30.47916], [-96.137529, 30.478531], [-96.137775, 30.477463], [-96.137646, 30.477032], [-96.136907, 30.476453], [-96.13656, 30.476459], [-96.136253, 30.476741], [-96.136155, 30.477672], [-96.136976, 30.478499], [-96.136996, 30.478836], [-96.135553, 30.47947], [-96.135281, 30.479857], [-96.135445, 30.480363], [-96.13674, 30.48086], [-96.137004, 30.481359], [-96.135604, 30.483317], [-96.135168, 30.483425], [-96.133907, 30.483344], [-96.13335, 30.483579], [-96.133113, 30.483868], [-96.132896, 30.48557], [-96.133038, 30.486226], [-96.132708, 30.487348], [-96.132554, 30.488708], [-96.13276, 30.48954], [-96.1321, 30.49054], [-96.132556, 30.491103], [-96.132504, 30.491905], [-96.132867, 30.492282], [-96.133232, 30.492395], [-96.134135, 30.491867], [-96.134647, 30.491839], [-96.134826, 30.492069], [-96.134917, 30.493103], [-96.135082, 30.493419], [-96.135391, 30.493471], [-96.136102, 30.493021], [-96.136585, 30.493207], [-96.136575, 30.493522], [-96.136061, 30.494197], [-96.136032, 30.494975], [-96.136668, 30.495394], [-96.13772, 30.495428], [-96.137955, 30.49572], [-96.137852, 30.496995], [-96.137486, 30.497935], [-96.136737, 30.498853], [-96.136604, 30.499378], [-96.136836, 30.500077], [-96.137819, 30.501184], [-96.138342, 30.501417], [-96.138778, 30.501096], [-96.139108, 30.500448], [-96.139522, 30.500156], [-96.139897, 30.500252], [-96.140285, 30.500792], [-96.140741, 30.500816], [-96.141425, 30.500413], [-96.141996, 30.500319], [-96.142185, 30.50038], [-96.14253, 30.500989], [-96.142913, 30.502442], [-96.143093, 30.502623], [-96.144127, 30.502645], [-96.144663, 30.503108], [-96.144678, 30.503567], [-96.143432, 30.504137], [-96.142481, 30.503719], [-96.142248, 30.503928], [-96.142355, 30.504629], [-96.131453, 30.509614]]]}},
    {"type": "Feature", "properties": {"name": "Land value per acre", "Tax year": "2026", "id": "r741c229", "description": "Median appraised land value: $25,120 an acre", "Median land value per acre ($)": 25120, "Parcels counted": 118, "Change since tax year 2025": "+10.0% (+$2,280 an acre)"}, "geometry": {"type": "Polygon", "coordinates": [[[-96.05773, 30.469434], [-96.083406, 30.457705], [-96.107974, 30.471098], [-96.106872, 30.496226], [-96.081188, 30.50796], [-96.056614, 30.494561], [-96.05773, 30.469434]]]}},
    {"type": "Feature", "properties": {"name": "Land value per acre", "Tax year": "2026", "id": "r741c230", "description": "Median appraised land value: $30,110 an acre", "Median land value per acre ($)": 30110, "Parcels counted": 202, "Change since tax year 2025": "+25.8% (+$6,170 an acre)"}, "geometry": {"type": "Polygon", "coordinates": [[[-96.007487, 30.467751], [-96.033169, 30.456031], [-96.05773, 30.469434], [-96.056614, 30.494561], [-96.030924, 30.506286], [-96.006358, 30.492878], [-96.007487, 30.467751]]]}},
    {"type": "Feature", "properties": {"name": "Land value per acre", "Tax year": "2026", "id": "r741c231", "description": "Median appraised land value: $26,860 an acre", "Median land value per acre ($)": 26860, "Parcels counted": 160, "Change since tax year 2025": "+13.4% (+$3,180 an acre)"}, "geometry": {"type": "Polygon", "coordinates": [[[-95.957246, 30.466048], [-95.982934, 30.454338], [-96.007487, 30.467751], [-96.006358, 30.492878], [-95.980663, 30.504592], [-95.956104, 30.491174], [-95.957246, 30.466048]]]}},
    {"type": "Feature", "properties": {"name": "Land value per acre", "Tax year": "2026", "id": "r741c232", "description": "Median appraised land value: $24,980 an acre", "Median land value per acre ($)": 24980, "Parcels counted": 121, "Change since tax year 2025": "+18.2% (+$3,840 an acre)"}, "geometry": {"type": "Polygon", "coordinates": [[[-95.907007, 30.464325], [-95.9327, 30.452626], [-95.957246, 30.466048], [-95.956104, 30.491174], [-95.930403, 30.502878], [-95.905852, 30.489451], [-95.907007, 30.464325]]]}},
    {"type": "Feature", "properties": {"name": "Land value per acre", "Tax year": "2026", "id": "r741c233", "description": "Median appraised land value: $22,210 an acre", "Median land value per acre ($)": 22210, "Parcels counted": 148, "Change since tax year 2025": "+15.8% (+$3,030 an acre)"}, "geometry": {"type": "Polygon", "coordinates": [[[-95.85677, 30.462583], [-95.882469, 30.450893], [-95.907007, 30.464325], [-95.905852, 30.489451], [-95.880145, 30.501145], [-95.855601, 30.487708], [-95.85677, 30.462583]]]}},
    {"type": "Feature", "properties": {"name": "Land value per acre", "Tax year": "2026", "id": "r741c234", "description": "Median appraised land value: $30,150 an acre", "Median land value per acre ($)": 30150, "Parcels counted": 151, "Change since tax year 2025": "+25.1% (+$6,050 an acre)"}, "geometry": {"type": "Polygon", "coordinates": [[[-95.832239, 30.449141], [-95.85677, 30.462583], [-95.855601, 30.487708], [-95.829889, 30.499392], [-95.816784, 30.492211], [-95.814655, 30.465658], [-95.814638, 30.463365], [-95.814339, 30.462462], [-95.814171, 30.459944], [-95.813864, 30.459147], [-95.813905, 30.457472], [-95.832239, 30.449141]]]}},
    {"type": "Feature", "properties": {"name": "Land value per acre", "Tax year": "2026", "id": "r742c228", "description": "Median appraised land value: $1,690 an acre", "Median land value per acre ($)": 1690, "Parcels counted": 5, "Change since tax year 2025": "+0.0% (+$0 an acre)"}, "geometry": {"type": "MultiPolygon", "coordinates": [[[[-96.15495, 30.548127], [-96.130356, 30.534742], [-96.131453, 30.509614], [-96.142355, 30.504629], [-96.142561, 30.50598], [-96.141589, 30.506118], [-96.141061, 30.506389], [-96.141009, 30.50785], [-96.140187, 30.508407], [-96.140033, 30.508615], [-96.140079, 30.508997], [-96.140334, 30.509215], [-96.141018, 30.509084], [-96.141584, 30.509175], [-96.142017, 30.509558], [-96.142569, 30.510503], [-96.143473, 30.511118], [-96.144571, 30.510631], [-96.144798, 30.510675], [-96.144783, 30.511692], [-96.144585, 30.512043], [-96.143677, 30.512759], [-96.143521, 30.513197], [-96.143606, 30.51347], [-96.144276, 30.514002], [-96.14464, 30.514033], [-96.145955, 30.514696], [-96.1463, 30.515634], [-96.146713, 30.515797], [-96.147294, 30.515498], [-96.148898, 30.51762], [-96.149923, 30.518044], [-96.150154, 30.518337], [-96.150315, 30.519006], [-96.150126, 30.519237], [-96.149167, 30.519675], [-96.149014, 30.520191], [-96.149196, 30.520585], [-96.149558, 30.520816], [-96.150011, 30.520848], [-96.151493, 30.519904], [-96.152123, 30.520059], [-96.152643, 30.520855], [-96.152453, 30.521672], [-96.151637, 30.522295], [-96.151839, 30.52327], [-96.151592, 30.523742], [-96.151209, 30.523814], [-96.15066, 30.523506], [-96.150046, 30.523559], [-96.148947, 30.524008], [-96.149138, 30.524555], [-96.15007, 30.52481], [-96.150381, 30.525169], [-96.149546, 30.525771], [-96.149315, 30.52615], [-96.149279, 30.526454], [-96.149549, 30.527168], [-96.149352, 30.52739], [-96.148672, 30.527574], [-96.148262, 30.528146], [-96.148421, 30.528715], [-96.149091, 30.52924], [-96.151591, 30.530177], [-96.152001, 30.530945], [-96.151767, 30.531462], [-96.152468, 30.532082], [-96.15313, 30.532066], [-96.153587, 30.532227], [-96.154291, 30.53191], [-96.155032, 30.531256], [-96.155221, 30.530361], [-96.155479, 30.53014], [-96.156736, 30.530126], [-96.157004, 30.530285], [-96.157207, 30.530889], [-96.1571, 30.531304], [-96.156925, 30.531621], [-96.156077, 30.532116], [-96.155879, 30.532466], [-96.155845, 30.533205], [-96.156496, 30.534384], [-96.158149, 30.53515], [-96.158499, 30.535143], [-96.158354, 30.534665], [-96.158477, 30.534299], [-96.159713, 30.533559], [-96.16098, 30.533668], [-96.161231, 30.533919], [-96.161171, 30.535164], [-96.160504, 30.536448], [-96.160335, 30.537144], [-96.160314, 30.537676], [-96.160604, 30.538455], [-96.160297, 30.540332], [-96.160551, 30.541211], [-96.161089, 30.541379], [-96.161536, 30.541834], [-96.161568, 30.542748], [-96.16105, 30.543672], [-96.161756, 30.544669], [-96.161168, 30.545283], [-96.15495, 30.548127]]], [[[-96.144678, 30.503567], [-96.144688, 30.503893], [-96.144152, 30.504453], [-96.143432, 30.504137], [-96.144678, 30.503567]]]]}},
    {"type": "Feature", "properties": {"name": "Land value per acre", "Tax year": "2026", "id": "r742c229", "description": "Median appraised land value: $19,260 an acre", "Median land value per acre ($)": 19260, "Parcels counted": 75, "Change since tax year 2025": "+14.5% (+$2,440 an acre)"}, "geometry": {"type": "Polygon", "coordinates": [[[-96.081188, 30.50796], [-96.106872, 30.496226], [-96.131453, 30.509614], [-96.130356, 30.534742], [-96.104664, 30.546481], [-96.080078, 30.533087], [-96.081188, 30.50796]]]}},
    {"type": "Feature", "properties": {"name": "Land value per acre", "Tax year": "2026", "id": "r742c230", "description": "Median appraised land value: $23,280 an acre", "Median land value per acre ($)": 23280, "Parcels counted": 126, "Change since tax year 2025": "+7.7% (+$1,660 an acre)"}, "geometry": {"type": "Polygon", "coordinates": [[[-96.030924, 30.506286], [-96.056614, 30.494561], [-96.081188, 30.50796], [-96.080078, 30.533087], [-96.054381, 30.544816], [-96.029801, 30.531413], [-96.030924, 30.506286]]]}},
    {"type": "Feature", "properties": {"name": "Land value per acre", "Tax year": "2026", "id": "r742c231", "description": "Median appraised land value: $19,670 an acre", "Median land value per acre ($)": 19670, "Parcels counted": 110, "Change since tax year 2025": "+5.5% (+$1,030 an acre)"}, "geometry": {"type": "Polygon", "coordinates": [[[-95.980663, 30.504592], [-96.006358, 30.492878], [-96.030924, 30.506286], [-96.029801, 30.531413], [-96.004099, 30.543131], [-95.979527, 30.529718], [-95.980663, 30.504592]]]}},
    {"type": "Feature", "properties": {"name": "Land value per acre", "Tax year": "2026", "id": "r742c232", "description": "Median appraised land value: $26,240 an acre", "Median land value per acre ($)": 26240, "Parcels counted": 145, "Change since tax year 2025": "+14.7% (+$3,360 an acre)"}, "geometry": {"type": "Polygon", "coordinates": [[[-95.930403, 30.502878], [-95.956104, 30.491174], [-95.980663, 30.504592], [-95.979527, 30.529718], [-95.953818, 30.541427], [-95.929254, 30.528004], [-95.930403, 30.502878]]]}},
    {"type": "Feature", "properties": {"name": "Land value per acre", "Tax year": "2026", "id": "r742c233", "description": "Median appraised land value: $22,100 an acre", "Median land value per acre ($)": 22100, "Parcels counted": 98, "Change since tax year 2025": "+27.1% (+$4,710 an acre)"}, "geometry": {"type": "Polygon", "coordinates": [[[-95.880145, 30.501145], [-95.905852, 30.489451], [-95.930403, 30.502878], [-95.929254, 30.528004], [-95.90354, 30.539703], [-95.878983, 30.526271], [-95.880145, 30.501145]]]}},
    {"type": "Feature", "properties": {"name": "Land value per acre", "Tax year": "2026", "id": "r742c234", "description": "Median appraised land value: $24,470 an acre", "Median land value per acre ($)": 24470, "Parcels counted": 86, "Change since tax year 2025": "+19.1% (+$3,930 an acre)"}, "geometry": {"type": "Polygon", "coordinates": [[[-95.829889, 30.499392], [-95.855601, 30.487708], [-95.880145, 30.501145], [-95.878983, 30.526271], [-95.853263, 30.537959], [-95.828714, 30.524517], [-95.829889, 30.499392]]]}},
    {"type": "Feature", "properties": {"name": "Land value per acre", "Tax year": "2026", "id": "r742c235", "description": "Too few parcels to show (fewer than 5 of an acre or more)"}, "geometry": {"type": "Polygon", "coordinates": [[[-95.829889, 30.499392], [-95.828714, 30.524517], [-95.82042, 30.528283], [-95.818951, 30.512924], [-95.817982, 30.503076], [-95.817308, 30.498743], [-95.816784, 30.492211], [-95.829889, 30.499392]]]}},
    {"type": "Feature", "properties": {"name": "Land value per acre", "Tax year": "2026", "id": "r743c227", "description": "Too few parcels to show (fewer than 5 of an acre or more)"}, "geometry": {"type": "Polygon", "coordinates": [[[-96.178466, 30.586634], [-96.153859, 30.573255], [-96.15495, 30.548127], [-96.161168, 30.545283], [-96.160962, 30.545498], [-96.161529, 30.546152], [-96.161885, 30.547093], [-96.161847, 30.547341], [-96.161199, 30.547634], [-96.160843, 30.548027], [-96.160354, 30.550126], [-96.159797, 30.551318], [-96.159634, 30.552066], [-96.159826, 30.55344], [-96.160098, 30.553776], [-96.160291, 30.554432], [-96.16052, 30.556307], [-96.160368, 30.556688], [-96.159774, 30.557001], [-96.158764, 30.557989], [-96.158604, 30.55864], [-96.159939, 30.559377], [-96.160285, 30.559776], [-96.160831, 30.561527], [-96.161433, 30.562419], [-96.161357, 30.563193], [-96.161063, 30.563644], [-96.161586, 30.565443], [-96.161302, 30.56645], [-96.160072, 30.566826], [-96.159764, 30.567302], [-96.160127, 30.567774], [-96.160816, 30.568173], [-96.162223, 30.568374], [-96.162518, 30.568611], [-96.162572, 30.569091], [-96.161736, 30.569699], [-96.161752, 30.570233], [-96.16205, 30.570645], [-96.164107, 30.570991], [-96.164797, 30.570481], [-96.165311, 30.570467], [-96.166225, 30.570789], [-96.167843, 30.571698], [-96.167952, 30.572073], [-96.167763, 30.572338], [-96.16599, 30.572604], [-96.165498, 30.572952], [-96.165517, 30.573266], [-96.16624, 30.574098], [-96.166404, 30.574609], [-96.166608, 30.574729], [-96.167208, 30.574351], [-96.167432, 30.574446], [-96.167788, 30.574831], [-96.167806, 30.575554], [-96.168709, 30.575598], [-96.168975, 30.575765], [-96.169133, 30.576564], [-96.170238, 30.577474], [-96.171417, 30.577755], [-96.172125, 30.578231], [-96.171629, 30.579775], [-96.171687, 30.580055], [-96.172097, 30.5805], [-96.17257, 30.580607], [-96.17311, 30.580307], [-96.173823, 30.580493], [-96.17487, 30.58112], [-96.175422, 30.581259], [-96.175689, 30.58153], [-96.175749, 30.581826], [-96.175128, 30.58236], [-96.17509, 30.583137], [-96.175375, 30.583596], [-96.176232, 30.584095], [-96.177206, 30.585063], [-96.177771, 30.585282], [-96.178862, 30.585268], [-96.179598, 30.585665], [-96.180213, 30.585836], [-96.178466, 30.586634]]]}},
    {"type": "Feature", "properties": {"name": "Land value per acre", "Tax year": "2026", "id": "r743c228", "description": "Median appraised land value: $9,770 an acre", "Median land value per acre ($)": 9770, "Parcels counted": 8, "Change since tax year 2025": "+20.2% (+$1,640 an acre)"}, "geometry": {"type": "Polygon", "coordinates": [[[-96.104664, 30.546481], [-96.130356, 30.534742], [-96.15495, 30.548127], [-96.153859, 30.573255], [-96.12816, 30.584998], [-96.10356, 30.571609], [-96.104664, 30.546481]]]}},
    {"type": "Feature", "properties": {"name": "Land value per acre", "Tax year": "2026", "id": "r743c229", "description": "Median appraised land value: $24,510 an acre", "Median land value per acre ($)": 24510, "Parcels counted": 42, "Change since tax year 2025": "+3.6% (+$860 an acre)"}, "geometry": {"type": "Polygon", "coordinates": [[[-96.054381, 30.544816], [-96.080078, 30.533087], [-96.104664, 30.546481], [-96.10356, 30.571609], [-96.077856, 30.583342], [-96.053263, 30.569943], [-96.054381, 30.544816]]]}},
    {"type": "Feature", "properties": {"name": "Land value per acre", "Tax year": "2026", "id": "r743c230", "description": "Median appraised land value: $24,020 an acre", "Median land value per acre ($)": 24020, "Parcels counted": 153, "Change since tax year 2025": "+18.0% (+$3,670 an acre)"}, "geometry": {"type": "Polygon", "coordinates": [[[-96.004099, 30.543131], [-96.029801, 30.531413], [-96.054381, 30.544816], [-96.053263, 30.569943], [-96.027553, 30.581667], [-96.002968, 30.568258], [-96.004099, 30.543131]]]}},
    {"type": "Feature", "properties": {"name": "Land value per acre", "Tax year": "2026", "id": "r743c231", "description": "Median appraised land value: $24,080 an acre", "Median land value per acre ($)": 24080, "Parcels counted": 102, "Change since tax year 2025": "+16.7% (+$3,440 an acre)"}, "geometry": {"type": "Polygon", "coordinates": [[[-95.953818, 30.541427], [-95.979527, 30.529718], [-96.004099, 30.543131], [-96.002968, 30.568258], [-95.977252, 30.579971], [-95.952675, 30.566553], [-95.953818, 30.541427]]]}},
    {"type": "Feature", "properties": {"name": "Land value per acre", "Tax year": "2026", "id": "r743c232", "description": "Median appraised land value: $29,200 an acre", "Median land value per acre ($)": 29200, "Parcels counted": 177, "Change since tax year 2025": "+23.3% (+$5,510 an acre)"}, "geometry": {"type": "Polygon", "coordinates": [[[-95.90354, 30.539703], [-95.929254, 30.528004], [-95.953818, 30.541427], [-95.952675, 30.566553], [-95.926953, 30.578257], [-95.902383, 30.564829], [-95.90354, 30.539703]]]}},
    {"type": "Feature", "properties": {"name": "Land value per acre", "Tax year": "2026", "id": "r743c233", "description": "Median appraised land value: $20,870 an acre", "Median land value per acre ($)": 20870, "Parcels counted": 83, "Change since tax year 2025": "+18.6% (+$3,280 an acre)"}, "geometry": {"type": "Polygon", "coordinates": [[[-95.853263, 30.537959], [-95.878983, 30.526271], [-95.90354, 30.539703], [-95.902383, 30.564829], [-95.876656, 30.576522], [-95.852093, 30.563085], [-95.853263, 30.537959]]]}},
    {"type": "Feature", "properties": {"name": "Land value per acre", "Tax year": "2026", "id": "r743c234", "description": "Median appraised land value: $25,450 an acre", "Median land value per acre ($)": 25450, "Parcels counted": 102, "Change since tax year 2025": "+17.1% (+$3,710 an acre)"}, "geometry": {"type": "Polygon", "coordinates": [[[-95.828714, 30.524517], [-95.853263, 30.537959], [-95.852093, 30.563085], [-95.826361, 30.574768], [-95.824787, 30.573906], [-95.82042, 30.528283], [-95.828714, 30.524517]]]}},
    {"type": "Feature", "properties": {"name": "Land value per acre", "Tax year": "2026", "id": "r744c227", "description": "Too few parcels to show (fewer than 5 of an acre or more)"}, "geometry": {"type": "Polygon", "coordinates": [[[-96.17738, 30.611763], [-96.178466, 30.586634], [-96.180213, 30.585836], [-96.180661, 30.58596], [-96.181236, 30.586465], [-96.182038, 30.586228], [-96.182599, 30.586349], [-96.18365, 30.586983], [-96.18462, 30.587948], [-96.184792, 30.588328], [-96.183466, 30.589005], [-96.183723, 30.589823], [-96.183573, 30.590524], [-96.182512, 30.59259], [-96.18244, 30.593155], [-96.182631, 30.594098], [-96.182475, 30.595072], [-96.182693, 30.595327], [-96.184121, 30.596064], [-96.184658, 30.596696], [-96.185094, 30.597529], [-96.185014, 30.598554], [-96.185249, 30.598846], [-96.185468, 30.598938], [-96.187765, 30.598737], [-96.188037, 30.59889], [-96.188314, 30.599614], [-96.187359, 30.601379], [-96.187425, 30.60176], [-96.188178, 30.602162], [-96.188155, 30.602684], [-96.187482, 30.603242], [-96.186375, 30.603208], [-96.186111, 30.603393], [-96.186163, 30.604497], [-96.186749, 30.605698], [-96.186668, 30.606023], [-96.185079, 30.606622], [-96.183837, 30.606716], [-96.183407, 30.60659], [-96.182448, 30.606798], [-96.181832, 30.607469], [-96.181497, 30.608126], [-96.181675, 30.609224], [-96.1813, 30.609894], [-96.181232, 30.611281], [-96.181996, 30.611761], [-96.182011, 30.612241], [-96.182601, 30.612271], [-96.182717, 30.612521], [-96.181649, 30.613245], [-96.181473, 30.613843], [-96.181516, 30.61401], [-96.17738, 30.611763]]]}},
    {"type": "Feature", "properties": {"name": "Land value per acre", "Tax year": "2026", "id": "r744c228", "description": "Median appraised land value: $10,190 an acre", "Median land value per acre ($)": 10190, "Parcels counted": 123, "Change since tax year 2025": "+5.7% (+$550 an acre)"}, "geometry": {"type": "Polygon", "coordinates": [[[-96.12816, 30.584998], [-96.153859, 30.573255], [-96.178466, 30.586634], [-96.17738, 30.611763], [-96.151674, 30.623511], [-96.127061, 30.610126], [-96.12816, 30.584998]]]}},
    {"type": "Feature", "properties": {"name": "Land value per acre", "Tax year": "2026", "id": "r744c229", "description": "Median appraised land value: $43,060 an acre", "Median land value per acre ($)": 43060, "Parcels counted": 250, "Change since tax year 2025": "+12.2% (+$4,680 an acre)"}, "geometry": {"type": "Polygon", "coordinates": [[[-96.077856, 30.583342], [-96.10356, 30.571609], [-96.12816, 30.584998], [-96.127061, 30.610126], [-96.101349, 30.621864], [-96.076744, 30.60847], [-96.077856, 30.583342]]]}},
    {"type": "Feature", "properties": {"name": "Land value per acre", "Tax year": "2026", "id": "r744c230", "description": "Median appraised land value: $20,950 an acre", "Median land value per acre ($)": 20950, "Parcels counted": 86, "Change since tax year 2025": "+22.4% (+$3,840 an acre)"}, "geometry": {"type": "Polygon", "coordinates": [[[-96.027553, 30.581667], [-96.053263, 30.569943], [-96.077856, 30.583342], [-96.076744, 30.60847], [-96.051026, 30.620198], [-96.026428, 30.606794], [-96.027553, 30.581667]]]}},
    {"type": "Feature", "properties": {"name": "Land value per acre", "Tax year": "2026", "id": "r744c231", "description": "Median appraised land value: $20,760 an acre", "Median land value per acre ($)": 20760, "Parcels counted": 103, "Change since tax year 2025": "+20.8% (+$3,570 an acre)"}, "geometry": {"type": "Polygon", "coordinates": [[[-95.977252, 30.579971], [-96.002968, 30.568258], [-96.027553, 30.581667], [-96.026428, 30.606794], [-96.000705, 30.618512], [-95.976114, 30.605098], [-95.977252, 30.579971]]]}},
    {"type": "Feature", "properties": {"name": "Land value per acre", "Tax year": "2026", "id": "r744c232", "description": "Median appraised land value: $25,180 an acre", "Median land value per acre ($)": 25180, "Parcels counted": 151, "Change since tax year 2025": "+17.5% (+$3,750 an acre)"}, "geometry": {"type": "Polygon", "coordinates": [[[-95.926953, 30.578257], [-95.952675, 30.566553], [-95.977252, 30.579971], [-95.976114, 30.605098], [-95.950385, 30.616806], [-95.925802, 30.603383], [-95.926953, 30.578257]]]}},
    {"type": "Feature", "properties": {"name": "Land value per acre", "Tax year": "2026", "id": "r744c233", "description": "Median appraised land value: $25,210 an acre", "Median land value per acre ($)": 25210, "Parcels counted": 157, "Change since tax year 2025": "+18.2% (+$3,880 an acre)"}, "geometry": {"type": "Polygon", "coordinates": [[[-95.876656, 30.576522], [-95.902383, 30.564829], [-95.926953, 30.578257], [-95.925802, 30.603383], [-95.900068, 30.615081], [-95.875492, 30.601648], [-95.876656, 30.576522]]]}},
    {"type": "Feature", "properties": {"name": "Land value per acre", "Tax year": "2026", "id": "r744c234", "description": "Median appraised land value: $19,680 an acre", "Median land value per acre ($)": 19680, "Parcels counted": 159, "Change since tax year 2025": "+22.2% (+$3,580 an acre)"}, "geometry": {"type": "Polygon", "coordinates": [[[-95.826361, 30.574768], [-95.852093, 30.563085], [-95.876656, 30.576522], [-95.875492, 30.601648], [-95.849752, 30.613335], [-95.827392, 30.601102], [-95.825871, 30.585224], [-95.826361, 30.574768]]]}},
    {"type": "Feature", "properties": {"name": "Land value per acre", "Tax year": "2026", "id": "r744c235", "description": "Too few parcels to show (fewer than 5 of an acre or more)"}, "geometry": {"type": "Polygon", "coordinates": [[[-95.826361, 30.574768], [-95.825871, 30.585224], [-95.824787, 30.573906], [-95.826361, 30.574768]]]}},
    {"type": "Feature", "properties": {"name": "Land value per acre", "Tax year": "2026", "id": "r745c227", "description": "Median appraised land value: $93,230 an acre", "Median land value per acre ($)": 93230, "Parcels counted": 293, "Change since tax year 2025": "+0.0% (+$0 an acre)"}, "geometry": {"type": "Polygon", "coordinates": [[[-96.150581, 30.648639], [-96.151674, 30.623511], [-96.17738, 30.611763], [-96.181516, 30.61401], [-96.181634, 30.614464], [-96.181168, 30.615412], [-96.181309, 30.615748], [-96.182165, 30.61577], [-96.182542, 30.616938], [-96.182313, 30.617635], [-96.180587, 30.617996], [-96.179807, 30.617386], [-96.179095, 30.618161], [-96.179229, 30.618403], [-96.179966, 30.618321], [-96.180404, 30.618471], [-96.17977, 30.619076], [-96.180248, 30.61999], [-96.180368, 30.621536], [-96.17872, 30.622085], [-96.178059, 30.621942], [-96.177572, 30.622749], [-96.177519, 30.623205], [-96.177194, 30.623337], [-96.175055, 30.62298], [-96.174416, 30.622601], [-96.173597, 30.622704], [-96.174151, 30.623617], [-96.173916, 30.623936], [-96.174077, 30.6244], [-96.173663, 30.625158], [-96.174152, 30.625586], [-96.174283, 30.625916], [-96.173795, 30.626472], [-96.173886, 30.627622], [-96.173102, 30.627962], [-96.173333, 30.628569], [-96.173224, 30.628831], [-96.172377, 30.629312], [-96.172138, 30.629657], [-96.170938, 30.629672], [-96.170624, 30.629365], [-96.170358, 30.629886], [-96.169117, 30.630137], [-96.169338, 30.630493], [-96.170463, 30.630812], [-96.170607, 30.631063], [-96.170576, 30.631528], [-96.169922, 30.63229], [-96.169933, 30.632462], [-96.1702, 30.632807], [-96.170641, 30.632793], [-96.171164, 30.633199], [-96.171076, 30.633724], [-96.171664, 30.634163], [-96.171519, 30.634608], [-96.170717, 30.635635], [-96.170742, 30.635844], [-96.171025, 30.636088], [-96.172046, 30.635127], [-96.172786, 30.635253], [-96.172992, 30.635747], [-96.172552, 30.637246], [-96.172054, 30.638129], [-96.170722, 30.638347], [-96.169809, 30.638676], [-96.168404, 30.638697], [-96.169373, 30.639236], [-96.169638, 30.639734], [-96.168892, 30.640241], [-96.169111, 30.641539], [-96.168963, 30.641981], [-96.168126, 30.642553], [-96.167799, 30.643163], [-96.167053, 30.643833], [-96.166153, 30.643096], [-96.165816, 30.642975], [-96.165556, 30.643085], [-96.165784, 30.64403], [-96.166331, 30.644489], [-96.165758, 30.647063], [-96.166926, 30.647024], [-96.167365, 30.647218], [-96.16769, 30.647732], [-96.167151, 30.649144], [-96.167363, 30.649568], [-96.167781, 30.649986], [-96.169282, 30.649893], [-96.169508, 30.650318], [-96.16901, 30.651353], [-96.168106, 30.650997], [-96.167784, 30.651318], [-96.167245, 30.652281], [-96.167122, 30.653019], [-96.167265, 30.653537], [-96.167173, 30.65499], [-96.166891, 30.655024], [-96.166486, 30.654239], [-96.165944, 30.654375], [-96.165545, 30.65677], [-96.150581, 30.648639]]]}},
    {"type": "Feature", "properties": {"name": "Land value per acre", "Tax year": "2026", "id": "r745c228", "description": "Median appraised land value: $40,480 an acre", "Median land value per acre ($)": 40480, "Parcels counted": 452, "Change since tax year 2025": "+8.1% (+$3,030 an acre)"}, "geometry": {"type": "Polygon", "coordinates": [[[-96.101349, 30.621864], [-96.127061, 30.610126], [-96.151674, 30.623511], [-96.150581, 30.648639], [-96.124862, 30.660382], [-96.100243, 30.646992], [-96.101349, 30.621864]]]}},
    {"type": "Feature", "properties": {"name": "Land value per acre", "Tax year": "2026", "id": "r745c229", "description": "Median appraised land value: $8,690 an acre", "Median land value per acre ($)": 8690, "Parcels counted": 19, "Change since tax year 2025": "-11.8% (-$1,160 an acre)"}, "geometry": {"type": "Polygon", "coordinates": [[[-96.051026, 30.620198], [-96.076744, 30.60847], [-96.101349, 30.621864], [-96.100243, 30.646992], [-96.074518, 30.658724], [-96.049907, 30.645325], [-96.051026, 30.620198]]]}},
    {"type": "Feature", "properties": {"name": "Land value per acre", "Tax year": "2026", "id": "r745c230", "description": "Median appraised land value: $9,310 an acre", "Median land value per acre ($)": 9310, "Parcels counted": 29, "Change since tax year 2025": "+5.9% (+$520 an acre)"}, "geometry": {"type": "Polygon", "coordinates": [[[-96.000705, 30.618512], [-96.026428, 30.606794], [-96.051026, 30.620198], [-96.049907, 30.645325], [-96.024176, 30.657048], [-95.999573, 30.643638], [-96.000705, 30.618512]]]}},
    {"type": "Feature", "properties": {"name": "Land value per acre", "Tax year": "2026", "id": "r745c231", "description": "Median appraised land value: $13,070 an acre", "Median land value per acre ($)": 13070, "Parcels counted": 79, "Change since tax year 2025": "+8.4% (+$1,010 an acre)"}, "geometry": {"type": "Polygon", "coordinates": [[[-95.950385, 30.616806], [-95.976114, 30.605098], [-96.000705, 30.618512], [-95.999573, 30.643638], [-95.973836, 30.655351], [-95.94924, 30.641932], [-95.950385, 30.616806]]]}},
    {"type": "Feature", "properties": {"name": "Land value per acre", "Tax year": "2026", "id": "r745c232", "description": "Median appraised land value: $21,920 an acre", "Median land value per acre ($)": 21920, "Parcels counted": 112, "Change since tax year 2025": "+12.8% (+$2,480 an acre)"}, "geometry": {"type": "Polygon", "coordinates": [[[-95.900068, 30.615081], [-95.925802, 30.603383], [-95.950385, 30.616806], [-95.94924, 30.641932], [-95.923498, 30.653635], [-95.898909, 30.640206], [-95.900068, 30.615081]]]}},
    {"type": "Feature", "properties": {"name": "Land value per acre", "Tax year": "2026", "id": "r745c233", "description": "Median appraised land value: $24,070 an acre", "Median land value per acre ($)": 24070, "Parcels counted": 158, "Change since tax year 2025": "+22.3% (+$4,390 an acre)"}, "geometry": {"type": "Polygon", "coordinates": [[[-95.849752, 30.613335], [-95.875492, 30.601648], [-95.900068, 30.615081], [-95.898909, 30.640206], [-95.873161, 30.651899], [-95.84858, 30.638461], [-95.849752, 30.613335]]]}},
    {"type": "Feature", "properties": {"name": "Land value per acre", "Tax year": "2026", "id": "r745c234", "description": "Median appraised land value: $13,400 an acre", "Median land value per acre ($)": 13400, "Parcels counted": 34, "Change since tax year 2025": "+17.0% (+$1,950 an acre)"}, "geometry": {"type": "Polygon", "coordinates": [[[-95.849752, 30.613335], [-95.84858, 30.638461], [-95.832461, 30.645774], [-95.83007, 30.629045], [-95.827392, 30.601102], [-95.849752, 30.613335]]]}},
    {"type": "Feature", "properties": {"name": "Land value per acre", "Tax year": "2026", "id": "r746c228", "description": "Median appraised land value: $21,680 an acre", "Median land value per acre ($)": 21680, "Parcels counted": 153, "Change since tax year 2025": "+13.4% (+$2,570 an acre)"}, "geometry": {"type": "Polygon", "coordinates": [[[-96.148393, 30.698895], [-96.123762, 30.685509], [-96.124862, 30.660382], [-96.150581, 30.648639], [-96.165545, 30.65677], [-96.165406, 30.657601], [-96.164897, 30.658294], [-96.163978, 30.658997], [-96.164057, 30.659223], [-96.164689, 30.659477], [-96.164825, 30.659992], [-96.165459, 30.660689], [-96.165359, 30.660936], [-96.164458, 30.661182], [-96.164355, 30.661489], [-96.164391, 30.662275], [-96.164905, 30.662948], [-96.165376, 30.663164], [-96.165987, 30.663136], [-96.166632, 30.662727], [-96.167117, 30.662703], [-96.16846, 30.663147], [-96.169297, 30.663656], [-96.169116, 30.663974], [-96.167754, 30.664831], [-96.16749, 30.66527], [-96.167663, 30.665737], [-96.168537, 30.665944], [-96.168772, 30.666356], [-96.168772, 30.667882], [-96.168241, 30.668594], [-96.168083, 30.669144], [-96.168364, 30.66957], [-96.169062, 30.669912], [-96.168651, 30.670336], [-96.168439, 30.67112], [-96.168791, 30.67184], [-96.168741, 30.67226], [-96.169141, 30.672707], [-96.169467, 30.672691], [-96.170745, 30.672082], [-96.171364, 30.672122], [-96.170412, 30.673169], [-96.170142, 30.67368], [-96.170847, 30.674783], [-96.171486, 30.675341], [-96.171712, 30.67584], [-96.17201, 30.677123], [-96.171925, 30.678191], [-96.172736, 30.679843], [-96.172498, 30.680248], [-96.171867, 30.680407], [-96.170623, 30.680211], [-96.169999, 30.681358], [-96.170247, 30.68154], [-96.17092, 30.681437], [-96.171268, 30.68163], [-96.171485, 30.682109], [-96.171201, 30.684121], [-96.170491, 30.685337], [-96.170478, 30.686224], [-96.170822, 30.68719], [-96.169786, 30.688212], [-96.170935, 30.688419], [-96.170819, 30.688655], [-96.148393, 30.698895]]]}},
    {"type": "Feature", "properties": {"name": "Land value per acre", "Tax year": "2026", "id": "r746c229", "description": "Median appraised land value: $21,200 an acre", "Median land value per acre ($)": 21200, "Parcels counted": 379, "Change since tax year 2025": "+12.6% (+$2,370 an acre)"}, "geometry": {"type": "Polygon", "coordinates": [[[-96.074518, 30.658724], [-96.100243, 30.646992], [-96.124862, 30.660382], [-96.123762, 30.685509], [-96.098029, 30.697247], [-96.073405, 30.683852], [-96.074518, 30.658724]]]}},
    {"type": "Feature", "properties": {"name": "Land value per acre", "Tax year": "2026", "id": "r746c230", "description": "Median appraised land value: $12,030 an acre", "Median land value per acre ($)": 12030, "Parcels counted": 51, "Change since tax year 2025": "+49.1% (+$3,960 an acre)"}, "geometry": {"type": "Polygon", "coordinates": [[[-96.024176, 30.657048], [-96.049907, 30.645325], [-96.074518, 30.658724], [-96.073405, 30.683852], [-96.047667, 30.695579], [-96.02305, 30.682174], [-96.024176, 30.657048]]]}},
    {"type": "Feature", "properties": {"name": "Land value per acre", "Tax year": "2026", "id": "r746c231", "description": "Median appraised land value: $13,020 an acre", "Median land value per acre ($)": 13020, "Parcels counted": 103, "Change since tax year 2025": "+19.3% (+$2,110 an acre)"}, "geometry": {"type": "Polygon", "coordinates": [[[-95.973836, 30.655351], [-95.999573, 30.643638], [-96.024176, 30.657048], [-96.02305, 30.682174], [-95.997306, 30.693892], [-95.972696, 30.680477], [-95.973836, 30.655351]]]}},
    {"type": "Feature", "properties": {"name": "Land value per acre", "Tax year": "2026", "id": "r746c232", "description": "Median appraised land value: $17,380 an acre", "Median land value per acre ($)": 17380, "Parcels counted": 161, "Change since tax year 2025": "+9.7% (+$1,530 an acre)"}, "geometry": {"type": "Polygon", "coordinates": [[[-95.923498, 30.653635], [-95.94924, 30.641932], [-95.973836, 30.655351], [-95.972696, 30.680477], [-95.946947, 30.692185], [-95.922345, 30.678761], [-95.923498, 30.653635]]]}},
    {"type": "Feature", "properties": {"name": "Land value per acre", "Tax year": "2026", "id": "r746c233", "description": "Median appraised land value: $20,170 an acre", "Median land value per acre ($)": 20170, "Parcels counted": 163, "Change since tax year 2025": "+14.0% (+$2,480 an acre)"}, "geometry": {"type": "Polygon", "coordinates": [[[-95.873161, 30.651899], [-95.898909, 30.640206], [-95.923498, 30.653635], [-95.922345, 30.678761], [-95.89659, 30.690458], [-95.871995, 30.677024], [-95.873161, 30.651899]]]}},
    {"type": "Feature", "properties": {"name": "Land value per acre", "Tax year": "2026", "id": "r746c234", "description": "Median appraised land value: $14,690 an acre", "Median land value per acre ($)": 14690, "Parcels counted": 73, "Change since tax year 2025": "+12.8% (+$1,670 an acre)"}, "geometry": {"type": "Polygon", "coordinates": [[[-95.84858, 30.638461], [-95.873161, 30.651899], [-95.871995, 30.677024], [-95.846235, 30.688711], [-95.837953, 30.684185], [-95.832461, 30.645774], [-95.84858, 30.638461]]]}},
    {"type": "Feature", "properties": {"name": "Land value per acre", "Tax year": "2026", "id": "r747c227", "description": "Median appraised land value: $4,990 an acre", "Median land value per acre ($)": 4990, "Parcels counted": 18, "Change since tax year 2025": "+7.1% (+$330 an acre)"}, "geometry": {"type": "Polygon", "coordinates": [[[-96.147299, 30.724023], [-96.148393, 30.698895], [-96.170819, 30.688655], [-96.170383, 30.689544], [-96.171483, 30.690103], [-96.171954, 30.691453], [-96.173034, 30.691924], [-96.173065, 30.692104], [-96.172386, 30.692988], [-96.172156, 30.693618], [-96.172527, 30.693724], [-96.173287, 30.693464], [-96.173645, 30.69389], [-96.174102, 30.693978], [-96.174177, 30.694248], [-96.174702, 30.694758], [-96.175378, 30.696055], [-96.176603, 30.696497], [-96.176896, 30.696838], [-96.176824, 30.697256], [-96.176295, 30.697933], [-96.175373, 30.697767], [-96.175647, 30.698707], [-96.174963, 30.698922], [-96.174884, 30.699077], [-96.17565, 30.699564], [-96.175983, 30.700094], [-96.176629, 30.700362], [-96.176461, 30.701089], [-96.176589, 30.701953], [-96.176086, 30.702033], [-96.175496, 30.701591], [-96.175135, 30.701787], [-96.175113, 30.702033], [-96.175645, 30.70358], [-96.175887, 30.703604], [-96.176477, 30.703115], [-96.176968, 30.703081], [-96.177537, 30.703938], [-96.177141, 30.705141], [-96.177824, 30.706141], [-96.177558, 30.706271], [-96.176603, 30.705993], [-96.176352, 30.706167], [-96.176293, 30.706442], [-96.177176, 30.707175], [-96.177254, 30.708217], [-96.177946, 30.709513], [-96.177696, 30.70985], [-96.177223, 30.709971], [-96.176339, 30.709787], [-96.175227, 30.709191], [-96.174497, 30.709283], [-96.174142, 30.709528], [-96.174083, 30.710004], [-96.175094, 30.71084], [-96.175142, 30.711155], [-96.174625, 30.711844], [-96.173099, 30.711497], [-96.172971, 30.711644], [-96.173035, 30.712089], [-96.172061, 30.712256], [-96.171722, 30.714089], [-96.172079, 30.715165], [-96.171617, 30.715658], [-96.170802, 30.715991], [-96.170736, 30.716151], [-96.170674, 30.716631], [-96.171176, 30.716726], [-96.171415, 30.716969], [-96.171259, 30.717367], [-96.170296, 30.71801], [-96.169717, 30.717425], [-96.169016, 30.717132], [-96.16875, 30.717173], [-96.168737, 30.717576], [-96.169186, 30.718483], [-96.168804, 30.719246], [-96.168092, 30.719669], [-96.168138, 30.720415], [-96.167789, 30.720761], [-96.165498, 30.721309], [-96.164549, 30.721978], [-96.164491, 30.723149], [-96.164696, 30.72383], [-96.164236, 30.724373], [-96.163327, 30.724739], [-96.16305, 30.725592], [-96.162499, 30.726309], [-96.162064, 30.727836], [-96.16221, 30.728857], [-96.161953, 30.729863], [-96.162573, 30.730825], [-96.162499, 30.731677], [-96.162329, 30.732033], [-96.162138, 30.73208], [-96.147299, 30.724023]]]}},
    {"type": "Feature", "properties": {"name": "Land value per acre", "Tax year": "2026", "id": "r747c228", "description": "Median appraised land value: $19,930 an acre", "Median land value per acre ($)": 19930, "Parcels counted": 125, "Change since tax year 2025": "+11.6% (+$2,070 an acre)"}, "geometry": {"type": "Polygon", "coordinates": [[[-96.098029, 30.697247], [-96.123762, 30.685509], [-96.148393, 30.698895], [-96.147299, 30.724023], [-96.121559, 30.735765], [-96.096921, 30.722374], [-96.098029, 30.697247]]]}},
    {"type": "Feature", "properties": {"name": "Land value per acre", "Tax year": "2026", "id": "r747c229", "description": "Median appraised land value: $16,560 an acre", "Median land value per acre ($)": 16560, "Parcels counted": 112, "Change since tax year 2025": "+9.3% (+$1,410 an acre)"}, "geometry": {"type": "Polygon", "coordinates": [[[-96.047667, 30.695579], [-96.073405, 30.683852], [-96.098029, 30.697247], [-96.096921, 30.722374], [-96.071176, 30.734106], [-96.046546, 30.720706], [-96.047667, 30.695579]]]}},
    {"type": "Feature", "properties": {"name": "Land value per acre", "Tax year": "2026", "id": "r747c230", "description": "Median appraised land value: $16,800 an acre", "Median land value per acre ($)": 16800, "Parcels counted": 109, "Change since tax year 2025": "+8.2% (+$1,280 an acre)"}, "geometry": {"type": "Polygon", "coordinates": [[[-95.997306, 30.693892], [-96.02305, 30.682174], [-96.047667, 30.695579], [-96.046546, 30.720706], [-96.020795, 30.732428], [-95.996172, 30.719018], [-95.997306, 30.693892]]]}},
    {"type": "Feature", "properties": {"name": "Land value per acre", "Tax year": "2026", "id": "r747c231", "description": "Median appraised land value: $11,190 an acre", "Median land value per acre ($)": 11190, "Parcels counted": 69, "Change since tax year 2025": "+9.1% (+$930 an acre)"}, "geometry": {"type": "Polygon", "coordinates": [[[-95.946947, 30.692185], [-95.972696, 30.680477], [-95.997306, 30.693892], [-95.996172, 30.719018], [-95.970415, 30.73073], [-95.9458, 30.717311], [-95.946947, 30.692185]]]}},
    {"type": "Feature", "properties": {"name": "Land value per acre", "Tax year": "2026", "id": "r747c232", "description": "Median appraised land value: $10,140 an acre", "Median land value per acre ($)": 10140, "Parcels counted": 41, "Change since tax year 2025": "+7.9% (+$740 an acre)"}, "geometry": {"type": "Polygon", "coordinates": [[[-95.89659, 30.690458], [-95.922345, 30.678761], [-95.946947, 30.692185], [-95.9458, 30.717311], [-95.920037, 30.729013], [-95.895429, 30.715584], [-95.89659, 30.690458]]]}},
    {"type": "Feature", "properties": {"name": "Land value per acre", "Tax year": "2026", "id": "r747c233", "description": "Median appraised land value: $10,140 an acre", "Median land value per acre ($)": 10140, "Parcels counted": 69, "Change since tax year 2025": "+8.0% (+$750 an acre)"}, "geometry": {"type": "Polygon", "coordinates": [[[-95.846235, 30.688711], [-95.871995, 30.677024], [-95.89659, 30.690458], [-95.895429, 30.715584], [-95.869661, 30.727275], [-95.845061, 30.713837], [-95.846235, 30.688711]]]}},
    {"type": "Feature", "properties": {"name": "Land value per acre", "Tax year": "2026", "id": "r747c234", "description": "Median appraised land value: $18,160 an acre", "Median land value per acre ($)": 18160, "Parcels counted": 18, "Change since tax year 2025": "+8.3% (+$1,390 an acre)"}, "geometry": {"type": "Polygon", "coordinates": [[[-95.846235, 30.688711], [-95.845061, 30.713837], [-95.842371, 30.715056], [-95.837953, 30.684185], [-95.846235, 30.688711]]]}},
    {"type": "Feature", "properties": {"name": "Land value per acre", "Tax year": "2026", "id": "r748c228", "description": "Median appraised land value: $5,390 an acre", "Median land value per acre ($)": 5390, "Parcels counted": 14, "Change since tax year 2025": "+8.0% (+$400 an acre)"}, "geometry": {"type": "Polygon", "coordinates": [[[-96.145108, 30.774278], [-96.120457, 30.760892], [-96.121559, 30.735765], [-96.147299, 30.724023], [-96.162138, 30.73208], [-96.161698, 30.732189], [-96.161427, 30.732564], [-96.162172, 30.734291], [-96.161881, 30.734559], [-96.160384, 30.734955], [-96.160224, 30.735165], [-96.161233, 30.735259], [-96.162072, 30.73583], [-96.162203, 30.736407], [-96.161568, 30.736944], [-96.16149, 30.737216], [-96.162628, 30.737496], [-96.162083, 30.738711], [-96.162587, 30.739797], [-96.165044, 30.740715], [-96.165451, 30.741199], [-96.165443, 30.742017], [-96.165659, 30.742476], [-96.166632, 30.742926], [-96.166775, 30.743135], [-96.166572, 30.743431], [-96.16506, 30.744422], [-96.166498, 30.745295], [-96.167675, 30.746434], [-96.168502, 30.746832], [-96.170145, 30.748855], [-96.17057, 30.750646], [-96.170381, 30.751038], [-96.170472, 30.752868], [-96.169904, 30.75308], [-96.168717, 30.753086], [-96.168088, 30.754347], [-96.16886, 30.754752], [-96.169659, 30.754908], [-96.169843, 30.755141], [-96.169752, 30.755551], [-96.16848, 30.756402], [-96.168167, 30.757012], [-96.168264, 30.757166], [-96.16851, 30.757168], [-96.169022, 30.756755], [-96.169578, 30.756663], [-96.169747, 30.756996], [-96.169455, 30.757993], [-96.16851, 30.758541], [-96.167442, 30.758488], [-96.16656, 30.758653], [-96.166209, 30.759244], [-96.166553, 30.760009], [-96.16652, 30.760319], [-96.165864, 30.76038], [-96.16534, 30.75985], [-96.164965, 30.759911], [-96.164306, 30.760631], [-96.164589, 30.761745], [-96.16444, 30.762219], [-96.164248, 30.762403], [-96.163366, 30.762589], [-96.162839, 30.763039], [-96.162753, 30.763558], [-96.16314, 30.764136], [-96.164007, 30.764525], [-96.164589, 30.764207], [-96.16489, 30.764667], [-96.164146, 30.765593], [-96.145108, 30.774278]]]}},
    {"type": "Feature", "properties": {"name": "Land value per acre", "Tax year": "2026", "id": "r748c229", "description": "Median appraised land value: $18,420 an acre", "Median land value per acre ($)": 18420, "Parcels counted": 118, "Change since tax year 2025": "+9.0% (+$1,520 an acre)"}, "geometry": {"type": "Polygon", "coordinates": [[[-96.071176, 30.734106], [-96.096921, 30.722374], [-96.121559, 30.735765], [-96.120457, 30.760892], [-96.094704, 30.772629], [-96.070061, 30.759233], [-96.071176, 30.734106]]]}},
    {"type": "Feature", "properties": {"name": "Land value per acre", "Tax year": "2026", "id": "r748c230", "description": "Median appraised land value: $24,740 an acre", "Median land value per acre ($)": 24740, "Parcels counted": 219, "Change since tax year 2025": "+18.5% (+$3,860 an acre)"}, "geometry": {"type": "Polygon", "coordinates": [[[-96.020795, 30.732428], [-96.046546, 30.720706], [-96.071176, 30.734106], [-96.070061, 30.759233], [-96.044302, 30.77096], [-96.019666, 30.757555], [-96.020795, 30.732428]]]}},
    {"type": "Feature", "properties": {"name": "Land value per acre", "Tax year": "2026", "id": "r748c231", "description": "Median appraised land value: $12,160 an acre", "Median land value per acre ($)": 12160, "Parcels counted": 27, "Change since tax year 2025": "+11.6% (+$1,260 an acre)"}, "geometry": {"type": "Polygon", "coordinates": [[[-95.970415, 30.73073], [-95.996172, 30.719018], [-96.020795, 30.732428], [-96.019666, 30.757555], [-95.993902, 30.769271], [-95.969273, 30.755857], [-95.970415, 30.73073]]]}},
    {"type": "Feature", "properties": {"name": "Land value per acre", "Tax year": "2026", "id": "r748c232", "description": "Median appraised land value: $22,970 an acre", "Median land value per acre ($)": 22970, "Parcels counted": 210, "Change since tax year 2025": "+36.2% (+$6,110 an acre)"}, "geometry": {"type": "Polygon", "coordinates": [[[-95.920037, 30.729013], [-95.9458, 30.717311], [-95.970415, 30.73073], [-95.969273, 30.755857], [-95.943503, 30.767563], [-95.918882, 30.754138], [-95.920037, 30.729013]]]}},
    {"type": "Feature", "properties": {"name": "Land value per acre", "Tax year": "2026", "id": "r748c233", "description": "Median appraised land value: $12,860 an acre", "Median land value per acre ($)": 12860, "Parcels counted": 67, "Change since tax year 2025": "+11.7% (+$1,350 an acre)"}, "geometry": {"type": "Polygon", "coordinates": [[[-95.869661, 30.727275], [-95.895429, 30.715584], [-95.920037, 30.729013], [-95.918882, 30.754138], [-95.893107, 30.765835], [-95.868493, 30.752401], [-95.869661, 30.727275]]]}},
    {"type": "Feature", "properties": {"name": "Land value per acre", "Tax year": "2026", "id": "r748c234", "description": "Median appraised land value: $10,780 an acre", "Median land value per acre ($)": 10780, "Parcels counted": 47, "Change since tax year 2025": "+11.4% (+$1,100 an acre)"}, "geometry": {"type": "Polygon", "coordinates": [[[-95.845061, 30.713837], [-95.869661, 30.727275], [-95.868493, 30.752401], [-95.848749, 30.761351], [-95.847197, 30.750193], [-95.845972, 30.740206], [-95.842371, 30.715056], [-95.845061, 30.713837]]]}},
    {"type": "Feature", "properties": {"name": "Land value per acre", "Tax year": "2026", "id": "r749c227", "description": "Median appraised land value: $4,480 an acre", "Median land value per acre ($)": 4480, "Parcels counted": 6, "Change since tax year 2025": "+8.0% (+$330 an acre)"}, "geometry": {"type": "Polygon", "coordinates": [[[-96.168675, 30.812787], [-96.144011, 30.799406], [-96.145108, 30.774278], [-96.164146, 30.765593], [-96.163603, 30.766269], [-96.163753, 30.767047], [-96.163693, 30.767831], [-96.163018, 30.768381], [-96.163591, 30.768733], [-96.163794, 30.769228], [-96.163469, 30.769541], [-96.162644, 30.769509], [-96.164521, 30.772245], [-96.164608, 30.772701], [-96.164338, 30.773351], [-96.165103, 30.77431], [-96.166102, 30.774571], [-96.166452, 30.774474], [-96.166659, 30.774171], [-96.166352, 30.773338], [-96.165553, 30.77306], [-96.165249, 30.772779], [-96.165347, 30.772372], [-96.165787, 30.772115], [-96.167185, 30.772509], [-96.167312, 30.772724], [-96.167236, 30.773405], [-96.168153, 30.773659], [-96.168244, 30.774601], [-96.168062, 30.775027], [-96.167445, 30.775425], [-96.166806, 30.775188], [-96.166362, 30.775221], [-96.165957, 30.776097], [-96.166013, 30.776303], [-96.166191, 30.776498], [-96.166984, 30.776675], [-96.167371, 30.77694], [-96.168206, 30.7779], [-96.16827, 30.778391], [-96.168758, 30.778765], [-96.168733, 30.779316], [-96.169249, 30.780202], [-96.169801, 30.780287], [-96.170542, 30.779507], [-96.170947, 30.780086], [-96.171487, 30.78171], [-96.171481, 30.78221], [-96.171036, 30.783158], [-96.171855, 30.783397], [-96.172186, 30.784062], [-96.17174, 30.784984], [-96.171931, 30.785215], [-96.172366, 30.785329], [-96.172834, 30.78486], [-96.172851, 30.784174], [-96.173224, 30.784126], [-96.173826, 30.7845], [-96.174378, 30.784582], [-96.174742, 30.785089], [-96.175656, 30.785359], [-96.175387, 30.785915], [-96.175461, 30.786185], [-96.176566, 30.786299], [-96.177008, 30.786491], [-96.177656, 30.787438], [-96.17938, 30.789198], [-96.179503, 30.790311], [-96.179951, 30.790632], [-96.180178, 30.791785], [-96.181817, 30.79227], [-96.182924, 30.792255], [-96.182986, 30.792567], [-96.181933, 30.792888], [-96.181698, 30.793398], [-96.181992, 30.793837], [-96.183032, 30.793933], [-96.183414, 30.794351], [-96.183641, 30.795136], [-96.183525, 30.795751], [-96.18289, 30.796122], [-96.18333, 30.797133], [-96.18322, 30.797739], [-96.18297, 30.797766], [-96.182696, 30.797451], [-96.182126, 30.797642], [-96.181908, 30.797538], [-96.180995, 30.798096], [-96.18009, 30.797626], [-96.179471, 30.797756], [-96.179907, 30.798399], [-96.179311, 30.79882], [-96.17934, 30.799882], [-96.179124, 30.800091], [-96.178485, 30.800224], [-96.17815, 30.801092], [-96.177805, 30.801127], [-96.177607, 30.800984], [-96.177174, 30.799368], [-96.176977, 30.799204], [-96.176264, 30.799269], [-96.176156, 30.799478], [-96.17648, 30.800336], [-96.176308, 30.801242], [-96.17606, 30.801281], [-96.175627, 30.800858], [-96.173915, 30.801083], [-96.173768, 30.801407], [-96.173991, 30.801654], [-96.173692, 30.801935], [-96.173545, 30.802665], [-96.172851, 30.802627], [-96.172463, 30.803028], [-96.172373, 30.803753], [-96.172488, 30.803962], [-96.172793, 30.804023], [-96.173023, 30.803798], [-96.173303, 30.803792], [-96.173698, 30.803979], [-96.173659, 30.805084], [-96.173175, 30.805892], [-96.171564, 30.805946], [-96.17122, 30.806139], [-96.170908, 30.806743], [-96.171297, 30.806952], [-96.172564, 30.807139], [-96.172831, 30.807342], [-96.172875, 30.807524], [-96.172538, 30.8082], [-96.17234, 30.808287], [-96.172398, 30.808584], [-96.173423, 30.808694], [-96.175199, 30.809525], [-96.175575, 30.809541], [-96.175572, 30.809641], [-96.168675, 30.812787]]]}},
    {"type": "Feature", "properties": {"name": "Land value per acre", "Tax year": "2026", "id": "r749c228", "description": "Median appraised land value: $11,260 an acre", "Median land value per acre ($)": 11260, "Parcels counted": 66, "Change since tax year 2025": "+3.9% (+$420 an acre)"}, "geometry": {"type": "Polygon", "coordinates": [[[-96.094704, 30.772629], [-96.120457, 30.760892], [-96.145108, 30.774278], [-96.144011, 30.799406], [-96.118251, 30.811147], [-96.093594, 30.797756], [-96.094704, 30.772629]]]}},
    {"type": "Feature", "properties": {"name": "Land value per acre", "Tax year": "2026", "id": "r749c229", "description": "Median appraised land value: $19,640 an acre", "Median land value per acre ($)": 19640, "Parcels counted": 188, "Change since tax year 2025": "+9.3% (+$1,670 an acre)"}, "geometry": {"type": "Polygon", "coordinates": [[[-96.044302, 30.77096], [-96.070061, 30.759233], [-96.094704, 30.772629], [-96.093594, 30.797756], [-96.067828, 30.809488], [-96.043179, 30.796087], [-96.044302, 30.77096]]]}},
    {"type": "Feature", "properties": {"name": "Land value per acre", "Tax year": "2026", "id": "r749c230", "description": "Median appraised land value: $10,690 an acre", "Median land value per acre ($)": 10690, "Parcels counted": 68, "Change since tax year 2025": "+14.0% (+$1,310 an acre)"}, "geometry": {"type": "Polygon", "coordinates": [[[-95.993902, 30.769271], [-96.019666, 30.757555], [-96.044302, 30.77096], [-96.043179, 30.796087], [-96.017407, 30.807808], [-95.992766, 30.794398], [-95.993902, 30.769271]]]}},
    {"type": "Feature", "properties": {"name": "Land value per acre", "Tax year": "2026", "id": "r749c231", "description": "Median appraised land value: $24,460 an acre", "Median land value per acre ($)": 24460, "Parcels counted": 216, "Change since tax year 2025": "+26.5% (+$5,130 an acre)"}, "geometry": {"type": "Polygon", "coordinates": [[[-95.943503, 30.767563], [-95.969273, 30.755857], [-95.993902, 30.769271], [-95.992766, 30.794398], [-95.966988, 30.806109], [-95.942354, 30.792689], [-95.943503, 30.767563]]]}},
    {"type": "Feature", "properties": {"name": "Land value per acre", "Tax year": "2026", "id": "r749c232", "description": "Median appraised land value: $22,050 an acre", "Median land value per acre ($)": 22050, "Parcels counted": 280, "Change since tax year 2025": "+21.7% (+$3,930 an acre)"}, "geometry": {"type": "Polygon", "coordinates": [[[-95.893107, 30.765835], [-95.918882, 30.754138], [-95.943503, 30.767563], [-95.942354, 30.792689], [-95.916571, 30.80439], [-95.891944, 30.79096], [-95.893107, 30.765835]]]}},
    {"type": "Feature", "properties": {"name": "Land value per acre", "Tax year": "2026", "id": "r749c233", "description": "Median appraised land value: $6,650 an acre", "Median land value per acre ($)": 6650, "Parcels counted": 23, "Change since tax year 2025": "+11.8% (+$700 an acre)"}, "geometry": {"type": "Polygon", "coordinates": [[[-95.868493, 30.752401], [-95.893107, 30.765835], [-95.891944, 30.79096], [-95.866155, 30.802651], [-95.853537, 30.795764], [-95.848749, 30.761351], [-95.868493, 30.752401]]]}},
    {"type": "Feature", "properties": {"name": "Land value per acre", "Tax year": "2026", "id": "r750c227", "description": "Too few parcels to show (fewer than 5 of an acre or more)"}, "geometry": {"type": "Polygon", "coordinates": [[[-96.168675, 30.812787], [-96.175572, 30.809641], [-96.175536, 30.810925], [-96.175489, 30.8111], [-96.174713, 30.811577], [-96.174082, 30.811226], [-96.173929, 30.811315], [-96.173882, 30.811594], [-96.174299, 30.812366], [-96.174286, 30.812895], [-96.17315, 30.813527], [-96.172737, 30.814211], [-96.172747, 30.815436], [-96.173056, 30.815488], [-96.173912, 30.815172], [-96.174184, 30.815472], [-96.174055, 30.81592], [-96.172955, 30.817404], [-96.17114, 30.818537], [-96.17017, 30.819359], [-96.169454, 30.82081], [-96.168629, 30.822037], [-96.16837, 30.822997], [-96.168231, 30.823009], [-96.168675, 30.812787]]]}},
    {"type": "Feature", "properties": {"name": "Land value per acre", "Tax year": "2026", "id": "r750c228", "description": "Median appraised land value: $12,180 an acre", "Median land value per acre ($)": 12180, "Parcels counted": 51, "Change since tax year 2025": "+17.1% (+$1,780 an acre)"}, "geometry": {"type": "Polygon", "coordinates": [[[-96.118251, 30.811147], [-96.144011, 30.799406], [-96.168675, 30.812787], [-96.168231, 30.823009], [-96.125235, 30.826603], [-96.125235, 30.827393], [-96.118499, 30.827677], [-96.117518, 30.827818], [-96.118251, 30.811147]]]}},
    {"type": "Feature", "properties": {"name": "Land value per acre", "Tax year": "2026", "id": "r750c229", "description": "Median appraised land value: $14,580 an acre", "Median land value per acre ($)": 14580, "Parcels counted": 86, "Change since tax year 2025": "+7.4% (+$1,000 an acre)"}, "geometry": {"type": "Polygon", "coordinates": [[[-96.066711, 30.834615], [-96.067828, 30.809488], [-96.093594, 30.797756], [-96.118251, 30.811147], [-96.117518, 30.827818], [-96.067399, 30.834988], [-96.066711, 30.834615]]]}},
    {"type": "Feature", "properties": {"name": "Land value per acre", "Tax year": "2026", "id": "r750c230", "description": "Median appraised land value: $9,270 an acre", "Median land value per acre ($)": 9270, "Parcels counted": 53, "Change since tax year 2025": "+7.9% (+$680 an acre)"}, "geometry": {"type": "Polygon", "coordinates": [[[-96.016277, 30.832935], [-96.017407, 30.807808], [-96.043179, 30.796087], [-96.067828, 30.809488], [-96.066711, 30.834615], [-96.065199, 30.835302], [-96.029895, 30.84034], [-96.016277, 30.832935]]]}},
    {"type": "Feature", "properties": {"name": "Land value per acre", "Tax year": "2026", "id": "r750c231", "description": "Median appraised land value: $8,070 an acre", "Median land value per acre ($)": 8070, "Parcels counted": 42, "Change since tax year 2025": "+15.5% (+$1,080 an acre)"}, "geometry": {"type": "Polygon", "coordinates": [[[-95.966988, 30.806109], [-95.992766, 30.794398], [-96.017407, 30.807808], [-96.016277, 30.832935], [-95.990492, 30.84465], [-95.965845, 30.831235], [-95.966988, 30.806109]]]}},
    {"type": "Feature", "properties": {"name": "Land value per acre", "Tax year": "2026", "id": "r750c232", "description": "Median appraised land value: $15,240 an acre", "Median land value per acre ($)": 15240, "Parcels counted": 108, "Change since tax year 2025": "+13.6% (+$1,820 an acre)"}, "geometry": {"type": "Polygon", "coordinates": [[[-95.916571, 30.80439], [-95.942354, 30.792689], [-95.966988, 30.806109], [-95.965845, 30.831235], [-95.940054, 30.842941], [-95.915414, 30.829516], [-95.916571, 30.80439]]]}},
    {"type": "Feature", "properties": {"name": "Land value per acre", "Tax year": "2026", "id": "r750c233", "description": "Median appraised land value: $19,790 an acre", "Median land value per acre ($)": 19790, "Parcels counted": 188, "Change since tax year 2025": "+18.4% (+$3,080 an acre)"}, "geometry": {"type": "Polygon", "coordinates": [[[-95.866155, 30.802651], [-95.891944, 30.79096], [-95.916571, 30.80439], [-95.915414, 30.829516], [-95.889618, 30.841211], [-95.864986, 30.827777], [-95.866155, 30.802651]]]}},
    {"type": "Feature", "properties": {"name": "Land value per acre", "Tax year": "2026", "id": "r750c234", "description": "Median appraised land value: $8,520 an acre", "Median land value per acre ($)": 8520, "Parcels counted": 11, "Change since tax year 2025": "+15.3% (+$1,130 an acre)"}, "geometry": {"type": "Polygon", "coordinates": [[[-95.866155, 30.802651], [-95.864986, 30.827777], [-95.858409, 30.830756], [-95.853537, 30.795764], [-95.866155, 30.802651]]]}},
    {"type": "Feature", "properties": {"name": "Land value per acre", "Tax year": "2026", "id": "r751c229", "description": "Too few parcels to show (fewer than 5 of an acre or more)"}, "geometry": {"type": "Polygon", "coordinates": [[[-96.066711, 30.834615], [-96.067399, 30.834988], [-96.065199, 30.835302], [-96.066711, 30.834615]]]}},
    {"type": "Feature", "properties": {"name": "Land value per acre", "Tax year": "2026", "id": "r751c230", "description": "Too few parcels to show (fewer than 5 of an acre or more)"}, "geometry": {"type": "Polygon", "coordinates": [[[-95.990492, 30.84465], [-96.016277, 30.832935], [-96.029895, 30.84034], [-96.00443, 30.843968], [-95.995767, 30.845059], [-95.990439, 30.845819], [-95.990492, 30.84465]]]}},
    {"type": "Feature", "properties": {"name": "Land value per acre", "Tax year": "2026", "id": "r751c231", "description": "Median appraised land value: $18,010 an acre", "Median land value per acre ($)": 18010, "Parcels counted": 80, "Change since tax year 2025": "+31.0% (+$4,260 an acre)"}, "geometry": {"type": "Polygon", "coordinates": [[[-95.940054, 30.842941], [-95.965845, 30.831235], [-95.990492, 30.84465], [-95.990439, 30.845819], [-95.939591, 30.85306], [-95.940054, 30.842941]]]}},
    {"type": "Feature", "properties": {"name": "Land value per acre", "Tax year": "2026", "id": "r751c232", "description": "Median appraised land value: $6,960 an acre", "Median land value per acre ($)": 6960, "Parcels counted": 14, "Change since tax year 2025": "+8.4% (+$540 an acre)"}, "geometry": {"type": "Polygon", "coordinates": [[[-95.889618, 30.841211], [-95.915414, 30.829516], [-95.940054, 30.842941], [-95.939591, 30.85306], [-95.915146, 30.856533], [-95.88872, 30.860599], [-95.889618, 30.841211]]]}},
    {"type": "Feature", "properties": {"name": "Land value per acre", "Tax year": "2026", "id": "r751c233", "description": "Median appraised land value: $19,840 an acre", "Median land value per acre ($)": 19840, "Parcels counted": 176, "Change since tax year 2025": "+28.3% (+$4,380 an acre)"}, "geometry": {"type": "Polygon", "coordinates": [[[-95.864986, 30.827777], [-95.889618, 30.841211], [-95.88872, 30.860599], [-95.875228, 30.862672], [-95.873019, 30.862635], [-95.863059, 30.864125], [-95.858409, 30.830756], [-95.864986, 30.827777]]]}}
  ]
}
