{
  "type": "FeatureCollection",
  "note": "Not filed yet: an air permit for the on-site power plants (none found as of October 8, 2026); a wastewater discharge permit (none found as of October 8, 2026); a water right transfer or amendment (none found as of October 8, 2026); a groundwater permit (none found as of October 8, 2026); a federal (Army Corps) permit (none found as of October 8, 2026).",
  "features": [
    {"type": "Feature", "properties": {"name": "Construction stormwater permit TXR1535YT", "description": "State permit covering stormwater runoff from construction at the Gibbons Creek Project Site.", "Status": "Active permit", "Held by": "Space Exploration Technologies Corp., as operator", "Active since": "July 5, 2026", "Location": "Approximate. The record gives no coordinates: it describes the site as south of Gibbons Creek Reservoir, north of State Highway 30 and east of FM 171. The marker is on project-held land that fits that description.", "Source": "TCEQ Central Registry", "As of": "October 8, 2026", "url": "https://www15.tceq.texas.gov/crpub/index.cfm?fuseaction=regent.validateRE&re_ref_num_txt=RN112483532", "link": "See the TCEQ record", "id": "tceq-TXR1535YT"}, "geometry": {"type": "Point", "coordinates": [-96.0451, 30.6089]}},
    {"type": "Feature", "properties": {"name": "Concrete batch plant air permit, registration 184781", "description": "Not filed by SpaceX; a sign of heavy construction nearby.", "Status": "Pending application", "Filed by": "Knife River Corporation - South", "Received by the state": "July 23, 2026", "Location": "Approximate. Placed from the record's directions: 1.7 miles east of FM 244 on State Highway 30, on the south side.", "Source": "TCEQ air permit search and Central Registry", "As of": "October 8, 2026", "url": "https://www15.tceq.texas.gov/crpub/index.cfm?fuseaction=regent.validateRE&re_ref_num_txt=RN112495213", "link": "See the TCEQ record", "id": "tceq-air-184781"}, "geometry": {"type": "Point", "coordinates": [-96.0498, 30.5945]}},
    {"type": "Feature", "properties": {"name": "River pump station tracts", "description": "Two tracts on the Navasota River, 3.83 and 1.25 acres, listed under WIT TECH LLC.", "Status": "Land purchase, not a permit", "Listed under": "WIT TECH LLC", "Deed date": "May 27, 2026", "Improvements on the appraisal record": "None", "Water rights": "State records still list the river and reservoir water rights under the reservoir's prior owner as of October 6, 2026.", "Source": "Grimes Central Appraisal District; TCEQ water rights records", "As of": "October 8, 2026", "url": "https://gis.bisclient.com/grimescad/", "link": "Look it up at the appraisal district", "id": "cad-pump-tracts"}, "geometry": {"type": "Point", "coordinates": [-96.15967, 30.65237]}},
    {"type": "Feature", "properties": {"name": "Eagle Claw Energy Center", "description": "A battery storage project by another company. Its own parcel is inside the reinvestment zone.", "Status": "Energy project in the grid queue", "ERCOT queue number": "27INR0085", "Size": "204.58 megawatts", "Grid agreement signed": "September 15, 2025", "Projected start": "March 31, 2028", "Location": "The company's 15-acre parcel on County Road 176, from appraisal records.", "Source": "ERCOT GIS Report published October 1, 2026; Grimes Central Appraisal District", "As of": "October 8, 2026", "url": "https://www.ercot.com/mp/data-products/data-product-details?id=PG7-200-ER", "link": "ERCOT's monthly reports", "id": "ercot-27INR0085"}, "geometry": {"type": "Point", "coordinates": [-95.96906, 30.64589]}},
    {"type": "Feature", "properties": {"name": "Diamante battery project", "description": "A battery storage project by another company. Approximate: grid connection point, not the project site.", "Status": "Energy project in the grid queue", "ERCOT queue number": "27INR0115", "Size": "513.68 megawatts", "Queue status": "Active again since ERCOT's June 2026 report", "Connects at": "Roans Prairie 345 kV", "Projected start": "November 1, 2028", "Location": "Approximate. ERCOT names a connection point, not a site. The marker is at the community of Roans Prairie.", "Source": "ERCOT GIS Report published October 1, 2026", "As of": "October 8, 2026", "url": "https://www.ercot.com/mp/data-products/data-product-details?id=PG7-200-ER", "link": "ERCOT's monthly reports", "id": "ercot-27INR0115"}, "geometry": {"type": "Point", "coordinates": [-95.9433, 30.5837]}}
  ]
}
