{
  "type": "FeatureCollection",
  "features": [
    {"type": "Feature", "properties": {"name": "345 kV transmission line", "Voltage (kV)": 345, "Owner": "ENTERGY TEXAS INC."}, "geometry": {"type": "LineString", "coordinates": [[-95.720614, 30.292172], [-95.731163, 30.302801], [-95.732834, 30.305239], [-95.741392, 30.321893], [-95.754624, 30.329626], [-95.756194, 30.331435], [-95.761691, 30.339061], [-95.777984, 30.348877], [-95.782589, 30.354077], [-95.782545, 30.3579], [-95.783688, 30.365356], [-95.786758, 30.379989], [-95.788371, 30.385357], [-95.803076, 30.40346], [-95.817824, 30.427003], [-95.830226, 30.446472], [-95.837394, 30.463857], [-95.848516, 30.481418], [-95.859466, 30.493496], [-95.867332, 30.505788], [-95.877295, 30.521075], [-95.881192, 30.528505], [-95.884177, 30.533861], [-95.897849, 30.551269], [-95.899341, 30.554329], [-95.915424, 30.579559], [-95.91952, 30.583871], [-95.924129, 30.591221], [-95.92437, 30.591936], [-95.91987, 30.593841], [-95.919066, 30.593897]]}},
    {"type": "Feature", "properties": {"name": "345 kV transmission line", "Voltage (kV)": 345, "Owner": "ENTERGY TEXAS INC."}, "geometry": {"type": "LineString", "coordinates": [[-95.720614, 30.29203], [-95.73124, 30.302737], [-95.73292, 30.305188], [-95.741467, 30.321821], [-95.754689, 30.329548], [-95.756273, 30.331373], [-95.76176, 30.338986], [-95.778049, 30.348799], [-95.782689, 30.35404], [-95.782645, 30.357893], [-95.783786, 30.365338], [-95.786855, 30.379965], [-95.788461, 30.38531], [-95.803157, 30.403402], [-95.817908, 30.426949], [-95.830316, 30.446426], [-95.837483, 30.463811], [-95.848595, 30.481357], [-95.859545, 30.493435], [-95.867416, 30.505734], [-95.877382, 30.521025], [-95.88128, 30.528458], [-95.88426, 30.533805], [-95.897934, 30.551215], [-95.899428, 30.55428], [-95.915503, 30.579497], [-95.919599, 30.58381], [-95.92427, 30.591193], [-95.925222, 30.593697], [-95.947017, 30.62797], [-95.960309, 30.649138], [-95.970741, 30.661981], [-95.972583, 30.661824], [-95.973321, 30.661406]]}},
    {"type": "Feature", "properties": {"name": "345 kV transmission line", "Voltage (kV)": 345, "Owner": "ENTERGY TEXAS INC."}, "geometry": {"type": "LineString", "coordinates": [[-95.761963, 30.744875], [-95.796807, 30.722198], [-95.800257, 30.720047], [-95.801652, 30.716646], [-95.80939, 30.698774], [-95.830314, 30.682449], [-95.840128, 30.674999], [-95.894325, 30.632394], [-95.897347, 30.630407], [-95.900462, 30.628748], [-95.90337, 30.627594], [-95.908954, 30.625847], [-95.909422, 30.62393]]}},
    {"type": "Feature", "properties": {"name": "345 kV transmission line", "Voltage (kV)": 345, "Owner": "ENTERGY TEXAS INC."}, "geometry": {"type": "LineString", "coordinates": [[-96.081802, 30.622512], [-96.081526, 30.622708], [-96.082978, 30.625882], [-96.084685, 30.628173], [-96.093086, 30.639981], [-96.094839, 30.642288], [-96.095351, 30.645143], [-96.09591, 30.668241], [-96.096039, 30.671212], [-96.096425, 30.689205], [-96.099378, 30.690008], [-96.115643, 30.694861], [-96.128346, 30.698533], [-96.137465, 30.701411], [-96.140336, 30.702234], [-96.142045, 30.70859], [-96.144468, 30.717091], [-96.147708, 30.747889], [-96.148631, 30.757257], [-96.149017, 30.760262], [-96.152239, 30.790984], [-96.172497, 30.801798], [-96.17857, 30.804968], [-96.190565, 30.811142], [-96.196659, 30.814165], [-96.205607, 30.818772], [-96.208632, 30.820264], [-96.214812, 30.823471], [-96.217923, 30.824963], [-96.243942, 30.838574], [-96.24608, 30.84118], [-96.250102, 30.846791]]}},
    {"type": "Feature", "properties": {"name": "345 kV transmission line", "Voltage (kV)": 345, "Owner": "ENTERGY TEXAS INC."}, "geometry": {"type": "LineString", "coordinates": [[-96.027983, 30.914181], [-96.026227, 30.897364], [-96.014038, 30.847725], [-95.9837, 30.714547], [-95.973342, 30.668163], [-95.974719, 30.663756], [-95.974724, 30.662182], [-95.973321, 30.661406]]}},
    {"type": "Feature", "properties": {"name": "345 kV transmission line", "Voltage (kV)": 345, "Owner": "ENTERGY TEXAS INC."}, "geometry": {"type": "LineString", "coordinates": [[-95.973321, 30.661406], [-95.974624, 30.662355], [-95.974619, 30.66374], [-95.973239, 30.668159], [-95.983603, 30.714569], [-96.013941, 30.847748], [-96.026128, 30.897382], [-96.027884, 30.914195]]}},
    {"type": "Feature", "properties": {"name": "345 kV transmission line", "Voltage (kV)": 345, "Owner": "ENTERGY TEXAS, INC."}, "geometry": {"type": "LineString", "coordinates": [[-95.919066, 30.593897], [-95.919986, 30.594078], [-95.924477, 30.592221], [-95.925138, 30.593751], [-95.946933, 30.628023], [-95.960227, 30.649197], [-95.970692, 30.662098], [-95.972566, 30.662332], [-95.973321, 30.661406]]}},
    {"type": "Feature", "properties": {"name": "345 kV transmission line", "Voltage (kV)": 345, "Owner": "MID-SOUTH ELECTRIC COOP ASSN"}, "geometry": {"type": "LineString", "coordinates": [[-96.081802, 30.622512], [-96.08185, 30.61994]]}},
    {"type": "Feature", "properties": {"name": "345 kV transmission line", "Voltage (kV)": 345, "Owner": "MID-SOUTH ELECTRIC COOP ASSN"}, "geometry": {"type": "LineString", "coordinates": [[-95.909422, 30.62393], [-95.90882, 30.624014], [-95.908547, 30.623165], [-95.910703, 30.622429], [-95.912117, 30.622413], [-95.915402, 30.621285], [-95.911146, 30.611502], [-95.917927, 30.597092], [-95.919066, 30.593897]]}},
    {"type": "Feature", "properties": {"name": "345 kV transmission line", "Voltage (kV)": 345, "Owner": "MID-SOUTH ELECTRIC COOP ASSN"}, "geometry": {"type": "LineString", "coordinates": [[-96.081802, 30.622512], [-96.081784, 30.62301], [-96.083062, 30.625827], [-96.084767, 30.628114], [-96.093167, 30.639921], [-96.094933, 30.642247], [-96.095451, 30.645134], [-96.09601, 30.668238], [-96.096139, 30.671209], [-96.096525, 30.689129], [-96.099406, 30.689912], [-96.115671, 30.694765], [-96.128374, 30.698437], [-96.137494, 30.701315], [-96.140417, 30.702153], [-96.142141, 30.708564], [-96.144567, 30.717072], [-96.147807, 30.747878], [-96.14873, 30.757245], [-96.149116, 30.760251], [-96.152332, 30.790921], [-96.172543, 30.801709], [-96.178615, 30.804879], [-96.19061, 30.811053], [-96.196704, 30.814075], [-96.205652, 30.818682], [-96.208677, 30.820175], [-96.214857, 30.823381], [-96.217968, 30.824874], [-96.244006, 30.838495], [-96.24616, 30.84112], [-96.250153, 30.846689]]}},
    {"type": "Feature", "properties": {"name": "345 kV transmission line", "Voltage (kV)": 345, "Owner": "MID-SOUTH ELECTRIC COOP ASSN"}, "geometry": {"type": "LineString", "coordinates": [[-96.081802, 30.622512], [-96.080847, 30.624073], [-96.082474, 30.626811], [-96.090923, 30.638617], [-96.068326, 30.663082], [-96.008161, 30.664079], [-95.992076, 30.662729], [-95.974949, 30.662869], [-95.97494, 30.661719], [-95.974067, 30.661431], [-95.973321, 30.661406]]}},
    {"type": "Feature", "properties": {"name": "345 kV transmission line", "Voltage (kV)": 345, "Owner": "MID-SOUTH ELECTRIC COOP ASSN"}, "geometry": {"type": "LineString", "coordinates": [[-95.973321, 30.661406], [-95.974846, 30.66187], [-95.974849, 30.662972], [-95.992072, 30.662829], [-96.008158, 30.664179], [-96.068371, 30.663182], [-96.091052, 30.638624], [-96.082556, 30.626753], [-96.080929, 30.623993], [-96.080993, 30.622555], [-96.081802, 30.622512]]}},
    {"type": "Feature", "properties": {"name": "345 kV transmission line", "Voltage (kV)": 345, "Owner": "SAN BERNARD ELECTRIC COOP, INC"}, "geometry": {"type": "LineString", "coordinates": [[-95.973321, 30.661406], [-95.9715, 30.661801], [-95.969847, 30.657933], [-95.968205, 30.650268], [-95.968063, 30.644675], [-95.936854, 30.506154], [-95.926946, 30.461781], [-95.907743, 30.38337], [-95.848352, 30.169905]]}},
    {"type": "Feature", "properties": {"name": "345 kV transmission line", "Voltage (kV)": 345, "Owner": "SAN BERNARD ELECTRIC COOP, INC"}, "geometry": {"type": "LineString", "coordinates": [[-95.84825, 30.169912], [-95.907646, 30.383396], [-95.926848, 30.461804], [-95.936756, 30.506176], [-95.967963, 30.644688], [-95.968106, 30.650279], [-95.969751, 30.657964], [-95.971435, 30.661902], [-95.972565, 30.661533], [-95.973321, 30.661406]]}},
    {"type": "Feature", "properties": {"name": "138 kV transmission line", "Voltage (kV)": 138, "Owner": "CENTERPOINT ENERGY"}, "geometry": {"type": "LineString", "coordinates": [[-95.720705, 30.338446], [-95.748405, 30.343829], [-95.760352, 30.347312], [-95.78104, 30.350391], [-95.78119, 30.350512], [-95.781362, 30.350512], [-95.781575, 30.350971]]}},
    {"type": "Feature", "properties": {"name": "138 kV transmission line", "Voltage (kV)": 138, "Owner": "CITY OF BRYAN - (TX)"}, "geometry": {"type": "MultiLineString", "coordinates": [[[-96.266547, 30.572601], [-96.266144, 30.57271], [-96.265993, 30.573066], [-96.261808, 30.577321], [-96.256663, 30.582781], [-96.255688, 30.583491], [-96.254618, 30.584673], [-96.243536, 30.572169], [-96.253348, 30.563286], [-96.255764, 30.561205], [-96.256975, 30.560178], [-96.259082, 30.558983], [-96.259365, 30.557682], [-96.258949, 30.557091], [-96.258917, 30.554286]], [[-96.25863, 30.553791], [-96.258016, 30.553793], [-96.257804, 30.553893]]]}},
    {"type": "Feature", "properties": {"name": "138 kV transmission line", "Voltage (kV)": 138, "Owner": "CITY OF BRYAN - (TX)"}, "geometry": {"type": "LineString", "coordinates": [[-96.257804, 30.553893], [-96.257402, 30.5533], [-96.257195, 30.553163], [-96.258241, 30.553236]]}},
    {"type": "Feature", "properties": {"name": "138 kV transmission line", "Voltage (kV)": 138, "Owner": "CITY OF BRYAN - (TX)"}, "geometry": {"type": "LineString", "coordinates": [[-96.266547, 30.572601], [-96.266406, 30.573008], [-96.265994, 30.573143], [-96.265464, 30.573645], [-96.261788, 30.577382], [-96.25664, 30.582845], [-96.255665, 30.583555], [-96.2546, 30.584733], [-96.27203, 30.604404]]}},
    {"type": "Feature", "properties": {"name": "138 kV transmission line", "Voltage (kV)": 138, "Owner": "CITY OF BRYAN - (TX)"}, "geometry": {"type": "LineString", "coordinates": [[-96.161821, 30.61608], [-96.163523, 30.615166], [-96.166111, 30.614105], [-96.182021, 30.608969], [-96.195773, 30.615902], [-96.196815, 30.615755], [-96.200379, 30.618175], [-96.207294, 30.62162], [-96.21418, 30.627488], [-96.22352, 30.628632], [-96.224835, 30.631164], [-96.25441, 30.649525], [-96.257326, 30.650443]]}},
    {"type": "Feature", "properties": {"name": "138 kV transmission line", "Voltage (kV)": 138, "Owner": "CITY OF BRYAN - (TX)"}, "geometry": {"type": "LineString", "coordinates": [[-96.101586, 30.649086], [-96.109632, 30.64444], [-96.135178, 30.630108], [-96.161821, 30.61608]]}},
    {"type": "Feature", "properties": {"name": "138 kV transmission line", "Voltage (kV)": 138, "Owner": "ENTERGY TEXAS, INC."}, "geometry": {"type": "LineString", "coordinates": [[-96.089578, 30.368393], [-96.089769, 30.368547], [-96.091245, 30.368576], [-96.091378, 30.370869], [-96.093757, 30.370888], [-96.093881, 30.370387]]}},
    {"type": "Feature", "properties": {"name": "138 kV transmission line", "Voltage (kV)": 138, "Owner": "ENTERGY TEXAS, INC."}, "geometry": {"type": "LineString", "coordinates": [[-96.093881, 30.370387], [-96.094052, 30.371], [-96.09139, 30.370985], [-96.091038, 30.371954], [-96.091271, 30.382629], [-96.091026, 30.3831]]}},
    {"type": "Feature", "properties": {"name": "138 kV transmission line", "Voltage (kV)": 138, "Owner": "ENTERGY TEXAS, INC."}, "geometry": {"type": "LineString", "coordinates": [[-95.9178, 30.5924], [-95.919066, 30.593897]]}},
    {"type": "Feature", "properties": {"name": "138 kV transmission line", "Voltage (kV)": 138, "Owner": "ENTERGY TEXAS, INC."}, "geometry": {"type": "LineString", "coordinates": [[-95.919066, 30.593897], [-95.918702, 30.593056], [-95.918697, 30.592883], [-95.9178, 30.5924]]}},
    {"type": "Feature", "properties": {"name": "138 kV transmission line", "Voltage (kV)": 138, "Owner": "MID-SOUTH ELECTRIC COOP ASSN"}, "geometry": {"type": "LineString", "coordinates": [[-95.781575, 30.350971], [-95.781709, 30.349809], [-95.782264, 30.349747], [-95.802648, 30.352752], [-95.849175, 30.357576], [-95.876477, 30.36106], [-95.921432, 30.365031], [-95.954946, 30.368989], [-96.004418, 30.374711], [-96.040834, 30.374846], [-96.068633, 30.369581], [-96.089124, 30.368649], [-96.089578, 30.368393]]}},
    {"type": "Feature", "properties": {"name": "138 kV transmission line", "Voltage (kV)": 138, "Owner": "MID-SOUTH ELECTRIC COOP ASSN"}, "geometry": {"type": "LineString", "coordinates": [[-96.027328, 30.37523], [-96.026834, 30.374938], [-96.004396, 30.374852], [-95.980739, 30.372115], [-95.981115, 30.391908], [-96.001699, 30.435718], [-96.002091, 30.436102]]}},
    {"type": "Feature", "properties": {"name": "138 kV transmission line", "Voltage (kV)": 138, "Owner": "MID-SOUTH ELECTRIC COOP ASSN"}, "geometry": {"type": "LineString", "coordinates": [[-96.235864, 30.349947], [-96.132484, 30.376314], [-96.12215, 30.378781], [-96.120766, 30.379014], [-96.11789, 30.379866], [-96.11224, 30.381158], [-96.110751, 30.381656], [-96.108601, 30.381796], [-96.106895, 30.381799], [-96.10577, 30.381517], [-96.105716, 30.380302], [-96.104611, 30.380334], [-96.09995, 30.381947], [-96.092808, 30.382044], [-96.09224, 30.383284], [-96.091026, 30.3831]]}},
    {"type": "Feature", "properties": {"name": "138 kV transmission line", "Voltage (kV)": 138, "Owner": "MID-SOUTH ELECTRIC COOP ASSN"}, "geometry": {"type": "LineString", "coordinates": [[-96.091026, 30.3831], [-96.091125, 30.383337], [-96.092515, 30.383427], [-96.092662, 30.384847], [-96.09312, 30.385418], [-96.100148, 30.39187], [-96.105287, 30.403965], [-96.104397, 30.407153], [-96.102787, 30.412344], [-96.104504, 30.413043], [-96.104156, 30.417451], [-96.113972, 30.4281], [-96.115346, 30.42951], [-96.123853, 30.438789], [-96.125092, 30.440227], [-96.126487, 30.441587], [-96.130792, 30.445419], [-96.151831, 30.469023], [-96.239155, 30.567503], [-96.241036, 30.569533], [-96.242258, 30.571004], [-96.272033, 30.60459]]}},
    {"type": "Feature", "properties": {"name": "138 kV transmission line", "Voltage (kV)": 138, "Owner": "MID-SOUTH ELECTRIC COOP ASSN"}, "geometry": {"type": "LineString", "coordinates": [[-96.257804, 30.553893], [-96.25761, 30.554194], [-96.257641, 30.554558], [-96.258876, 30.554548], [-96.258894, 30.557109], [-96.259305, 30.557694], [-96.259033, 30.558947], [-96.256943, 30.560132], [-96.253311, 30.563245], [-96.242295, 30.573241], [-96.237699, 30.577351], [-96.236106, 30.578638], [-96.232003, 30.582291], [-96.224659, 30.589041], [-96.204107, 30.60734], [-96.203329, 30.608901], [-96.20208, 30.612137], [-96.201141, 30.613643], [-96.16185, 30.614312], [-96.13418, 30.615198], [-96.102825, 30.613843], [-96.089254, 30.614264], [-96.088477, 30.616145], [-96.085893, 30.621418], [-96.082744, 30.620983], [-96.082742, 30.621736], [-96.081802, 30.622512]]}},
    {"type": "Feature", "properties": {"name": "138 kV transmission line", "Voltage (kV)": 138, "Owner": "MID-SOUTH ELECTRIC COOP ASSN"}, "geometry": {"type": "LineString", "coordinates": [[-96.263375, 30.63645], [-96.261923, 30.635312], [-96.258242, 30.632726], [-96.252716, 30.628457], [-96.242779, 30.621672], [-96.237673, 30.617889], [-96.231108, 30.61315], [-96.161827, 30.614378], [-96.134156, 30.615264], [-96.1028, 30.613909], [-96.089269, 30.614328], [-96.088961, 30.61519], [-96.087152, 30.619029], [-96.086683, 30.619993], [-96.086274, 30.620541], [-96.086691, 30.621186]]}},
    {"type": "Feature", "properties": {"name": "138 kV transmission line", "Voltage (kV)": 138, "Owner": "MID-SOUTH ELECTRIC COOP ASSN"}, "geometry": {"type": "LineString", "coordinates": [[-96.027328, 30.37523], [-96.028687, 30.374925], [-96.040912, 30.375012], [-96.068648, 30.369717], [-96.089199, 30.36874], [-96.090739, 30.368769], [-96.091137, 30.382587], [-96.091026, 30.3831]]}},
    {"type": "Feature", "properties": {"name": "138 kV transmission line", "Voltage (kV)": 138, "Owner": "MID-SOUTH ELECTRIC COOP ASSN"}, "geometry": {"type": "LineString", "coordinates": [[-95.934313, 30.584597], [-95.937418, 30.58721], [-95.945545, 30.608804], [-95.960028, 30.604224], [-96.026748, 30.602182], [-96.032325, 30.606115], [-96.04674, 30.605566], [-96.049576, 30.603981], [-96.051209, 30.603662], [-96.06391, 30.603227], [-96.073653, 30.60867], [-96.079978, 30.608523], [-96.086691, 30.621186]]}},
    {"type": "Feature", "properties": {"name": "138 kV transmission line", "Voltage (kV)": 138, "Owner": "MID-SOUTH ELECTRIC COOP ASSN"}, "geometry": {"type": "LineString", "coordinates": [[-96.081802, 30.622512], [-96.082714, 30.622549], [-96.083433, 30.622141], [-96.085205, 30.622408], [-96.085901, 30.622308], [-96.086262, 30.621409], [-96.086691, 30.621186]]}},
    {"type": "Feature", "properties": {"name": "138 kV transmission line", "Voltage (kV)": 138, "Owner": "MID-SOUTH ELECTRIC COOP ASSN"}, "geometry": {"type": "LineString", "coordinates": [[-96.081802, 30.622512], [-96.082378, 30.622551], [-96.082382, 30.624725], [-96.085346, 30.629171], [-96.095539, 30.64345], [-96.095675, 30.650886], [-96.091211, 30.650977], [-96.091286, 30.651294]]}},
    {"type": "Feature", "properties": {"name": "138 kV transmission line", "Voltage (kV)": 138, "Owner": "MID-SOUTH ELECTRIC COOP ASSN"}, "geometry": {"type": "LineString", "coordinates": [[-95.909422, 30.62393], [-95.920118, 30.619446], [-95.93235, 30.62973], [-95.93701, 30.632649], [-95.93741, 30.633602], [-95.966973, 30.662556], [-95.991129, 30.662265], [-96.008151, 30.663773], [-96.010189, 30.663857], [-96.038116, 30.663237], [-96.09743, 30.662201], [-96.220971, 30.63666], [-96.22527, 30.632673], [-96.244111, 30.631946], [-96.265628, 30.630419]]}},
    {"type": "Feature", "properties": {"name": "138 kV transmission line", "Voltage (kV)": 138, "Owner": "MID-SOUTH ELECTRIC COOP ASSN"}, "geometry": {"type": "LineString", "coordinates": [[-95.727604, 30.426677], [-95.731902, 30.426567], [-95.733952, 30.426364], [-95.739799, 30.426318], [-95.741245, 30.425406], [-95.755715, 30.425277], [-95.759784, 30.425392], [-95.763939, 30.425077], [-95.766037, 30.425192], [-95.77219, 30.425277], [-95.775331, 30.424978], [-95.782784, 30.423321], [-95.800309, 30.423283], [-95.806307, 30.425078], [-95.81625, 30.425018], [-95.82891, 30.445082], [-95.829983, 30.446571], [-95.837238, 30.46401], [-95.848407, 30.48156], [-95.859327, 30.493593], [-95.869948, 30.510344], [-95.873137, 30.515081], [-95.877021, 30.52119], [-95.878791, 30.524767], [-95.883876, 30.533972], [-95.897545, 30.551426], [-95.899098, 30.554425], [-95.915333, 30.579658], [-95.919453, 30.583972], [-95.922258, 30.588511], [-95.920413, 30.592427], [-95.921393, 30.595115], [-95.918198, 30.597091], [-95.911393, 30.611522], [-95.915712, 30.621399], [-95.910511, 30.623184], [-95.909422, 30.62393]]}},
    {"type": "Feature", "properties": {"name": "138 kV transmission line", "Voltage (kV)": 138, "Owner": "MID-SOUTH ELECTRIC COOP ASSN"}, "geometry": {"type": "LineString", "coordinates": [[-96.002091, 30.436102], [-96.002128, 30.436604], [-96.002271, 30.436877], [-95.954299, 30.522654], [-95.952056, 30.527196], [-95.949169, 30.53178], [-95.945805, 30.537814], [-95.920594, 30.591627], [-95.921596, 30.594393], [-95.918335, 30.596409], [-95.911575, 30.610747], [-95.915948, 30.620709], [-95.910683, 30.622475], [-95.909422, 30.62393]]}},
    {"type": "Feature", "properties": {"name": "138 kV transmission line", "Voltage (kV)": 138, "Owner": "MID-SOUTH ELECTRIC COOP ASSN"}, "geometry": {"type": "LineString", "coordinates": [[-95.98761, 30.670838], [-95.987584, 30.670747], [-95.988154, 30.670139], [-95.984864, 30.66751], [-95.970836, 30.655947], [-95.969594, 30.650995], [-95.954971, 30.64014], [-95.952417, 30.628259], [-95.945718, 30.610378], [-95.945586, 30.609616], [-95.936918, 30.586603], [-95.93686, 30.585917], [-95.934313, 30.584597]]}},
    {"type": "Feature", "properties": {"name": "138 kV transmission line", "Voltage (kV)": 138, "Owner": "MID-SOUTH ELECTRIC COOP ASSN"}, "geometry": {"type": "LineString", "coordinates": [[-95.791266, 30.901848], [-95.799753, 30.904493], [-95.811965, 30.908113], [-95.812742, 30.908418], [-95.840925, 30.917138], [-95.853838, 30.921207], [-95.871481, 30.926379], [-95.875185, 30.927597], [-95.884859, 30.930438], [-95.885504, 30.930124]]}},
    {"type": "Feature", "properties": {"name": "138 kV transmission line", "Voltage (kV)": 138, "Owner": "MID-SOUTH ELECTRIC COOP ASSN"}, "geometry": {"type": "LineString", "coordinates": [[-96.081802, 30.622512], [-96.082535, 30.622484], [-96.082464, 30.624731], [-96.085391, 30.629138], [-96.095594, 30.643431], [-96.095754, 30.650955], [-96.096075, 30.651943], [-96.109401, 30.651553], [-96.12606, 30.651294], [-96.127946, 30.65164], [-96.131132, 30.651576], [-96.13923, 30.651915], [-96.174858, 30.651746], [-96.17798, 30.65152], [-96.211654, 30.649693], [-96.225969, 30.648979], [-96.239173, 30.652922], [-96.242862, 30.65597], [-96.252891, 30.662317], [-96.254783, 30.664061]]}},
    {"type": "Feature", "properties": {"name": "138 kV transmission line", "Voltage (kV)": 138, "Owner": "MID-SOUTH ELECTRIC COOP ASSN"}, "geometry": {"type": "LineString", "coordinates": [[-96.093226, 30.653707], [-96.10152, 30.649203], [-96.101586, 30.649086]]}},
    {"type": "Feature", "properties": {"name": "138 kV transmission line", "Voltage (kV)": 138, "Owner": "MID-SOUTH ELECTRIC COOP ASSN"}, "geometry": {"type": "LineString", "coordinates": [[-96.091286, 30.651294], [-96.091775, 30.652753], [-96.093001, 30.653408], [-96.093226, 30.653707]]}},
    {"type": "Feature", "properties": {"name": "138 kV transmission line", "Voltage (kV)": 138, "Owner": "MID-SOUTH ELECTRIC COOP ASSN"}, "geometry": {"type": "LineString", "coordinates": [[-96.046352, 30.731479], [-96.0684, 30.67007], [-96.069344, 30.667069], [-96.07591, 30.663484], [-96.076387, 30.663164], [-96.08022, 30.661312], [-96.082402, 30.659766], [-96.093226, 30.653707]]}},
    {"type": "Feature", "properties": {"name": "138 kV transmission line", "Voltage (kV)": 138, "Owner": "MID-SOUTH ELECTRIC COOP ASSN"}, "geometry": {"type": "LineString", "coordinates": [[-96.064833, 30.908919], [-96.014549, 30.846572], [-96.013002, 30.846721], [-95.999286, 30.838776], [-95.983658, 30.812602], [-95.970591, 30.791834], [-95.969376, 30.789827], [-95.969228, 30.789427], [-95.966468, 30.786322], [-95.965551, 30.785867], [-95.96567, 30.785448]]}},
    {"type": "Feature", "properties": {"name": "138 kV transmission line", "Voltage (kV)": 138}, "geometry": {"type": "LineString", "coordinates": [[-96.204439, 30.472865], [-96.207155, 30.473356], [-96.220468, 30.476105], [-96.224788, 30.475981]]}},
    {"type": "Feature", "properties": {"name": "138 kV transmission line", "Voltage (kV)": 138}, "geometry": {"type": "LineString", "coordinates": [[-96.258344, 30.553383], [-96.257804, 30.553893]]}},
    {"type": "Feature", "properties": {"name": "138 kV transmission line", "Voltage (kV)": 138}, "geometry": {"type": "LineString", "coordinates": [[-96.100016, 30.592837], [-96.100464, 30.59296], [-96.114434, 30.590304], [-96.116844, 30.597582], [-96.12429, 30.597608], [-96.137561, 30.585935], [-96.151362, 30.588403], [-96.158382, 30.6112], [-96.161821, 30.61608]]}},
    {"type": "Feature", "properties": {"name": "138 kV transmission line", "Voltage (kV)": 138}, "geometry": {"type": "LineString", "coordinates": [[-95.761788, 30.743646], [-95.799801, 30.71897], [-95.808935, 30.697737], [-95.8826, 30.640209], [-95.897325, 30.629599], [-95.903135, 30.626379], [-95.909422, 30.62393]]}},
    {"type": "Feature", "properties": {"name": "138 kV transmission line", "Voltage (kV)": 138}, "geometry": {"type": "LineString", "coordinates": [[-96.250249, 30.846495], [-96.250147, 30.846584], [-96.250181, 30.846631]]}},
    {"type": "Feature", "properties": {"name": "138 kV transmission line", "Voltage (kV)": 138}, "geometry": {"type": "LineString", "coordinates": [[-95.933693, 30.927464], [-95.916219, 30.925758], [-95.904767, 30.916319], [-95.901494, 30.918745], [-95.885504, 30.930124]]}},
    {"type": "Feature", "properties": {"name": "138 kV transmission line", "Voltage (kV)": 138}, "geometry": {"type": "LineString", "coordinates": [[-95.98761, 30.670838], [-95.988331, 30.670314], [-95.997408, 30.677752], [-96.012709, 30.698589], [-96.02164, 30.707814], [-96.045406, 30.731465], [-96.046352, 30.731479]]}},
    {"type": "Feature", "properties": {"name": "138 kV transmission line", "Voltage (kV)": 138}, "geometry": {"type": "LineString", "coordinates": [[-96.046352, 30.731479], [-96.046229, 30.732654], [-96.043658, 30.740132], [-96.024315, 30.7812], [-95.990374, 30.786301], [-95.965753, 30.784691], [-95.96567, 30.785448]]}}
  ]
}
