{
  "type": "FeatureCollection",
  "note": "About 300 of the roughly 9,070 mapped acres (3%) lie outside the reinvestment zone.",
  "features": [
    {"type": "Feature", "properties": {"name": "Project-linked holding", "Status": "Owned", "Listed under": "WIT TECH LLC", "Parcels": 32, "Acres listed": 7592.3, "Acres mapped": 8460.5, "description": "Land listed under this company in appraisal district records. Tract lines inside the block are merged. Listed acres are the district's figure; mapped acres are measured from the shapes. Approximate, not a survey."}, "geometry": {"type": "Polygon", "coordinates": [[[-96.035117, 30.595848], [-96.03519, 30.595796], [-96.035375, 30.601858], [-96.034642, 30.60188], [-96.03477, 30.605652], [-96.040124, 30.605553], [-96.04013, 30.605828], [-96.046655, 30.605698], [-96.046667, 30.607143], [-96.051434, 30.607085], [-96.051472, 30.608015], [-96.056767, 30.607858], [-96.056701, 30.605233], [-96.063873, 30.605022], [-96.063723, 30.60212], [-96.072715, 30.601881], [-96.072714, 30.602797], [-96.078301, 30.602698], [-96.078299, 30.603281], [-96.079801, 30.603149], [-96.07953, 30.606401], [-96.077345, 30.606412], [-96.077188, 30.608249], [-96.079875, 30.608187], [-96.079657, 30.610603], [-96.080886, 30.61044], [-96.083614, 30.612198], [-96.0845, 30.612701], [-96.085818, 30.612434], [-96.086049, 30.612596], [-96.086913, 30.612794], [-96.08765, 30.613271], [-96.087951, 30.613648], [-96.08815, 30.614071], [-96.088658, 30.613821], [-96.089325, 30.6138], [-96.089347, 30.614436], [-96.085827, 30.622197], [-96.08538, 30.621917], [-96.085647, 30.621481], [-96.086577, 30.619404], [-96.085821, 30.619151], [-96.08343, 30.619099], [-96.083504, 30.617303], [-96.079527, 30.617334], [-96.079429, 30.619484], [-96.078736, 30.619427], [-96.078552, 30.621542], [-96.078745, 30.621742], [-96.078671, 30.622662], [-96.079049, 30.622689], [-96.079, 30.623217], [-96.079188, 30.623415], [-96.078546, 30.623369], [-96.07853, 30.624785], [-96.078842, 30.625118], [-96.079583, 30.625145], [-96.080002, 30.625539], [-96.079946, 30.625871], [-96.079405, 30.626622], [-96.079832, 30.628012], [-96.080585, 30.628047], [-96.081216, 30.628698], [-96.081455, 30.629364], [-96.080842, 30.629654], [-96.080632, 30.629527], [-96.080334, 30.629559], [-96.080137, 30.629473], [-96.080043, 30.629066], [-96.080414, 30.628658], [-96.080223, 30.628682], [-96.079894, 30.6286], [-96.079562, 30.628361], [-96.079377, 30.628144], [-96.079086, 30.62732], [-96.079155, 30.627277], [-96.07901, 30.626928], [-96.079086, 30.626313], [-96.079284, 30.626068], [-96.079554, 30.62588], [-96.07948, 30.625838], [-96.079552, 30.625766], [-96.079098, 30.625367], [-96.078637, 30.625526], [-96.078356, 30.625396], [-96.078247, 30.626041], [-96.076103, 30.626349], [-96.075849, 30.626205], [-96.075824, 30.6257], [-96.076526, 30.625119], [-96.07652, 30.624897], [-96.077111, 30.624792], [-96.077108, 30.624645], [-96.077382, 30.62447], [-96.077337, 30.624241], [-96.077461, 30.624191], [-96.077167, 30.623884], [-96.076816, 30.623692], [-96.07673, 30.623731], [-96.076668, 30.623641], [-96.0763, 30.623543], [-96.075726, 30.623539], [-96.074954, 30.623247], [-96.074034, 30.621521], [-96.073914, 30.621072], [-96.073131, 30.62017], [-96.07281, 30.619952], [-96.072272, 30.61932], [-96.072023, 30.618833], [-96.071986, 30.618511], [-96.072086, 30.618452], [-96.074629, 30.619159], [-96.075753, 30.61939], [-96.076222, 30.61821], [-96.075643, 30.617905], [-96.075766, 30.617791], [-96.075452, 30.617648], [-96.075181, 30.61768], [-96.075065, 30.617288], [-96.074968, 30.617205], [-96.074221, 30.61699], [-96.073658, 30.616634], [-96.073335, 30.616309], [-96.073063, 30.615858], [-96.073328, 30.61468], [-96.073631, 30.614472], [-96.073591, 30.614298], [-96.073145, 30.614191], [-96.073231, 30.613683], [-96.073572, 30.61362], [-96.074009, 30.613418], [-96.074513, 30.613052], [-96.074598, 30.612457], [-96.074572, 30.611992], [-96.074429, 30.611723], [-96.073627, 30.611403], [-96.07354, 30.611295], [-96.073256, 30.611183], [-96.073076, 30.611201], [-96.072891, 30.611076], [-96.072703, 30.611086], [-96.072091, 30.611317], [-96.071611, 30.610902], [-96.071269, 30.610731], [-96.071042, 30.610472], [-96.070866, 30.61044], [-96.070722, 30.610234], [-96.070515, 30.610219], [-96.069586, 30.609831], [-96.069424, 30.609581], [-96.069428, 30.60936], [-96.068595, 30.609232], [-96.068398, 30.609785], [-96.068482, 30.61009], [-96.06787, 30.610215], [-96.067678, 30.61042], [-96.067593, 30.610616], [-96.067675, 30.611029], [-96.067501, 30.611248], [-96.067683, 30.611493], [-96.067571, 30.611592], [-96.067377, 30.611595], [-96.06725, 30.611452], [-96.066356, 30.61116], [-96.066283, 30.611022], [-96.066318, 30.610922], [-96.066503, 30.610873], [-96.066676, 30.610602], [-96.066871, 30.609364], [-96.066403, 30.609412], [-96.065426, 30.609607], [-96.06448, 30.609958], [-96.056051, 30.614373], [-96.055561, 30.614744], [-96.055615, 30.614882], [-96.055712, 30.614914], [-96.055637, 30.615215], [-96.055408, 30.615397], [-96.05538, 30.615626], [-96.054829, 30.616377], [-96.055262, 30.616597], [-96.05533, 30.616961], [-96.05517, 30.617352], [-96.055014, 30.617488], [-96.054199, 30.617743], [-96.054051, 30.617919], [-96.053602, 30.61805], [-96.053165, 30.617811], [-96.05276, 30.617907], [-96.050741, 30.619193], [-96.050624, 30.619441], [-96.050739, 30.619819], [-96.050858, 30.621072], [-96.051349, 30.621469], [-96.051524, 30.62178], [-96.051679, 30.622357], [-96.051962, 30.6228], [-96.052699, 30.623046], [-96.05308, 30.623301], [-96.05392, 30.62431], [-96.05432, 30.624964], [-96.054289, 30.625318], [-96.054037, 30.62551], [-96.053812, 30.625433], [-96.053703, 30.625234], [-96.053626, 30.624674], [-96.053402, 30.624355], [-96.053029, 30.624082], [-96.052659, 30.624128], [-96.051232, 30.624702], [-96.050842, 30.624965], [-96.050681, 30.625229], [-96.050777, 30.625575], [-96.050666, 30.62584], [-96.050042, 30.625461], [-96.050014, 30.625291], [-96.050362, 30.624697], [-96.050446, 30.624165], [-96.050159, 30.623669], [-96.049621, 30.623399], [-96.048749, 30.623101], [-96.047782, 30.622553], [-96.047497, 30.622287], [-96.047417, 30.621646], [-96.046993, 30.621694], [-96.046128, 30.623131], [-96.045944, 30.623639], [-96.045962, 30.624014], [-96.046163, 30.624488], [-96.045985, 30.624912], [-96.044678, 30.625333], [-96.04449, 30.62531], [-96.04424, 30.62484], [-96.044107, 30.624238], [-96.043613, 30.623708], [-96.043826, 30.623286], [-96.043432, 30.623222], [-96.04314, 30.62344], [-96.042553, 30.622864], [-96.04216, 30.62275], [-96.041978, 30.622865], [-96.042014, 30.623074], [-96.041943, 30.623167], [-96.042265, 30.623523], [-96.042562, 30.62403], [-96.042562, 30.624308], [-96.042993, 30.624361], [-96.043129, 30.624581], [-96.04318, 30.624911], [-96.042991, 30.625407], [-96.043358, 30.62557], [-96.043163, 30.625772], [-96.043081, 30.625719], [-96.043, 30.625757], [-96.042993, 30.626381], [-96.042877, 30.626541], [-96.042051, 30.626581], [-96.041762, 30.626681], [-96.041335, 30.627283], [-96.041123, 30.627343], [-96.040993, 30.627287], [-96.040756, 30.627016], [-96.040604, 30.626986], [-96.040511, 30.626625], [-96.040671, 30.626493], [-96.040905, 30.625984], [-96.039168, 30.626668], [-96.03834, 30.626794], [-96.038297, 30.62716], [-96.037944, 30.627177], [-96.037663, 30.627402], [-96.037165, 30.627349], [-96.036236, 30.62762], [-96.035864, 30.627697], [-96.035639, 30.627676], [-96.035478, 30.627791], [-96.035026, 30.627887], [-96.034671, 30.62788], [-96.034315, 30.627659], [-96.034208, 30.627435], [-96.033975, 30.627487], [-96.033808, 30.62764], [-96.033432, 30.627598], [-96.033153, 30.627968], [-96.032924, 30.627929], [-96.032733, 30.627806], [-96.032508, 30.627865], [-96.032551, 30.628035], [-96.032349, 30.628128], [-96.032302, 30.627974], [-96.031826, 30.628165], [-96.030969, 30.628362], [-96.030899, 30.62868], [-96.030653, 30.628801], [-96.030572, 30.629036], [-96.029727, 30.629382], [-96.029046, 30.630327], [-96.028223, 30.630715], [-96.02651, 30.630736], [-96.025748, 30.631437], [-96.024974, 30.631658], [-96.02313, 30.630714], [-96.020864, 30.630406], [-96.020024, 30.630397], [-96.018924, 30.630107], [-96.01888, 30.62933], [-96.018421, 30.628865], [-96.017122, 30.628404], [-96.016758, 30.627981], [-96.016231, 30.628646], [-96.018513, 30.629279], [-96.018247, 30.629742], [-96.018667, 30.630318], [-96.018405, 30.6306], [-96.019579, 30.630968], [-96.020227, 30.630618], [-96.020622, 30.630977], [-96.021982, 30.6313], [-96.020074, 30.631347], [-96.021928, 30.631975], [-96.022698, 30.632683], [-96.023114, 30.633345], [-96.022248, 30.633097], [-96.020787, 30.632269], [-96.019907, 30.632261], [-96.02147, 30.633138], [-96.022028, 30.634169], [-96.022671, 30.634485], [-96.024559, 30.633972], [-96.025401, 30.634432], [-96.025445, 30.633283], [-96.026444, 30.632899], [-96.026964, 30.633364], [-96.027479, 30.633179], [-96.027827, 30.633537], [-96.02901, 30.633811], [-96.029907, 30.633499], [-96.029992, 30.636253], [-96.023812, 30.636386], [-96.023818, 30.636589], [-96.018524, 30.636715], [-96.018502, 30.635885], [-96.017564, 30.635906], [-96.017535, 30.634775], [-96.01292, 30.634864], [-96.012915, 30.634673], [-96.014854, 30.634635], [-96.014251, 30.633292], [-96.014147, 30.628753], [-96.015922, 30.628494], [-96.015911, 30.628367], [-96.014137, 30.62829], [-96.014069, 30.625322], [-96.012574, 30.62464], [-96.012132, 30.624286], [-96.011684, 30.624045], [-96.011377, 30.623766], [-96.010082, 30.623198], [-96.009597, 30.622877], [-96.006799, 30.622199], [-96.006874, 30.624428], [-96.005643, 30.624498], [-96.006084, 30.6242], [-96.00366, 30.624462], [-96.001079, 30.624654], [-95.999812, 30.624841], [-95.997523, 30.62484], [-95.997656, 30.62509], [-95.99775, 30.629315], [-96.001482, 30.629182], [-96.002199, 30.641826], [-95.998341, 30.642049], [-95.998061, 30.642004], [-95.998306, 30.646951], [-95.994392, 30.647004], [-95.994452, 30.649309], [-95.99639, 30.649278], [-95.996582, 30.654666], [-95.983649, 30.655005], [-95.983636, 30.654709], [-95.996252, 30.654399], [-95.996039, 30.649699], [-95.993886, 30.64974], [-95.993855, 30.648529], [-95.987441, 30.64865], [-95.987458, 30.649326], [-95.98208, 30.649428], [-95.982095, 30.65002], [-95.977585, 30.650105], [-95.977729, 30.655126], [-95.975006, 30.655189], [-95.974936, 30.654022], [-95.97681, 30.653913], [-95.976623, 30.646836], [-95.976432, 30.646842], [-95.97624, 30.640153], [-95.972389, 30.640167], [-95.970261, 30.640256], [-95.970214, 30.640481], [-95.970331, 30.64292], [-95.967547, 30.643], [-95.967712, 30.647106], [-95.969134, 30.647087], [-95.969208, 30.650275], [-95.964223, 30.650362], [-95.96418, 30.647416], [-95.960765, 30.647546], [-95.960852, 30.64722], [-95.96092, 30.647183], [-95.963102, 30.647128], [-95.963142, 30.64412], [-95.960595, 30.643719], [-95.960084, 30.629183], [-95.972543, 30.628737], [-95.972315, 30.622032], [-95.972281, 30.617384], [-95.961796, 30.617435], [-95.962063, 30.618616], [-95.958128, 30.619914], [-95.957396, 30.618282], [-95.954088, 30.618999], [-95.952732, 30.619777], [-95.951518, 30.613069], [-95.954614, 30.61203], [-95.955596, 30.614214], [-95.958982, 30.614934], [-95.959503, 30.614918], [-95.960324, 30.614655], [-95.961304, 30.614158], [-95.961253, 30.612284], [-95.969765, 30.61203], [-95.96983, 30.614737], [-95.978228, 30.614539], [-95.978226, 30.614629], [-95.980852, 30.614582], [-95.98086, 30.610532], [-95.973195, 30.610559], [-95.972934, 30.603644], [-95.976372, 30.602474], [-95.975045, 30.599542], [-95.971779, 30.592845], [-95.976371, 30.591338], [-95.976564, 30.592018], [-95.977155, 30.591933], [-95.977584, 30.594683], [-95.979692, 30.594431], [-95.979375, 30.592358], [-95.978602, 30.592445], [-95.978426, 30.591161], [-95.98019, 30.591312], [-95.980929, 30.592849], [-95.981802, 30.594922], [-95.982946, 30.596201], [-95.984012, 30.598651], [-95.986532, 30.597836], [-95.988828, 30.602867], [-95.990326, 30.602768], [-95.991811, 30.602773], [-95.991778, 30.602376], [-95.993342, 30.600385], [-95.992721, 30.599022], [-95.993922, 30.598408], [-95.995358, 30.597881], [-95.996757, 30.596113], [-95.993658, 30.596441], [-95.990765, 30.592266], [-95.997679, 30.592819], [-95.998298, 30.592953], [-96.005062, 30.593456], [-96.005211, 30.602534], [-96.006164, 30.602533], [-96.006527, 30.612695], [-96.009807, 30.612642], [-96.009284, 30.593826], [-96.012535, 30.594115], [-96.012295, 30.595076], [-96.01284, 30.59521], [-96.013819, 30.595207], [-96.013998, 30.602337], [-96.018614, 30.602246], [-96.018502, 30.594672], [-96.019996, 30.594792], [-96.020207, 30.602231], [-96.032328, 30.601829], [-96.032417, 30.605973], [-96.034647, 30.605917], [-96.034511, 30.601772], [-96.03524, 30.601752], [-96.035117, 30.595848]], [[-96.014829, 30.63189], [-96.015816, 30.632121], [-96.016371, 30.631363], [-96.017154, 30.631725], [-96.017565, 30.63163], [-96.017798, 30.631426], [-96.016336, 30.631235], [-96.014829, 30.63189]], [[-95.978298, 30.640097], [-95.977635, 30.640115], [-95.977652, 30.640796], [-95.978316, 30.640788], [-95.978298, 30.640097]], [[-95.982238, 30.645661], [-95.982402, 30.646693], [-95.982429, 30.647758], [-95.987237, 30.647551], [-95.988923, 30.647622], [-95.988926, 30.646219], [-95.988801, 30.64513], [-95.992495, 30.644951], [-95.992326, 30.642352], [-95.992926, 30.642323], [-95.992533, 30.635656], [-95.987144, 30.635916], [-95.986988, 30.632404], [-95.981566, 30.632572], [-95.981873, 30.640131], [-95.981962, 30.640127], [-95.982098, 30.64199], [-95.984832, 30.641954], [-95.98486, 30.64346], [-95.982175, 30.643422], [-95.982238, 30.645661]], [[-95.990204, 30.63244], [-95.990868, 30.632445], [-95.990712, 30.628655], [-95.990048, 30.628645], [-95.990204, 30.63244]]]}},
    {"type": "Feature", "properties": {"name": "Project-linked holding", "Status": "Owned", "Listed under": "WIT TECH LLC", "Parcels": 1, "Acres listed": 433.8, "Acres mapped": 433.8, "description": "Land listed under this company in appraisal district records. Tract lines inside the block are merged. Listed acres are the district's figure; mapped acres are measured from the shapes. Approximate, not a survey."}, "geometry": {"type": "Polygon", "coordinates": [[[-96.057069, 30.64897], [-96.057395, 30.646957], [-96.057694, 30.646359], [-96.057478, 30.646113], [-96.056673, 30.64642], [-96.055902, 30.645778], [-96.054365, 30.644769], [-96.054038, 30.644033], [-96.053175, 30.643523], [-96.052729, 30.642989], [-96.052733, 30.642372], [-96.052592, 30.642017], [-96.052882, 30.641788], [-96.053081, 30.641804], [-96.053881, 30.641455], [-96.05459, 30.640765], [-96.055089, 30.639949], [-96.054888, 30.639496], [-96.056756, 30.638054], [-96.056965, 30.638249], [-96.056553, 30.638738], [-96.056821, 30.639144], [-96.068711, 30.644487], [-96.076505, 30.64162], [-96.075798, 30.649888], [-96.058487, 30.649998], [-96.057958, 30.650532], [-96.057069, 30.64897]]]}},
    {"type": "Feature", "properties": {"name": "Project-linked holding", "Status": "Owned", "Listed under": "WIT TECH LLC", "Parcels": 1, "Acres listed": 55.2, "Acres mapped": 62.6, "description": "Land listed under this company in appraisal district records. Tract lines inside the block are merged. Listed acres are the district's figure; mapped acres are measured from the shapes. Approximate, not a survey."}, "geometry": {"type": "Polygon", "coordinates": [[[-96.05466, 30.599541], [-96.063624, 30.599269], [-96.063713, 30.600666], [-96.051464, 30.601036], [-96.051232, 30.595304], [-96.051951, 30.595282], [-96.052123, 30.599617], [-96.053807, 30.599565], [-96.053657, 30.595234], [-96.054476, 30.595269], [-96.05466, 30.599541]]]}},
    {"type": "Feature", "properties": {"name": "Project-linked holding", "Status": "Owned", "Listed under": "WIT TECH LLC", "Parcels": 2, "Acres listed": 40.4, "Acres mapped": 104.5, "description": "Land listed under this company in appraisal district records. Tract lines inside the block are merged. Listed acres are the district's figure; mapped acres are measured from the shapes. Approximate, not a survey."}, "geometry": {"type": "Polygon", "coordinates": [[[-95.941896, 30.600551], [-95.942343, 30.601498], [-95.942214, 30.605089], [-95.936748, 30.60694], [-95.93603, 30.605219], [-95.935769, 30.601603], [-95.936105, 30.600845], [-95.942538, 30.598611], [-95.942488, 30.600336], [-95.941896, 30.600551]]]}},
    {"type": "Feature", "properties": {"name": "Project-linked holding", "Status": "Owned", "Listed under": "WIT TECH LLC", "Parcels": 1, "Acres listed": 3.8, "Acres mapped": 3.4, "description": "Land listed under this company in appraisal district records. Tract lines inside the block are merged. Listed acres are the district's figure; mapped acres are measured from the shapes. Approximate, not a survey."}, "geometry": {"type": "Polygon", "coordinates": [[[-96.160483, 30.651954], [-96.16046, 30.652767], [-96.158872, 30.652786], [-96.158877, 30.65197], [-96.160483, 30.651954]]]}},
    {"type": "Feature", "properties": {"name": "Project-linked holding", "Status": "Owned", "Listed under": "WIT TECH LLC", "Parcels": 1, "Acres listed": 1.2, "Acres mapped": 1.2, "description": "Land listed under this company in appraisal district records. Tract lines inside the block are merged. Listed acres are the district's figure; mapped acres are measured from the shapes. Approximate, not a survey."}, "geometry": {"type": "Polygon", "coordinates": [[[-96.166428, 30.651918], [-96.167373, 30.65189], [-96.167248, 30.652459], [-96.166461, 30.652432], [-96.166428, 30.651918]]]}},
    {"type": "Feature", "properties": {"name": "Under option, not yet sold", "description": "Gibbons Creek Reservoir and its shoreline. A project company holds a recorded option to buy this land. It has not been sold.", "Status": "Under option (not yet sold)", "Option held by": "WIT TECH LLC", "Acres in the option": "3,135.31", "Option signed": "May 27, 2026", "Recorded": "May 28, 2026, Grimes County Clerk document 2026-355105", "Contract of sale effective": "February 6, 2026", "Ownership": "Still owned by the reservoir's owner. Appraisal records show no sale.", "Water rights": "The option does not appear to cover the state water rights, which state records list under the reservoir's owner.", "Source": "Grimes County Clerk, Memorandum of Option; Grimes Central Appraisal District", "As of": "October 8, 2026", "url": "https://grimes.tx.publicsearch.us/", "link": "Search the County Clerk's records"}, "geometry": {"type": "Polygon", "coordinates": [[[-96.084281, 30.633733], [-96.084617, 30.633463], [-96.084463, 30.633626], [-96.084604, 30.633798], [-96.084906, 30.633751], [-96.084804, 30.633972], [-96.084629, 30.633957], [-96.084241, 30.6347], [-96.084337, 30.635003], [-96.084854, 30.635201], [-96.086362, 30.635227], [-96.086698, 30.635403], [-96.087265, 30.635446], [-96.087739, 30.634983], [-96.088018, 30.635068], [-96.087808, 30.635196], [-96.087861, 30.63531], [-96.088074, 30.6353], [-96.087333, 30.635945], [-96.088933, 30.636736], [-96.089193, 30.636532], [-96.089851, 30.636458], [-96.090104, 30.636516], [-96.090215, 30.636835], [-96.089347, 30.63733], [-96.089447, 30.63784], [-96.089401, 30.637971], [-96.089757, 30.63889], [-96.090149, 30.63933], [-96.090577, 30.639588], [-96.090943, 30.639646], [-96.091316, 30.639611], [-96.092355, 30.64005], [-96.092703, 30.64072], [-96.093811, 30.641181], [-96.093875, 30.641304], [-96.093978, 30.641288], [-96.093967, 30.641396], [-96.094275, 30.641388], [-96.094468, 30.641481], [-96.094533, 30.641597], [-96.094715, 30.641693], [-96.092635, 30.642081], [-96.090651, 30.64231], [-96.090262, 30.642504], [-96.089498, 30.642571], [-96.08889, 30.642398], [-96.08831, 30.64182], [-96.088146, 30.641734], [-96.087941, 30.641742], [-96.087938, 30.641625], [-96.086917, 30.64109], [-96.085724, 30.640739], [-96.085331, 30.640491], [-96.085087, 30.640025], [-96.084777, 30.640062], [-96.084386, 30.640357], [-96.08381, 30.640436], [-96.083882, 30.640337], [-96.077484, 30.640386], [-96.077831, 30.641131], [-96.077817, 30.641613], [-96.077408, 30.642588], [-96.07755, 30.646234], [-96.077458, 30.646513], [-96.076077, 30.646548], [-96.076627, 30.640207], [-96.07636, 30.640162], [-96.076466, 30.639836], [-96.076385, 30.639774], [-96.076173, 30.639819], [-96.075437, 30.639359], [-96.075028, 30.639334], [-96.074889, 30.639154], [-96.075152, 30.639122], [-96.075398, 30.638734], [-96.075324, 30.637795], [-96.075499, 30.637682], [-96.075647, 30.637422], [-96.075788, 30.637417], [-96.075878, 30.63689], [-96.07538, 30.636581], [-96.075425, 30.636516], [-96.075701, 30.63659], [-96.075818, 30.636516], [-96.076001, 30.636097], [-96.075846, 30.635843], [-96.076271, 30.635556], [-96.076387, 30.634962], [-96.07667, 30.634404], [-96.07259, 30.63309], [-96.072006, 30.633507], [-96.072004, 30.633759], [-96.071822, 30.633681], [-96.071582, 30.633853], [-96.07105, 30.633887], [-96.071063, 30.634248], [-96.070884, 30.63453], [-96.070513, 30.63464], [-96.07079, 30.63447], [-96.070649, 30.633709], [-96.070861, 30.633672], [-96.071607, 30.632699], [-96.070632, 30.632235], [-96.070536, 30.632463], [-96.070372, 30.632123], [-96.069924, 30.631959], [-96.069323, 30.63241], [-96.069663, 30.631862], [-96.069382, 30.631628], [-96.067235, 30.630561], [-96.066987, 30.630498], [-96.066029, 30.630819], [-96.065522, 30.631228], [-96.064341, 30.634482], [-96.064212, 30.63417], [-96.064028, 30.633052], [-96.063948, 30.632993], [-96.063775, 30.633049], [-96.063664, 30.633307], [-96.063171, 30.633467], [-96.062893, 30.633324], [-96.06261, 30.633521], [-96.062811, 30.633903], [-96.060947, 30.635783], [-96.060258, 30.635872], [-96.06125, 30.637813], [-96.060802, 30.638197], [-96.059915, 30.637184], [-96.05961, 30.637644], [-96.059734, 30.638247], [-96.059594, 30.638315], [-96.05929, 30.637521], [-96.05812, 30.63766], [-96.05732, 30.638175], [-96.056894, 30.638738], [-96.057236, 30.639319], [-96.056821, 30.639144], [-96.056553, 30.638738], [-96.056965, 30.638249], [-96.056756, 30.638054], [-96.054888, 30.639496], [-96.055089, 30.639949], [-96.05459, 30.640765], [-96.053881, 30.641455], [-96.053081, 30.641804], [-96.052882, 30.641788], [-96.052592, 30.642017], [-96.052733, 30.642372], [-96.052729, 30.642989], [-96.053175, 30.643523], [-96.054038, 30.644033], [-96.054365, 30.644769], [-96.055902, 30.645778], [-96.056673, 30.64642], [-96.057478, 30.646113], [-96.057694, 30.646359], [-96.057395, 30.646962], [-96.057069, 30.64897], [-96.058215, 30.651099], [-96.05879, 30.651025], [-96.058943, 30.651317], [-96.058488, 30.651467], [-96.058423, 30.651815], [-96.058196, 30.652073], [-96.058615, 30.652338], [-96.058984, 30.652802], [-96.059413, 30.653604], [-96.056437, 30.653605], [-96.055527, 30.651712], [-96.055321, 30.650946], [-96.055212, 30.650025], [-96.052543, 30.650029], [-96.052444, 30.646986], [-96.05212, 30.647295], [-96.051869, 30.646938], [-96.050775, 30.645946], [-96.050539, 30.645449], [-96.050182, 30.645095], [-96.050123, 30.645447], [-96.049639, 30.646406], [-96.049267, 30.646788], [-96.048954, 30.646678], [-96.04846, 30.64665], [-96.048192, 30.646925], [-96.048194, 30.647606], [-96.047412, 30.648236], [-96.047434, 30.648605], [-96.047209, 30.649569], [-96.046852, 30.649711], [-96.046623, 30.650004], [-96.0465, 30.650942], [-96.046084, 30.650587], [-96.045396, 30.651056], [-96.045798, 30.651816], [-96.045506, 30.652565], [-96.046051, 30.652641], [-96.046157, 30.6528], [-96.045413, 30.652809], [-96.045278, 30.652519], [-96.045411, 30.651766], [-96.044446, 30.651702], [-96.044516, 30.65142], [-96.044689, 30.651301], [-96.044417, 30.651062], [-96.044568, 30.650618], [-96.044753, 30.650338], [-96.044763, 30.650045], [-96.044938, 30.649686], [-96.045157, 30.649569], [-96.045116, 30.649447], [-96.045282, 30.649174], [-96.045114, 30.649055], [-96.044811, 30.649058], [-96.04526, 30.648846], [-96.045431, 30.648232], [-96.045574, 30.648079], [-96.045663, 30.647708], [-96.045593, 30.647503], [-96.046031, 30.646624], [-96.046678, 30.645978], [-96.047108, 30.645799], [-96.047819, 30.644919], [-96.047872, 30.644633], [-96.047828, 30.64431], [-96.047479, 30.64402], [-96.047745, 30.644054], [-96.04788, 30.643438], [-96.047816, 30.643226], [-96.047419, 30.643318], [-96.046971, 30.643787], [-96.046754, 30.643765], [-96.04629, 30.644437], [-96.046216, 30.644739], [-96.045846, 30.644882], [-96.045328, 30.64526], [-96.044654, 30.646127], [-96.044081, 30.646382], [-96.04367, 30.64645], [-96.043254, 30.646803], [-96.043201, 30.647215], [-96.043056, 30.647507], [-96.041978, 30.648041], [-96.041057, 30.64828], [-96.040854, 30.648559], [-96.04065, 30.649546], [-96.040016, 30.649934], [-96.039585, 30.650052], [-96.039087, 30.650488], [-96.039073, 30.650765], [-96.038417, 30.651368], [-96.03813, 30.652291], [-96.037821, 30.652723], [-96.037763, 30.654319], [-96.037425, 30.654832], [-96.037424, 30.655919], [-96.037187, 30.655962], [-96.036703, 30.655688], [-96.036663, 30.655435], [-96.037335, 30.654435], [-96.037198, 30.653896], [-96.03683, 30.653077], [-96.03646, 30.652903], [-96.035101, 30.653658], [-96.035005, 30.653985], [-96.035229, 30.654678], [-96.035008, 30.655666], [-96.034256, 30.656267], [-96.033543, 30.657036], [-96.033194, 30.657914], [-96.032772, 30.659308], [-96.031604, 30.661388], [-96.030227, 30.66248], [-96.030227, 30.662545], [-96.029864, 30.662339], [-96.029357, 30.661648], [-96.029952, 30.661207], [-96.029407, 30.659997], [-96.028764, 30.66109], [-96.028253, 30.661309], [-96.027995, 30.662512], [-96.028646, 30.66324], [-96.028444, 30.663243], [-96.027887, 30.662991], [-96.027489, 30.663182], [-96.026797, 30.662876], [-96.026495, 30.662471], [-96.026217, 30.662363], [-96.026145, 30.66258], [-96.026111, 30.66236], [-96.025627, 30.662162], [-96.024388, 30.663321], [-96.024271, 30.663324], [-96.02426, 30.663044], [-96.024837, 30.662653], [-96.024893, 30.662446], [-96.025459, 30.661936], [-96.025477, 30.661599], [-96.024828, 30.661887], [-96.025192, 30.661231], [-96.025544, 30.661011], [-96.025158, 30.66061], [-96.024863, 30.660843], [-96.02518, 30.660426], [-96.025654, 30.660922], [-96.025812, 30.660708], [-96.025866, 30.659671], [-96.025326, 30.658043], [-96.025467, 30.657766], [-96.025298, 30.657519], [-96.026571, 30.655891], [-96.026836, 30.655279], [-96.0265, 30.654467], [-96.025379, 30.654329], [-96.024694, 30.653827], [-96.024827, 30.653129], [-96.023656, 30.652336], [-96.023418, 30.652353], [-96.023493, 30.652903], [-96.023088, 30.653307], [-96.022781, 30.653213], [-96.022218, 30.654643], [-96.022549, 30.65502], [-96.02249, 30.655151], [-96.021999, 30.654662], [-96.022616, 30.653123], [-96.02307, 30.653047], [-96.023249, 30.65232], [-96.022752, 30.652618], [-96.021955, 30.65255], [-96.02142, 30.652944], [-96.021322, 30.653455], [-96.020961, 30.653417], [-96.020898, 30.652697], [-96.021805, 30.652468], [-96.021714, 30.652101], [-96.021988, 30.651736], [-96.022289, 30.652128], [-96.022734, 30.652016], [-96.023438, 30.652079], [-96.023418, 30.6518], [-96.024382, 30.651846], [-96.025593, 30.651802], [-96.026253, 30.652096], [-96.027185, 30.652015], [-96.027702, 30.651824], [-96.027958, 30.651442], [-96.02872, 30.650829], [-96.029583, 30.650616], [-96.030007, 30.649939], [-96.029978, 30.648265], [-96.030576, 30.648966], [-96.03072, 30.64865], [-96.031592, 30.648906], [-96.03245, 30.648249], [-96.032714, 30.647851], [-96.034094, 30.647151], [-96.034378, 30.646746], [-96.034689, 30.647084], [-96.036535, 30.646865], [-96.036691, 30.646665], [-96.036985, 30.645697], [-96.036943, 30.644349], [-96.037556, 30.643173], [-96.037201, 30.64274], [-96.037357, 30.642437], [-96.038326, 30.642512], [-96.038921, 30.6421], [-96.039402, 30.641484], [-96.039957, 30.641072], [-96.040355, 30.640075], [-96.040843, 30.640856], [-96.041606, 30.640636], [-96.041857, 30.639961], [-96.041694, 30.639016], [-96.041506, 30.638459], [-96.041615, 30.638347], [-96.042415, 30.638683], [-96.043167, 30.638407], [-96.043438, 30.637479], [-96.043995, 30.636461], [-96.043164, 30.636457], [-96.044204, 30.635959], [-96.044865, 30.63514], [-96.04611, 30.634561], [-96.046107, 30.634509], [-96.047306, 30.634491], [-96.047325, 30.634305], [-96.048218, 30.634004], [-96.048485, 30.633773], [-96.048944, 30.634151], [-96.048825, 30.633262], [-96.048539, 30.633341], [-96.048352, 30.633093], [-96.048266, 30.632724], [-96.047715, 30.632511], [-96.047316, 30.632834], [-96.04685, 30.633034], [-96.045726, 30.63272], [-96.044892, 30.632903], [-96.044163, 30.633287], [-96.043455, 30.633493], [-96.042779, 30.633388], [-96.041193, 30.63341], [-96.040598, 30.63359], [-96.040317, 30.633803], [-96.040091, 30.633665], [-96.03974, 30.633722], [-96.039097, 30.634044], [-96.039094, 30.634557], [-96.038825, 30.634059], [-96.038486, 30.634085], [-96.038458, 30.634264], [-96.038301, 30.634083], [-96.03654, 30.633882], [-96.036367, 30.634071], [-96.035819, 30.634021], [-96.035465, 30.634334], [-96.035402, 30.634661], [-96.035592, 30.635071], [-96.035579, 30.635792], [-96.035341, 30.635828], [-96.035285, 30.635162], [-96.035155, 30.634669], [-96.033999, 30.634702], [-96.033371, 30.634239], [-96.032813, 30.634108], [-96.0326, 30.634728], [-96.032415, 30.63577], [-96.031822, 30.636904], [-96.031588, 30.636808], [-96.03182, 30.635716], [-96.031478, 30.634753], [-96.030989, 30.634473], [-96.030609, 30.633658], [-96.030269, 30.63348], [-96.02991, 30.633498], [-96.02901, 30.633811], [-96.027827, 30.633537], [-96.027479, 30.633179], [-96.026964, 30.633364], [-96.026444, 30.632899], [-96.025445, 30.633283], [-96.025401, 30.634432], [-96.024559, 30.633972], [-96.022671, 30.634485], [-96.022028, 30.634169], [-96.02147, 30.633138], [-96.019907, 30.632261], [-96.020787, 30.632269], [-96.022248, 30.633097], [-96.023114, 30.633345], [-96.022698, 30.632683], [-96.021928, 30.631975], [-96.020073, 30.631347], [-96.02164, 30.631309], [-96.021652, 30.631226], [-96.020622, 30.630977], [-96.020227, 30.630618], [-96.019579, 30.630968], [-96.018654, 30.630678], [-96.017565, 30.63163], [-96.017154, 30.631725], [-96.016371, 30.631363], [-96.015816, 30.632121], [-96.014803, 30.631884], [-96.012838, 30.631012], [-96.012829, 30.630792], [-96.013265, 30.630893], [-96.015068, 30.631786], [-96.016336, 30.631235], [-96.017653, 30.631407], [-96.018667, 30.630318], [-96.018247, 30.629742], [-96.018513, 30.629279], [-96.01577, 30.628519], [-96.014369, 30.628743], [-96.01317, 30.628794], [-96.012814, 30.628243], [-96.012705, 30.627773], [-96.012981, 30.627683], [-96.013213, 30.628596], [-96.014068, 30.628288], [-96.015838, 30.628341], [-96.016336, 30.628513], [-96.016758, 30.627981], [-96.017122, 30.628404], [-96.018421, 30.628865], [-96.01888, 30.62933], [-96.018924, 30.630107], [-96.020024, 30.630397], [-96.020864, 30.630406], [-96.02313, 30.630714], [-96.024974, 30.631658], [-96.025748, 30.631437], [-96.02651, 30.630736], [-96.028223, 30.630715], [-96.029046, 30.630327], [-96.029727, 30.629382], [-96.030572, 30.629036], [-96.030614, 30.628916], [-96.030555, 30.628824], [-96.030819, 30.628762], [-96.030899, 30.62868], [-96.030969, 30.628362], [-96.031826, 30.628165], [-96.032733, 30.627806], [-96.032924, 30.627929], [-96.033153, 30.627968], [-96.033432, 30.627598], [-96.033808, 30.62764], [-96.033975, 30.627487], [-96.034208, 30.627435], [-96.034315, 30.627659], [-96.034671, 30.62788], [-96.035026, 30.627887], [-96.035385, 30.627811], [-96.035639, 30.627676], [-96.035864, 30.627697], [-96.036236, 30.62762], [-96.037165, 30.627349], [-96.037663, 30.627402], [-96.037944, 30.627177], [-96.038297, 30.62716], [-96.03834, 30.626794], [-96.039168, 30.626668], [-96.04092, 30.625949], [-96.040671, 30.626493], [-96.040511, 30.626625], [-96.040604, 30.626986], [-96.040756, 30.627016], [-96.040993, 30.627287], [-96.041123, 30.627343], [-96.041335, 30.627283], [-96.041497, 30.627122], [-96.041762, 30.626681], [-96.042051, 30.626581], [-96.042877, 30.626541], [-96.042993, 30.626381], [-96.043, 30.625757], [-96.043358, 30.62557], [-96.042991, 30.625407], [-96.04318, 30.624911], [-96.043129, 30.624581], [-96.042993, 30.624361], [-96.042562, 30.624308], [-96.042562, 30.62403], [-96.042265, 30.623523], [-96.041943, 30.623167], [-96.042014, 30.623074], [-96.041978, 30.622865], [-96.04231, 30.622655], [-96.042478, 30.622672], [-96.042404, 30.622759], [-96.04314, 30.62344], [-96.043432, 30.623222], [-96.043826, 30.623286], [-96.043613, 30.623708], [-96.044107, 30.624238], [-96.04424, 30.62484], [-96.04449, 30.62531], [-96.044678, 30.625333], [-96.045985, 30.624912], [-96.046163, 30.624488], [-96.045962, 30.624014], [-96.045944, 30.623639], [-96.046128, 30.623131], [-96.046993, 30.621694], [-96.047417, 30.621646], [-96.047497, 30.622287], [-96.047782, 30.622553], [-96.048749, 30.623101], [-96.049621, 30.623399], [-96.050159, 30.623669], [-96.050446, 30.624165], [-96.050362, 30.624697], [-96.050014, 30.625291], [-96.050042, 30.625461], [-96.050666, 30.62584], [-96.050777, 30.625575], [-96.050681, 30.625229], [-96.050842, 30.624965], [-96.051232, 30.624702], [-96.052659, 30.624128], [-96.053029, 30.624082], [-96.053402, 30.624355], [-96.053626, 30.624674], [-96.053703, 30.625234], [-96.053812, 30.625433], [-96.054037, 30.62551], [-96.054289, 30.625318], [-96.05432, 30.624964], [-96.05392, 30.62431], [-96.05308, 30.623301], [-96.052699, 30.623046], [-96.051962, 30.6228], [-96.051679, 30.622357], [-96.051524, 30.62178], [-96.051349, 30.621469], [-96.050858, 30.621072], [-96.050739, 30.619819], [-96.050624, 30.619441], [-96.050741, 30.619193], [-96.05276, 30.617907], [-96.053165, 30.617811], [-96.053602, 30.61805], [-96.054051, 30.617919], [-96.054151, 30.617758], [-96.055014, 30.617488], [-96.05517, 30.617352], [-96.05533, 30.616961], [-96.055262, 30.616597], [-96.054829, 30.616377], [-96.05538, 30.615626], [-96.055408, 30.615397], [-96.055637, 30.615215], [-96.055712, 30.614914], [-96.055615, 30.614882], [-96.055561, 30.614744], [-96.055743, 30.614576], [-96.06448, 30.609958], [-96.065807, 30.609502], [-96.066876, 30.609364], [-96.066676, 30.610602], [-96.066503, 30.610873], [-96.06637, 30.6109], [-96.066356, 30.61116], [-96.066575, 30.611255], [-96.066638, 30.611209], [-96.067586, 30.611578], [-96.067657, 30.611516], [-96.067501, 30.611248], [-96.067675, 30.611029], [-96.067593, 30.610616], [-96.06787, 30.610215], [-96.068482, 30.61009], [-96.068398, 30.609785], [-96.06856, 30.609405], [-96.068479, 30.609316], [-96.068508, 30.609218], [-96.069513, 30.609387], [-96.069424, 30.609581], [-96.069586, 30.609831], [-96.070515, 30.610219], [-96.070722, 30.610234], [-96.070866, 30.61044], [-96.071042, 30.610472], [-96.071269, 30.610731], [-96.071611, 30.610902], [-96.072091, 30.611317], [-96.072703, 30.611086], [-96.072891, 30.611076], [-96.073076, 30.611201], [-96.073256, 30.611183], [-96.07354, 30.611295], [-96.073627, 30.611403], [-96.074433, 30.611723], [-96.074572, 30.611992], [-96.074598, 30.612457], [-96.074513, 30.613052], [-96.074009, 30.613418], [-96.073572, 30.61362], [-96.073231, 30.613683], [-96.073145, 30.614191], [-96.073591, 30.614298], [-96.073631, 30.614472], [-96.073328, 30.61468], [-96.073063, 30.615858], [-96.073335, 30.616309], [-96.073658, 30.616634], [-96.074221, 30.61699], [-96.074968, 30.617205], [-96.075065, 30.617288], [-96.075181, 30.61768], [-96.075452, 30.617648], [-96.075766, 30.617791], [-96.075643, 30.617905], [-96.076222, 30.61821], [-96.075753, 30.61939], [-96.074629, 30.619159], [-96.072086, 30.618452], [-96.071986, 30.618511], [-96.072023, 30.618833], [-96.072272, 30.61932], [-96.07281, 30.619952], [-96.073131, 30.62017], [-96.073914, 30.621072], [-96.074034, 30.621521], [-96.074954, 30.623247], [-96.075726, 30.623539], [-96.0763, 30.623543], [-96.076999, 30.623791], [-96.077118, 30.623725], [-96.077205, 30.623759], [-96.077153, 30.623931], [-96.077341, 30.624089], [-96.077695, 30.623867], [-96.077455, 30.624199], [-96.077337, 30.624241], [-96.077382, 30.62447], [-96.077108, 30.624645], [-96.077111, 30.624792], [-96.07652, 30.624897], [-96.076526, 30.625119], [-96.075824, 30.6257], [-96.075849, 30.626205], [-96.076103, 30.626349], [-96.078247, 30.626041], [-96.078356, 30.625396], [-96.078637, 30.625526], [-96.079098, 30.625367], [-96.079552, 30.625766], [-96.079554, 30.62588], [-96.079284, 30.626068], [-96.079086, 30.626313], [-96.079013, 30.62667], [-96.079068, 30.627138], [-96.079125, 30.627229], [-96.079227, 30.627215], [-96.079287, 30.62728], [-96.07915, 30.627457], [-96.079377, 30.628144], [-96.079894, 30.6286], [-96.080056, 30.628618], [-96.080106, 30.62853], [-96.080267, 30.628626], [-96.080405, 30.628445], [-96.080542, 30.628507], [-96.080537, 30.628737], [-96.080777, 30.628749], [-96.080593, 30.628872], [-96.080697, 30.628925], [-96.08017, 30.628927], [-96.080043, 30.629066], [-96.080137, 30.629473], [-96.080334, 30.629559], [-96.080632, 30.629527], [-96.080842, 30.629654], [-96.08098, 30.629586], [-96.081316, 30.629841], [-96.082014, 30.629665], [-96.081823, 30.630033], [-96.080748, 30.63035], [-96.07924, 30.630297], [-96.079213, 30.630617], [-96.079462, 30.630915], [-96.082057, 30.6323], [-96.082358, 30.632749], [-96.083095, 30.633346], [-96.083085, 30.634171], [-96.083677, 30.63417], [-96.084235, 30.633936], [-96.084281, 30.633733]]]}}
  ]
}
