{
  "type": "FeatureCollection",
  "features": [
    {"type": "Feature",
     "properties": {"name": "SpaceX Reinvestment Zone No. 01-2026-001", "approved_date": "2026-06-03", "acres": 22464, "source": "Grimes County Commissioners Court order of June 3, 2026; parcel shapes from TxGIO stratmap25-landparcels_48185_lp", "description": "Outline of 193 of the 194 parcels listed in the county order. The order lists 22,435.09 acres; the figure here is measured from the mapped outline. Left off: listed land far from the rest that is on none of the county's maps. Approximate, not a survey."},
     "geometry": {"type":"MultiPolygon","coordinates":[[[[-96.06076,30.578339],[-96.061585,30.578645],[-96.064994,30.579492],[-96.065689,30.579909],[-96.067734,30.581574],[-96.06885,30.58218],[-96.069799,30.58281],[-96.064701,30.582919],[-96.064849,30.588363],[-96.065126,30.590104],[-96.065444,30.594546],[-96.045954,30.595203],[-96.041488,30.595303],[-96.041451,30.595218],[-96.038557,30.595283],[-96.03717,30.595413],[-96.033239,30.595448],[-96.030269,30.595313],[-96.02796,30.595083],[-96.018538,30.594365],[-96.018428,30.588651],[-96.017193,30.588051],[-96.018178,30.58628],[-96.016891,30.584607],[-96.015001,30.586222],[-96.009032,30.586144],[-96.008894,30.582848],[-96.008545,30.582854],[-96.007274,30.582877],[-96.021027,30.565741],[-96.024909,30.565632],[-96.044995,30.565354],[-96.044909,30.563795],[-96.050207,30.569294],[-96.05258,30.572006],[-96.05266,30.573803],[-96.054437,30.573744],[-96.054419,30.573278],[-96.055237,30.573481],[-96.056056,30.573945],[-96.058242,30.576385],[-96.059509,30.577547],[-96.060227,30.578056],[-96.06076,30.578339]]],[[[-96.085386,30.599714],[-96.085253,30.594805],[-96.086872,30.594879],[-96.087018,30.601011],[-96.085386,30.599714]]],[[[-95.966741,30.608101],[-95.966844,30.612117],[-95.966757,30.608107],[-95.969758,30.608071],[-95.970705,30.608826],[-95.973117,30.608478],[-95.972932,30.603643],[-95.97637,30.602473],[-95.975043,30.599541],[-95.971777,30.592844],[-95.976369,30.591337],[-95.976562,30.592017],[-95.977153,30.591932],[-95.977582,30.594682],[-95.979738,30.594447],[-95.979461,30.592404],[-95.9786,30.592444],[-95.978424,30.59116],[-95.980188,30.591311],[-95.980908,30.5928],[-95.98325,30.596772],[-95.98401,30.59865],[-95.98653,30.597835],[-95.988826,30.602866],[-95.991819,30.602851],[-95.991801,30.602432],[-95.993465,30.600426],[-95.992719,30.599021],[-95.99392,30.598407],[-95.995356,30.59788],[-95.996755,30.596111],[-95.993656,30.59644],[-95.990747,30.592243],[-95.996888,30.592757],[-96.002001,30.593294],[-96.005062,30.593456],[-96.009515,30.593864],[-96.013822,30.594218],[-96.015944,30.594499],[-96.025418,30.595219],[-96.032765,30.595866],[-96.036256,30.595721],[-96.037163,30.595952],[-96.041882,30.5959],[-96.042844,30.595538],[-96.05112,30.595325],[-96.051472,30.608015],[-96.051596,30.608011],[-96.051585,30.605973],[-96.051232,30.595304],[-96.053657,30.595234],[-96.054572,30.595278],[-96.05466,30.597448],[-96.063556,30.597178],[-96.063491,30.59518],[-96.065746,30.595151],[-96.072415,30.594882],[-96.076276,30.594777],[-96.077431,30.594857],[-96.076872,30.601762],[-96.077388,30.595441],[-96.078587,30.595522],[-96.07958,30.595996],[-96.080376,30.596538],[-96.079847,30.602882],[-96.080162,30.602903],[-96.080229,30.602005],[-96.081495,30.602072],[-96.081681,30.600046],[-96.081455,30.599672],[-96.082468,30.599728],[-96.082673,30.597996],[-96.08386,30.598836],[-96.086892,30.601228],[-96.08695,30.601326],[-96.08712,30.6049],[-96.090804,30.604846],[-96.091976,30.606328],[-96.09288,30.607306],[-96.093305,30.608159],[-96.092698,30.608368],[-96.09292,30.608897],[-96.093548,30.608695],[-96.094364,30.61053],[-96.094617,30.611579],[-96.096011,30.619019],[-96.096336,30.62332],[-96.096417,30.627941],[-96.096478,30.628338],[-96.091613,30.628176],[-96.090787,30.628029],[-96.090023,30.627719],[-96.089367,30.627266],[-96.088862,30.626708],[-96.088516,30.626066],[-96.08098,30.629586],[-96.081316,30.629841],[-96.082014,30.629665],[-96.081823,30.630033],[-96.080748,30.63035],[-96.07924,30.630297],[-96.079213,30.630617],[-96.079462,30.630915],[-96.082057,30.6323],[-96.082358,30.632749],[-96.083095,30.633346],[-96.083085,30.634171],[-96.083677,30.63417],[-96.084235,30.633936],[-96.084281,30.633733],[-96.084617,30.633463],[-96.084463,30.633626],[-96.084604,30.633798],[-96.084906,30.633751],[-96.084804,30.633972],[-96.084629,30.633957],[-96.084241,30.6347],[-96.084337,30.635003],[-96.084854,30.635201],[-96.086362,30.635227],[-96.086698,30.635403],[-96.087265,30.635446],[-96.087739,30.634983],[-96.088018,30.635068],[-96.087808,30.635196],[-96.087861,30.63531],[-96.088074,30.6353],[-96.087447,30.635846],[-96.087146,30.635853],[-96.088933,30.636736],[-96.089193,30.636532],[-96.089851,30.636458],[-96.090104,30.636516],[-96.090215,30.636835],[-96.089347,30.63733],[-96.089447,30.63784],[-96.089401,30.637971],[-96.089757,30.63889],[-96.090149,30.63933],[-96.090577,30.639588],[-96.090943,30.639646],[-96.091316,30.639611],[-96.092355,30.64005],[-96.092703,30.64072],[-96.093811,30.641181],[-96.093875,30.641304],[-96.093978,30.641288],[-96.093967,30.641396],[-96.094275,30.641388],[-96.094715,30.641693],[-96.099036,30.640886],[-96.100473,30.640289],[-96.101163,30.640285],[-96.101275,30.6431],[-96.100236,30.643119],[-96.099396,30.643572],[-96.099377,30.644385],[-96.099541,30.645337],[-96.092884,30.645499],[-96.093047,30.647722],[-96.090701,30.647727],[-96.090651,30.64231],[-96.090262,30.642504],[-96.089498,30.642571],[-96.08889,30.642398],[-96.08831,30.64182],[-96.088146,30.641734],[-96.087941,30.641742],[-96.087938,30.641625],[-96.086917,30.64109],[-96.085724,30.640739],[-96.085331,30.640491],[-96.085087,30.640025],[-96.084777,30.640062],[-96.084386,30.640357],[-96.08381,30.640436],[-96.083882,30.640337],[-96.077484,30.640386],[-96.077831,30.641131],[-96.077817,30.641613],[-96.077408,30.642588],[-96.07755,30.646234],[-96.077458,30.646513],[-96.076077,30.646548],[-96.075798,30.649888],[-96.061069,30.649985],[-96.061095,30.657171],[-96.06018,30.657178],[-96.060123,30.657836],[-96.060001,30.658023],[-96.059255,30.658047],[-96.059108,30.658248],[-96.060073,30.658778],[-96.060219,30.658738],[-96.060486,30.659071],[-96.060728,30.659178],[-96.060744,30.659323],[-96.060449,30.659577],[-96.060125,30.659488],[-96.060025,30.659553],[-96.059905,30.660317],[-96.059778,30.660397],[-96.059518,30.660294],[-96.059298,30.660351],[-96.059071,30.660677],[-96.059113,30.660757],[-96.052828,30.660838],[-96.052904,30.662892],[-96.030224,30.663133],[-96.028646,30.66324],[-96.013264,30.663631],[-96.008422,30.663656],[-96.008175,30.655864],[-96.008218,30.64685],[-96.00816,30.645071],[-96.002136,30.64523],[-96.001867,30.642002],[-96.007946,30.641508],[-96.008126,30.644504],[-96.013633,30.644247],[-96.019296,30.644083],[-96.020863,30.644249],[-96.021979,30.644478],[-96.023954,30.645013],[-96.02537,30.645719],[-96.025639,30.645687],[-96.02585,30.645464],[-96.02625,30.645227],[-96.0304,30.645293],[-96.030406,30.645159],[-96.026046,30.645121],[-96.025576,30.645507],[-96.025385,30.645567],[-96.024263,30.644966],[-96.022867,30.644546],[-96.021446,30.644203],[-96.01924,30.643921],[-96.008506,30.644147],[-96.007871,30.637005],[-96.007888,30.634958],[-96.007983,30.634848],[-96.012918,30.634762],[-96.012917,30.634743],[-96.012915,30.634673],[-96.00751,30.634684],[-96.007678,30.634694],[-96.007657,30.637073],[-96.007976,30.641385],[-96.001558,30.641878],[-95.998341,30.642049],[-95.997418,30.641845],[-95.997052,30.641875],[-95.996143,30.642189],[-95.993391,30.642196],[-95.992996,30.642126],[-95.992611,30.641916],[-95.991977,30.640925],[-95.990855,30.639622],[-95.990134,30.639453],[-95.989605,30.639414],[-95.987104,30.639566],[-95.986142,30.639763],[-95.98506,30.639775],[-95.984794,30.6397],[-95.983761,30.639635],[-95.982867,30.639701],[-95.982038,30.639864],[-95.981326,30.626271],[-95.980945,30.625997],[-95.981402,30.625237],[-95.981782,30.625071],[-95.982352,30.624939],[-95.984614,30.624744],[-95.986407,30.625208],[-95.991842,30.625074],[-95.996212,30.625074],[-95.997188,30.624921],[-95.997585,30.624956],[-95.997656,30.62509],[-95.998203,30.625025],[-96.000485,30.62497],[-96.001129,30.624777],[-96.006871,30.624433],[-96.012149,30.624351],[-96.006869,30.624427],[-96.005641,30.624497],[-96.006057,30.624222],[-96.006561,30.623755],[-96.006688,30.623551],[-96.006917,30.622442],[-96.007113,30.622395],[-96.007421,30.622447],[-96.010082,30.623198],[-96.009597,30.622877],[-96.006843,30.622199],[-96.006771,30.622197],[-96.006379,30.623608],[-96.005667,30.624236],[-96.003658,30.624461],[-96.001077,30.624653],[-95.999433,30.624865],[-95.996695,30.624811],[-95.996394,30.624877],[-95.994711,30.624954],[-95.991332,30.624964],[-95.9863,30.625091],[-95.984719,30.624626],[-95.984443,30.624607],[-95.981934,30.624886],[-95.981375,30.625029],[-95.980765,30.625991],[-95.980772,30.62612],[-95.981185,30.626396],[-95.98162,30.633435],[-95.981891,30.639955],[-95.9762,30.640153],[-95.972389,30.640167],[-95.970261,30.640256],[-95.970214,30.640481],[-95.970471,30.64675],[-95.970336,30.646922],[-95.970146,30.646972],[-95.967708,30.647013],[-95.963104,30.64704],[-95.963142,30.64412],[-95.960595,30.643719],[-95.960084,30.629183],[-95.954621,30.630899],[-95.953785,30.626044],[-95.959994,30.62394],[-95.959761,30.619376],[-95.958128,30.619914],[-95.957396,30.618282],[-95.954088,30.618999],[-95.952732,30.619777],[-95.951518,30.613069],[-95.954614,30.61203],[-95.955595,30.614214],[-95.958982,30.614934],[-95.959503,30.614918],[-95.960324,30.614655],[-95.961304,30.614158],[-95.961253,30.612284],[-95.965279,30.612164],[-95.965061,30.60816],[-95.966741,30.608101]],[[-96.006525,30.612699],[-96.006162,30.602532],[-96.006843,30.622199],[-96.006525,30.612699]],[[-95.976032,30.633535],[-95.975967,30.631255],[-95.972629,30.631315],[-95.972694,30.633596],[-95.970028,30.633678],[-95.976032,30.633535]],[[-96.075647,30.637422],[-96.075788,30.637417],[-96.075878,30.63689],[-96.07538,30.636581],[-96.075425,30.636516],[-96.075701,30.63659],[-96.075818,30.636516],[-96.076001,30.636097],[-96.075846,30.635843],[-96.076271,30.635556],[-96.076387,30.634962],[-96.07667,30.634404],[-96.07259,30.63309],[-96.072006,30.633507],[-96.072004,30.633759],[-96.071822,30.633681],[-96.071582,30.633853],[-96.07105,30.633887],[-96.071063,30.634248],[-96.070884,30.63453],[-96.070513,30.63464],[-96.07079,30.63447],[-96.070649,30.633709],[-96.070861,30.633672],[-96.071607,30.632699],[-96.070632,30.632235],[-96.070536,30.632463],[-96.070372,30.632123],[-96.069924,30.631959],[-96.069323,30.63241],[-96.069663,30.631862],[-96.069382,30.631628],[-96.067235,30.630561],[-96.066987,30.630498],[-96.066029,30.630819],[-96.065522,30.631228],[-96.064341,30.634482],[-96.064212,30.63417],[-96.064028,30.633052],[-96.063948,30.632993],[-96.063775,30.633049],[-96.063664,30.633307],[-96.063171,30.633467],[-96.062893,30.633324],[-96.06261,30.633521],[-96.062811,30.633903],[-96.060947,30.635783],[-96.060258,30.635872],[-96.06125,30.637813],[-96.060802,30.638197],[-96.059915,30.637184],[-96.05961,30.637644],[-96.059734,30.638247],[-96.059594,30.638315],[-96.05929,30.637521],[-96.05812,30.63766],[-96.05732,30.638175],[-96.056894,30.638738],[-96.057236,30.639319],[-96.068711,30.644487],[-96.076505,30.64162],[-96.076627,30.640207],[-96.07636,30.640162],[-96.076466,30.639836],[-96.076385,30.639774],[-96.076173,30.639819],[-96.075437,30.639359],[-96.075028,30.639334],[-96.074889,30.639154],[-96.075152,30.639122],[-96.075398,30.638734],[-96.075324,30.637795],[-96.075499,30.637682],[-96.075647,30.637422]],[[-95.99092,30.62865],[-95.990128,30.628671],[-95.990088,30.632481],[-95.990998,30.632436],[-95.99092,30.62865]]],[[[-95.970638,30.64683],[-95.970382,30.640462],[-95.970469,30.640371],[-95.981962,30.640127],[-95.982633,30.639928],[-95.983189,30.639851],[-95.984599,30.639839],[-95.985091,30.639939],[-95.985743,30.639878],[-95.986322,30.639909],[-95.987117,30.639733],[-95.989831,30.639598],[-95.99049,30.63968],[-95.990843,30.639823],[-95.992533,30.642041],[-95.992652,30.642177],[-95.992953,30.642298],[-95.996259,30.642274],[-95.997276,30.641989],[-95.998108,30.642178],[-96.001867,30.642002],[-96.002199,30.64691],[-95.996302,30.646972],[-95.987551,30.647299],[-95.98762,30.649345],[-95.98216,30.649505],[-95.982118,30.646702],[-95.970484,30.647045],[-95.970638,30.64683]],[[-95.982056,30.642066],[-95.98209,30.643471],[-95.98486,30.64346],[-95.984832,30.641954],[-95.982056,30.642066]]]]}}
  ]
}
