{
  "type": "FeatureCollection",
  "features": [
    {"type": "Feature", "properties": {"name": "Navasota River near Easterly", "description": "Flow on Oct 9: 6.8 cubic feet per second, about 77% of normal for early October", "Compared with normal": "Normal", "status": "Normal", "Latest daily flow (cfs)": 6.75, "Date of that flow": "2026-10-09", "Normal for that day (median, cfs)": 8.8, "Percent of normal": 77, "Years behind that normal": 102, "Lowest daily flow on record (cfs)": 0.0, "Date of the lowest flow": "182 days, most recently 1951-09-09", "Daily flow record": "1924 to 2026, 37,450 days", "Where": "Far upstream, below Lake Limestone. The longest flow record on the river. About 37 miles in a straight line from the pump station.", "USGS site number": "08110500", "url": "https://waterdata.usgs.gov/monitoring-location/USGS-08110500/", "link": "Open the USGS gauge page", "id": "08110500"}, "geometry": {"type": "Point", "coordinates": [-96.297766, 31.170187]}},
    {"type": "Feature", "properties": {"name": "Navasota River at Old San Antonio Road near Bryan", "description": "Flow on Oct 9: 15.6 cubic feet per second, about 82% of normal for early October", "Compared with normal": "Normal", "status": "Normal", "Latest daily flow (cfs)": 15.6, "Date of that flow": "2026-10-09", "Normal for that day (median, cfs)": 19.0, "Percent of normal": 82, "Years behind that normal": 29, "Lowest daily flow on record (cfs)": 3.37, "Date of the lowest flow": "2011-10-30", "Daily flow record": "1997 to 2026, 10,784 days", "Where": "The nearest gauge upstream of the Navasota River pump station. About 23 miles in a straight line from the pump station.", "USGS site number": "08110800", "url": "https://waterdata.usgs.gov/monitoring-location/USGS-08110800/", "link": "Open the USGS gauge page", "id": "08110800"}, "geometry": {"type": "Point", "coordinates": [-96.241627, 30.973799]}},
    {"type": "Feature", "properties": {"name": "Navasota River at State Highway 6 near Navasota", "description": "The river is below the level where this gauge measures flow. It last did on Oct 5, 2026", "status": "Measures flow only in high water", "River level (feet on the gauge)": 151.39, "Date of that level": "2026-10-10", "Flow is measured": "Only in high water. The lowest daily flow it has reported is 157 cubic feet per second, so it cannot show how low the river gets", "Days with a flow value": "800 since 2022, worked out from the gauge's 5 minute readings", "Where": "Downstream of the pump station and of Gibbons Creek. About 17 miles in a straight line from the pump station.", "USGS site number": "08111070", "url": "https://waterdata.usgs.gov/monitoring-location/USGS-08111070/", "link": "Open the USGS gauge page", "id": "08111070"}, "geometry": {"type": "Point", "coordinates": [-96.106617, 30.418403]}},
    {"type": "Feature", "properties": {"name": "Gibbons Creek Reservoir", "description": "87.7% full on Oct 10, 2026", "status": "Reservoir level", "Percent full": 87.7, "Water level (feet above sea level)": 245.71, "Usable water stored (acre-feet)": 22560, "Usable water stored (gallons)": "7.4 billion", "Usable storage when full (acre-feet)": 25721, "Surface area (acres)": 2291, "A year earlier": "98.4% full", "Lowest since 2017": "68.8% full on Oct 24, 2022", "Date of these readings": "2026-10-10", "url": "https://www.waterdatafortexas.org/reservoirs/individual/gibbons-creek", "link": "Open the Water Data for Texas page", "id": "gibbons-creek-reservoir"}, "geometry": {"type": "Point", "coordinates": [-96.065406, 30.609414]}}
  ]
}
