{
  "type": "FeatureCollection",
  "features": [
    {"type": "Feature", "properties": {"name": "SH 30", "description": "Average vehicles per day, both directions", "Station": "94D1", "AADT 2025": 5070, "AADT 2024": 5552, "AADT 2023": 5153, "AADT 2022": 5252, "AADT 2021": 5062}, "geometry": {"type": "Point", "coordinates": [-95.835556, 30.657362]}},
    {"type": "Feature", "properties": {"name": "SH 105", "description": "Average vehicles per day, both directions", "Station": "94D2", "AADT 2025": 7204, "AADT 2024": 7649, "AADT 2023": 7245, "AADT 2022": 14180, "AADT 2021": 12530}, "geometry": {"type": "Point", "coordinates": [-95.943723, 30.362149]}},
    {"type": "Feature", "properties": {"name": "SH 105", "description": "Average vehicles per day, both directions", "Station": "94D3", "AADT 2025": 16411, "AADT 2024": 17383, "AADT 2023": 9445, "AADT 2022": 14820, "AADT 2021": 13095}, "geometry": {"type": "Point", "coordinates": [-95.989555, 30.353619]}},
    {"type": "Feature", "properties": {"name": "SH 6", "description": "Average vehicles per day, both directions", "Station": "94D4", "AADT 2025": 29353, "AADT 2024": 31390, "AADT 2023": 25457, "AADT 2022": 27961, "AADT 2021": 26356}, "geometry": {"type": "Point", "coordinates": [-96.045193, 30.287379]}},
    {"type": "Feature", "properties": {"name": "SH 6", "description": "Average vehicles per day, both directions", "Station": "94D5", "AADT 2025": 29011, "AADT 2024": 33793, "AADT 2023": 27520, "AADT 2022": 27891, "AADT 2021": 26290}, "geometry": {"type": "Point", "coordinates": [-96.047365, 30.330748]}},
    {"type": "Feature", "properties": {"name": "FM 1486", "description": "Average vehicles per day, both directions", "Station": "94D10", "AADT 2025": 1578, "AADT 2024": 1545, "AADT 2023": 1022, "AADT 2022": 768, "AADT 2021": 768}, "geometry": {"type": "Point", "coordinates": [-95.840773, 30.517464]}},
    {"type": "Feature", "properties": {"name": "SH 6", "description": "Average vehicles per day, both directions", "Station": "94D67AEBSR", "AADT 2025": 969, "AADT 2024": 883, "AADT 2023": 883, "AADT 2022": 1052}, "geometry": {"type": "Point", "coordinates": [-96.087853, 30.408215]}},
    {"type": "Feature", "properties": {"name": "SH 6", "description": "Average vehicles per day, both directions", "Station": "94D67AWBSR", "AADT 2025": 976, "AADT 2023": 758, "AADT 2022": 768}, "geometry": {"type": "Point", "coordinates": [-96.087112, 30.409566]}},
    {"type": "Feature", "properties": {"name": "SH 90", "description": "Average vehicles per day, both directions", "Station": "94H1", "AADT 2025": 8986, "AADT 2024": 8108, "AADT 2023": 7700, "AADT 2022": 6874, "AADT 2021": 6874}, "geometry": {"type": "Point", "coordinates": [-95.989522, 30.496266]}},
    {"type": "Feature", "properties": {"name": "SH 30", "description": "Average vehicles per day, both directions", "Station": "94H2", "AADT 2025": 7702, "AADT 2024": 7325, "AADT 2023": 7201, "AADT 2022": 7499, "AADT 2021": 7228}, "geometry": {"type": "Point", "coordinates": [-95.943042, 30.584249]}},
    {"type": "Feature", "properties": {"name": "FM 2562", "description": "Average vehicles per day, both directions", "Station": "94H3", "AADT 2025": 1605, "AADT 2024": 1580, "AADT 2023": 1165, "AADT 2022": 929, "AADT 2021": 929}, "geometry": {"type": "Point", "coordinates": [-95.934139, 30.583283]}},
    {"type": "Feature", "properties": {"name": "SH 30", "description": "Average vehicles per day, both directions", "Station": "94H4", "AADT 2025": 5867, "AADT 2024": 5911, "AADT 2023": 5980, "AADT 2022": 5874, "AADT 2021": 5662}, "geometry": {"type": "Point", "coordinates": [-95.925002, 30.591272]}},
    {"type": "Feature", "properties": {"name": "SH 90", "description": "Average vehicles per day, both directions", "Station": "94H5", "AADT 2025": 5575, "AADT 2024": 6251, "AADT 2023": 4780, "AADT 2022": 4706, "AADT 2021": 4706}, "geometry": {"type": "Point", "coordinates": [-95.946736, 30.595094]}},
    {"type": "Feature", "properties": {"name": "SH 90", "description": "Average vehicles per day, both directions", "Station": "94H6", "AADT 2025": 4395, "AADT 2024": 5630, "AADT 2023": 4493, "AADT 2022": 4267, "AADT 2021": 4267}, "geometry": {"type": "Point", "coordinates": [-95.959139, 30.653035]}},
    {"type": "Feature", "properties": {"name": "SH 90", "description": "Average vehicles per day, both directions", "Station": "94H7", "AADT 2025": 3744, "AADT 2024": 4839, "AADT 2023": 3323, "AADT 2022": 3419, "AADT 2021": 3419}, "geometry": {"type": "Point", "coordinates": [-95.952031, 30.759845]}},
    {"type": "Feature", "properties": {"name": "SH 90", "description": "Average vehicles per day, both directions", "Station": "94H8", "AADT 2025": 5490, "AADT 2024": 6161, "AADT 2023": 4894, "AADT 2022": 4743, "AADT 2021": 4743}, "geometry": {"type": "Point", "coordinates": [-95.949976, 30.774886]}},
    {"type": "Feature", "properties": {"name": "SH 90", "description": "Average vehicles per day, both directions", "Station": "94H9", "AADT 2025": 4281, "AADT 2024": 5318, "AADT 2023": 4409, "AADT 2022": 3535, "AADT 2021": 3535}, "geometry": {"type": "Point", "coordinates": [-95.948611, 30.801413]}},
    {"type": "Feature", "properties": {"name": "FM 1696", "description": "Average vehicles per day, both directions", "Station": "94H10", "AADT 2025": 2255, "AADT 2024": 2590, "AADT 2023": 1138, "AADT 2022": 1931}, "geometry": {"type": "Point", "coordinates": [-95.949278, 30.775595]}},
    {"type": "Feature", "properties": {"name": "FM 1696", "description": "Average vehicles per day, both directions", "Station": "94H11", "AADT 2025": 1591, "AADT 2024": 1710, "AADT 2023": 1512, "AADT 2022": 1436}, "geometry": {"type": "Point", "coordinates": [-95.945191, 30.776898]}},
    {"type": "Feature", "properties": {"name": "FM 2620", "description": "Average vehicles per day, both directions", "Station": "94H12", "AADT 2025": 865, "AADT 2024": 1101, "AADT 2023": 699, "AADT 2022": 676, "AADT 2021": 676}, "geometry": {"type": "Point", "coordinates": [-95.943952, 30.773703]}},
    {"type": "Feature", "properties": {"name": "FM 2620", "description": "Average vehicles per day, both directions", "Station": "94H13", "AADT 2025": 663, "AADT 2024": 850, "AADT 2023": 510, "AADT 2022": 517, "AADT 2021": 517}, "geometry": {"type": "Point", "coordinates": [-95.891013, 30.684511]}},
    {"type": "Feature", "properties": {"name": "FM 2620", "description": "Average vehicles per day, both directions", "Station": "94H14", "AADT 2025": 765, "AADT 2024": 1187, "AADT 2023": 789, "AADT 2022": 840, "AADT 2021": 840}, "geometry": {"type": "Point", "coordinates": [-95.865081, 30.641798]}},
    {"type": "Feature", "properties": {"name": "SH 30", "description": "Average vehicles per day, both directions", "Station": "94H15", "AADT 2025": 5814, "AADT 2024": 5614, "AADT 2023": 5434, "AADT 2022": 5307, "AADT 2021": 5115}, "geometry": {"type": "Point", "coordinates": [-95.876181, 30.630059]}},
    {"type": "Feature", "properties": {"name": "SH 30", "description": "Average vehicles per day, both directions", "Station": "94H16", "AADT 2025": 6489, "AADT 2024": 6856, "AADT 2023": 6040, "AADT 2022": 5927, "AADT 2021": 5713}, "geometry": {"type": "Point", "coordinates": [-95.887909, 30.613195]}},
    {"type": "Feature", "properties": {"name": "FM 1486", "description": "Average vehicles per day, both directions", "Station": "94H17", "AADT 2025": 1134, "AADT 2024": 1507, "AADT 2023": 806, "AADT 2022": 877, "AADT 2021": 877}, "geometry": {"type": "Point", "coordinates": [-95.883905, 30.608756]}},
    {"type": "Feature", "properties": {"name": "FM 149", "description": "Average vehicles per day, both directions", "Station": "94H18", "AADT 2025": 1413, "AADT 2024": 1560, "AADT 2023": 1241, "AADT 2022": 1321, "AADT 2021": 1103}, "geometry": {"type": "Point", "coordinates": [-95.843402, 30.53752]}},
    {"type": "Feature", "properties": {"name": "FM 149", "description": "Average vehicles per day, both directions", "Station": "94H19", "AADT 2025": 2480, "AADT 2024": 2328, "AADT 2023": 2305, "AADT 2022": 1965, "AADT 2021": 1641}, "geometry": {"type": "Point", "coordinates": [-95.833643, 30.542968]}},
    {"type": "Feature", "properties": {"name": "FM 149", "description": "Average vehicles per day, both directions", "Station": "94H20", "AADT 2025": 1777, "AADT 2024": 1742, "AADT 2023": 1744, "AADT 2022": 1637, "AADT 2021": 1367}, "geometry": {"type": "Point", "coordinates": [-95.851082, 30.541818]}},
    {"type": "Feature", "properties": {"name": "FM 2562", "description": "Average vehicles per day, both directions", "Station": "94H21", "AADT 2025": 271, "AADT 2024": 260, "AADT 2023": 201, "AADT 2022": 160, "AADT 2021": 160}, "geometry": {"type": "Point", "coordinates": [-95.918203, 30.528741]}},
    {"type": "Feature", "properties": {"name": "FM 2562", "description": "Average vehicles per day, both directions", "Station": "94H22", "AADT 2025": 1571, "AADT 2024": 1112, "AADT 2023": 1101, "AADT 2022": 878, "AADT 2021": 878}, "geometry": {"type": "Point", "coordinates": [-95.920519, 30.536562]}},
    {"type": "Feature", "properties": {"name": "FM 149", "description": "Average vehicles per day, both directions", "Station": "94H23", "AADT 2025": 1368, "AADT 2024": 1239, "AADT 2023": 1227, "AADT 2022": 1049, "AADT 2021": 876}, "geometry": {"type": "Point", "coordinates": [-95.922418, 30.530577]}},
    {"type": "Feature", "properties": {"name": "FM 149", "description": "Average vehicles per day, both directions", "Station": "94H24", "AADT 2025": 1792, "AADT 2024": 1416, "AADT 2023": 1289, "AADT 2022": 1490, "AADT 2021": 1244}, "geometry": {"type": "Point", "coordinates": [-95.977769, 30.495324]}},
    {"type": "Feature", "properties": {"name": "Loop 429", "description": "Average vehicles per day, both directions", "Station": "94H25", "AADT 2025": 237, "AADT 2024": 326, "AADT 2023": 215, "AADT 2022": 215, "AADT 2021": 215}, "geometry": {"type": "Point", "coordinates": [-95.98738, 30.490006]}},
    {"type": "Feature", "properties": {"name": "Loop 429", "description": "Average vehicles per day, both directions", "Station": "94H26", "AADT 2025": 571, "AADT 2024": 711, "AADT 2023": 467, "AADT 2022": 467, "AADT 2021": 467}, "geometry": {"type": "Point", "coordinates": [-95.986442, 30.487899]}},
    {"type": "Feature", "properties": {"name": "FM 1774", "description": "Average vehicles per day, both directions", "Station": "94H27", "AADT 2025": 3403, "AADT 2024": 3801, "AADT 2023": 3019, "AADT 2022": 1846, "AADT 2021": 2317}, "geometry": {"type": "Point", "coordinates": [-95.984587, 30.487932]}},
    {"type": "Feature", "properties": {"name": "FM 1774", "description": "Average vehicles per day, both directions", "Station": "94H28", "AADT 2025": 2892, "AADT 2024": 2895, "AADT 2023": 2373, "AADT 2022": 1497, "AADT 2021": 1879}, "geometry": {"type": "Point", "coordinates": [-95.964646, 30.482937]}},
    {"type": "Feature", "properties": {"name": "FM 2819", "description": "Average vehicles per day, both directions", "Station": "94H29", "AADT 2025": 898, "AADT 2024": 1297, "AADT 2023": 728, "AADT 2022": 594, "AADT 2021": 594}, "geometry": {"type": "Point", "coordinates": [-95.960084, 30.489374]}},
    {"type": "Feature", "properties": {"name": "FM 2819", "description": "Average vehicles per day, both directions", "Station": "94H30", "AADT 2025": 708, "AADT 2024": 529, "AADT 2023": 529, "AADT 2022": 432, "AADT 2021": 432}, "geometry": {"type": "Point", "coordinates": [-95.906501, 30.491828]}},
    {"type": "Feature", "properties": {"name": "FM 2819", "description": "Average vehicles per day, both directions", "Station": "94H31", "AADT 2025": 517, "AADT 2024": 769, "AADT 2023": 370, "AADT 2022": 302, "AADT 2021": 302}, "geometry": {"type": "Point", "coordinates": [-95.842303, 30.525487]}},
    {"type": "Feature", "properties": {"name": "FM 1486", "description": "Average vehicles per day, both directions", "Station": "94H32", "AADT 2025": 1375, "AADT 2024": 1828, "AADT 2023": 1116, "AADT 2022": 943, "AADT 2021": 943}, "geometry": {"type": "Point", "coordinates": [-95.841712, 30.531842]}},
    {"type": "Feature", "properties": {"name": "FM 1774", "description": "Average vehicles per day, both directions", "Station": "94H33", "AADT 2025": 2405, "AADT 2024": 2052, "AADT 2023": 2032, "AADT 2022": 1768}, "geometry": {"type": "Point", "coordinates": [-95.89195, 30.412244]}},
    {"type": "Feature", "properties": {"name": "FM 1774", "description": "Average vehicles per day, both directions", "Station": "94H34", "AADT 2025": 2374, "AADT 2024": 2274, "AADT 2023": 1071, "AADT 2022": 1273, "AADT 2021": 1598}, "geometry": {"type": "Point", "coordinates": [-95.880947, 30.404867]}},
    {"type": "Feature", "properties": {"name": "FM 1774", "description": "Average vehicles per day, both directions", "Station": "94H35", "AADT 2025": 3045, "AADT 2024": 2921, "AADT 2023": 2807, "AADT 2022": 1655, "AADT 2021": 2077}, "geometry": {"type": "Point", "coordinates": [-95.870553, 30.34104]}},
    {"type": "Feature", "properties": {"name": "SH 105", "description": "Average vehicles per day, both directions", "Station": "94H36", "AADT 2025": 9144, "AADT 2024": 9764, "AADT 2023": 7990, "AADT 2022": 8772, "AADT 2021": 7751}, "geometry": {"type": "Point", "coordinates": [-95.862884, 30.339811]}},
    {"type": "Feature", "properties": {"name": "FM 1774", "description": "Average vehicles per day, both directions", "Station": "94H37", "AADT 2025": 4770, "AADT 2024": 4718, "AADT 2023": 4717, "AADT 2022": 7818, "AADT 2021": 9812}, "geometry": {"type": "Point", "coordinates": [-95.865509, 30.337215]}},
    {"type": "Feature", "properties": {"name": "FM 1774", "description": "Average vehicles per day, both directions", "Station": "94H38", "AADT 2025": 3824, "AADT 2024": 3782, "AADT 2023": 3850, "AADT 2022": 7109, "AADT 2021": 8922}, "geometry": {"type": "Point", "coordinates": [-95.849126, 30.327936]}},
    {"type": "Feature", "properties": {"name": "SH 105", "description": "Average vehicles per day, both directions", "Station": "94H40", "AADT 2025": 8884, "AADT 2024": 9140, "AADT 2023": 8242, "AADT 2022": 13939, "AADT 2021": 12317}, "geometry": {"type": "Point", "coordinates": [-95.86817, 30.337491]}},
    {"type": "Feature", "properties": {"name": "Spur 234", "description": "Average vehicles per day, both directions", "Station": "94H41", "AADT 2025": 1333, "AADT 2024": 1037, "AADT 2023": 1013, "AADT 2022": 1156, "AADT 2021": 1156}, "geometry": {"type": "Point", "coordinates": [-95.912916, 30.344295]}},
    {"type": "Feature", "properties": {"name": "SH 105", "description": "Average vehicles per day, both directions", "Station": "94H42", "AADT 2025": 7126, "AADT 2024": 7950, "AADT 2023": 7386, "AADT 2022": 14743, "AADT 2021": 13027}, "geometry": {"type": "Point", "coordinates": [-95.914175, 30.348494]}},
    {"type": "Feature", "properties": {"name": "FM 2445", "description": "Average vehicles per day, both directions", "Station": "94H43", "AADT 2025": 651, "AADT 2024": 511, "AADT 2023": 511, "AADT 2022": 413, "AADT 2021": 413}, "geometry": {"type": "Point", "coordinates": [-95.92799, 30.363367]}},
    {"type": "Feature", "properties": {"name": "FM 1748", "description": "Average vehicles per day, both directions", "Station": "94H44", "AADT 2025": 117, "AADT 2024": 197, "AADT 2023": 114, "AADT 2022": 570, "AADT 2021": 570}, "geometry": {"type": "Point", "coordinates": [-95.956235, 30.355778]}},
    {"type": "Feature", "properties": {"name": "SH 105", "description": "Average vehicles per day, both directions", "Station": "94H45", "AADT 2025": 16581, "AADT 2024": 18000, "AADT 2023": 15414, "AADT 2022": 15061, "AADT 2021": 13308}, "geometry": {"type": "Point", "coordinates": [-95.997964, 30.354088]}},
    {"type": "Feature", "properties": {"name": "FM 362", "description": "Average vehicles per day, both directions", "Station": "94H46", "AADT 2025": 1005, "AADT 2024": 1240, "AADT 2023": 1163, "AADT 2022": 1067, "AADT 2021": 1067}, "geometry": {"type": "Point", "coordinates": [-95.98841, 30.349406]}},
    {"type": "Feature", "properties": {"name": "FM 2988", "description": "Average vehicles per day, both directions", "Station": "94H47", "AADT 2025": 593, "AADT 2024": 1056, "AADT 2023": 374, "AADT 2022": 260, "AADT 2021": 260}, "geometry": {"type": "Point", "coordinates": [-95.978195, 30.304858]}},
    {"type": "Feature", "properties": {"name": "FM 362", "description": "Average vehicles per day, both directions", "Station": "94H48", "AADT 2025": 1105, "AADT 2024": 1453, "AADT 2023": 1179, "AADT 2022": 966, "AADT 2021": 966}, "geometry": {"type": "Point", "coordinates": [-95.971969, 30.281479]}},
    {"type": "Feature", "properties": {"name": "FM 362", "description": "Average vehicles per day, both directions", "Station": "94H49", "AADT 2025": 1854, "AADT 2024": 1854, "AADT 2023": 1550, "AADT 2022": 1637, "AADT 2021": 1637}, "geometry": {"type": "Point", "coordinates": [-95.970913, 30.272999]}},
    {"type": "Feature", "properties": {"name": "FM 2", "description": "Average vehicles per day, both directions", "Station": "94H50", "AADT 2025": 1423, "AADT 2024": 859, "AADT 2023": 519, "AADT 2022": 1228}, "geometry": {"type": "Point", "coordinates": [-95.9746, 30.275797]}},
    {"type": "Feature", "properties": {"name": "FM 2", "description": "Average vehicles per day, both directions", "Station": "94H51", "AADT 2025": 1667, "AADT 2024": 949, "AADT 2023": 774, "AADT 2022": 1205}, "geometry": {"type": "Point", "coordinates": [-96.039356, 30.273496]}},
    {"type": "Feature", "properties": {"name": "SH 6", "description": "Average vehicles per day, both directions", "Station": "94H52", "AADT 2025": 28520, "AADT 2024": 28747, "AADT 2023": 27379, "AADT 2022": 27748, "AADT 2021": 26155}, "geometry": {"type": "Point", "coordinates": [-96.041927, 30.264326]}},
    {"type": "Feature", "properties": {"name": "FM 2", "description": "Average vehicles per day, both directions", "Station": "94H53", "AADT 2025": 542, "AADT 2024": 350, "AADT 2023": 321, "AADT 2022": 514}, "geometry": {"type": "Point", "coordinates": [-96.050402, 30.273185]}},
    {"type": "Feature", "properties": {"name": "FM 2", "description": "Average vehicles per day, both directions", "Station": "94H54", "AADT 2025": 31, "AADT 2024": 35, "AADT 2023": 23, "AADT 2022": 42, "AADT 2021": 42}, "geometry": {"type": "Point", "coordinates": [-96.066014, 30.265447]}},
    {"type": "Feature", "properties": {"name": "FM 1227", "description": "Average vehicles per day, both directions", "Station": "94H55", "AADT 2025": 552, "AADT 2024": 577, "AADT 2023": 577, "AADT 2022": 678, "AADT 2021": 428}, "geometry": {"type": "Point", "coordinates": [-96.048615, 30.298308]}},
    {"type": "Feature", "properties": {"name": "SH 6", "description": "Average vehicles per day, both directions", "Station": "94H56", "AADT 2025": 29682, "AADT 2024": 33943, "AADT 2023": 27021, "AADT 2022": 27385, "AADT 2021": 25813}, "geometry": {"type": "Point", "coordinates": [-96.0457, 30.302214]}},
    {"type": "Feature", "properties": {"name": "FM 2988", "description": "Average vehicles per day, both directions", "Station": "94H57", "AADT 2025": 815, "AADT 2024": 1408, "AADT 2023": 611, "AADT 2022": 425, "AADT 2021": 425}, "geometry": {"type": "Point", "coordinates": [-96.042431, 30.309219]}},
    {"type": "Feature", "properties": {"name": "Bus. SH 6S", "description": "Average vehicles per day, both directions", "Station": "94H58", "AADT 2025": 2711, "AADT 2024": 2383, "AADT 2023": 1838, "AADT 2022": 1920, "AADT 2021": 1887}, "geometry": {"type": "Point", "coordinates": [-96.054333, 30.345645]}},
    {"type": "Feature", "properties": {"name": "SH 6", "description": "Average vehicles per day, both directions", "Station": "94H59", "AADT 2025": 28061, "AADT 2024": 23636, "AADT 2023": 24621, "AADT 2022": 31745, "AADT 2021": 29923}, "geometry": {"type": "Point", "coordinates": [-96.05137, 30.345085]}},
    {"type": "Feature", "properties": {"name": "SH 6", "description": "Average vehicles per day, both directions", "Station": "94H59SBSR", "AADT 2025": 115, "AADT 2024": 123, "AADT 2023": 123, "AADT 2022": 108, "AADT 2021": 102}, "geometry": {"type": "Point", "coordinates": [-96.052115, 30.345087]}},
    {"type": "Feature", "properties": {"name": "SH 105", "description": "Average vehicles per day, both directions", "Station": "94H60", "AADT 2025": 19437, "AADT 2024": 20783, "AADT 2023": 18090, "AADT 2022": 15973, "AADT 2021": 14114}, "geometry": {"type": "Point", "coordinates": [-96.06079, 30.376013]}},
    {"type": "Feature", "properties": {"name": "Spur 515", "description": "Average vehicles per day, both directions", "Station": "94H61", "AADT 2025": 6214, "AADT 2024": 8286, "AADT 2023": 8204, "AADT 2022": 4679, "AADT 2021": 4679}, "geometry": {"type": "Point", "coordinates": [-96.069857, 30.376239]}},
    {"type": "Feature", "properties": {"name": "Bus. SH 6S", "description": "Average vehicles per day, both directions", "Station": "94H62", "AADT 2025": 2625, "AADT 2024": 2978, "AADT 2023": 2949, "AADT 2022": 2831, "AADT 2021": 2783}, "geometry": {"type": "Point", "coordinates": [-96.081411, 30.371592]}},
    {"type": "Feature", "properties": {"name": "FM 379", "description": "Average vehicles per day, both directions", "Station": "94H63", "AADT 2025": 2644, "AADT 2024": 3257, "AADT 2023": 3225, "AADT 2022": 1970}, "geometry": {"type": "Point", "coordinates": [-96.089751, 30.371395]}},
    {"type": "Feature", "properties": {"name": "FM 379", "description": "Average vehicles per day, both directions", "Station": "94H64", "AADT 2025": 3332, "AADT 2024": 3864, "AADT 2023": 3826, "AADT 2022": 2349}, "geometry": {"type": "Point", "coordinates": [-96.091372, 30.372516]}},
    {"type": "Feature", "properties": {"name": "SH 105", "description": "Average vehicles per day, both directions", "Station": "94H65", "AADT 2025": 8976, "AADT 2024": 10672, "AADT 2023": 10407, "AADT 2022": 9150, "AADT 2021": 8085}, "geometry": {"type": "Point", "coordinates": [-96.107742, 30.379471]}},
    {"type": "Feature", "properties": {"name": "Bus. SH 6S", "description": "Average vehicles per day, both directions", "Station": "94H66", "AADT 2025": 6307, "AADT 2024": 6620, "AADT 2023": 6554, "AADT 2022": 6373, "AADT 2021": 5450}, "geometry": {"type": "Point", "coordinates": [-96.100152, 30.408305]}},
    {"type": "Feature", "properties": {"name": "SH 6", "description": "Average vehicles per day, both directions", "Station": "94H67", "AADT 2025": 42659, "AADT 2024": 35723, "AADT 2023": 34263, "AADT 2022": 34725, "AADT 2021": 32732}, "geometry": {"type": "Point", "coordinates": [-96.092108, 30.410788]}},
    {"type": "Feature", "properties": {"name": "SH 6", "description": "Average vehicles per day, both directions", "Station": "94H67EBSR", "AADT 2025": 212, "AADT 2024": 219, "AADT 2023": 219, "AADT 2022": 204, "AADT 2021": 192}, "geometry": {"type": "Point", "coordinates": [-96.092273, 30.410328]}},
    {"type": "Feature", "properties": {"name": "FM 3090", "description": "Average vehicles per day, both directions", "Station": "94H68", "AADT 2025": 2719, "AADT 2024": 3421, "AADT 2023": 3387, "AADT 2022": 2381}, "geometry": {"type": "Point", "coordinates": [-96.085644, 30.405593]}},
    {"type": "Feature", "properties": {"name": "FM 3090", "description": "Average vehicles per day, both directions", "Station": "94H69", "AADT 2025": 1944, "AADT 2024": 2159, "AADT 2023": 1893, "AADT 2022": 1464, "AADT 2021": 1464}, "geometry": {"type": "Point", "coordinates": [-96.077725, 30.41815]}},
    {"type": "Feature", "properties": {"name": "SH 105", "description": "Average vehicles per day, both directions", "Station": "94H70", "AADT 2025": 8695, "AADT 2024": 10973, "AADT 2023": 10700, "AADT 2022": 12873, "AADT 2021": 11375}, "geometry": {"type": "Point", "coordinates": [-96.072164, 30.396566]}},
    {"type": "Feature", "properties": {"name": "SH 6", "description": "Average vehicles per day, both directions", "Station": "94H71", "AADT 2025": 44436, "AADT 2024": 36535, "AADT 2023": 32508, "AADT 2022": 32946, "AADT 2021": 31055}, "geometry": {"type": "Point", "coordinates": [-96.068478, 30.387166]}},
    {"type": "Feature", "properties": {"name": "SH 6", "description": "Average vehicles per day, both directions", "Station": "94H71ANBSR", "AADT 2025": 3336, "AADT 2024": 3847, "AADT 2023": 3809, "AADT 2022": 3681, "AADT 2021": 3470}, "geometry": {"type": "Point", "coordinates": [-96.071056, 30.397765]}},
    {"type": "Feature", "properties": {"name": "SH 6", "description": "Average vehicles per day, both directions", "Station": "94H71ASBSR", "AADT 2025": 3484, "AADT 2024": 3509, "AADT 2023": 3474, "AADT 2022": 2939}, "geometry": {"type": "Point", "coordinates": [-96.072153, 30.397363]}},
    {"type": "Feature", "properties": {"name": "SH 6", "description": "Average vehicles per day, both directions", "Station": "94H71NBSR", "AADT 2025": 3376, "AADT 2024": 3558, "AADT 2023": 3523, "AADT 2022": 3342}, "geometry": {"type": "Point", "coordinates": [-96.068376, 30.389094]}},
    {"type": "Feature", "properties": {"name": "SH 6", "description": "Average vehicles per day, both directions", "Station": "94H71SBSR", "AADT 2025": 3218, "AADT 2024": 3572, "AADT 2023": 3537, "AADT 2022": 3039}, "geometry": {"type": "Point", "coordinates": [-96.069625, 30.390803]}},
    {"type": "Feature", "properties": {"name": "SH 90", "description": "Average vehicles per day, both directions", "Station": "94H72", "AADT 2025": 14059, "AADT 2024": 16441, "AADT 2023": 14768, "AADT 2022": 13183, "AADT 2021": 13183}, "geometry": {"type": "Point", "coordinates": [-96.070172, 30.397325]}},
    {"type": "Feature", "properties": {"name": "FM 3455", "description": "Average vehicles per day, both directions", "Station": "94H72A", "AADT 2025": 999, "AADT 2024": 1011, "AADT 2023": 918, "AADT 2022": 516}, "geometry": {"type": "Point", "coordinates": [-96.0547, 30.41081]}},
    {"type": "Feature", "properties": {"name": "SH 90", "description": "Average vehicles per day, both directions", "Station": "94H73", "AADT 2025": 9241, "AADT 2024": 9715, "AADT 2023": 9126, "AADT 2022": 7748, "AADT 2021": 7748}, "geometry": {"type": "Point", "coordinates": [-96.027066, 30.449846]}},
    {"type": "Feature", "properties": {"name": "SH 90", "description": "Average vehicles per day, both directions", "Station": "94H74", "AADT 2025": 9985, "AADT 2024": 10157, "AADT 2023": 9181, "AADT 2022": 8196, "AADT 2021": 8196}, "geometry": {"type": "Point", "coordinates": [-95.98775, 30.488963]}},
    {"type": "Feature", "properties": {"name": "FM 149", "description": "Average vehicles per day, both directions", "Station": "94H75", "AADT 2025": 554, "AADT 2024": 645, "AADT 2023": 862, "AADT 2022": 663, "AADT 2021": 554}, "geometry": {"type": "Point", "coordinates": [-96.057552, 30.487006]}},
    {"type": "Feature", "properties": {"name": "FM 3090", "description": "Average vehicles per day, both directions", "Station": "94H76", "AADT 2025": 759, "AADT 2024": 759, "AADT 2023": 983, "AADT 2022": 688, "AADT 2021": 688}, "geometry": {"type": "Point", "coordinates": [-96.057905, 30.481341]}},
    {"type": "Feature", "properties": {"name": "FM 3090", "description": "Average vehicles per day, both directions", "Station": "94H77", "AADT 2025": 288, "AADT 2024": 325, "AADT 2023": 357, "AADT 2022": 244, "AADT 2021": 244}, "geometry": {"type": "Point", "coordinates": [-96.090362, 30.492943]}},
    {"type": "Feature", "properties": {"name": "FM 3090", "description": "Average vehicles per day, both directions", "Station": "94H78", "AADT 2025": 286, "AADT 2024": 383, "AADT 2023": 458, "AADT 2022": 333, "AADT 2021": 333}, "geometry": {"type": "Point", "coordinates": [-96.051702, 30.563736]}},
    {"type": "Feature", "properties": {"name": "FM 244", "description": "Average vehicles per day, both directions", "Station": "94H79", "AADT 2025": 1768, "AADT 2024": 1588, "AADT 2023": 1652, "AADT 2022": 1211, "AADT 2021": 1211}, "geometry": {"type": "Point", "coordinates": [-96.045772, 30.564505]}},
    {"type": "Feature", "properties": {"name": "FM 244", "description": "Average vehicles per day, both directions", "Station": "94H80", "AADT 2025": 1906, "AADT 2024": 1714, "AADT 2023": 1788, "AADT 2022": 1403, "AADT 2021": 1403}, "geometry": {"type": "Point", "coordinates": [-96.075436, 30.589819]}},
    {"type": "Feature", "properties": {"name": "SH 30", "description": "Average vehicles per day, both directions", "Station": "94H81", "AADT 2025": 8298, "AADT 2024": 8213, "AADT 2023": 8705, "AADT 2022": 7426, "AADT 2021": 7158}, "geometry": {"type": "Point", "coordinates": [-96.081968, 30.594632]}},
    {"type": "Feature", "properties": {"name": "FM 244", "description": "Average vehicles per day, both directions", "Station": "94H81A", "AADT 2025": 1774, "AADT 2024": 2076, "AADT 2023": 1849, "AADT 2022": 1515, "AADT 2021": 1515}, "geometry": {"type": "Point", "coordinates": [-96.088441, 30.602095]}},
    {"type": "Feature", "properties": {"name": "FM 244", "description": "Average vehicles per day, both directions", "Station": "94H82", "AADT 2025": 2501, "AADT 2024": 3133, "AADT 2023": 2500, "AADT 2022": 1831, "AADT 2021": 1831}, "geometry": {"type": "Point", "coordinates": [-96.10178, 30.66241]}},
    {"type": "Feature", "properties": {"name": "FM 244", "description": "Average vehicles per day, both directions", "Station": "94H83", "AADT 2025": 1882, "AADT 2024": 2161, "AADT 2023": 1776, "AADT 2022": 1162, "AADT 2021": 1162}, "geometry": {"type": "Point", "coordinates": [-96.074024, 30.760078]}},
    {"type": "Feature", "properties": {"name": "FM 244", "description": "Average vehicles per day, both directions", "Station": "94H84", "AADT 2025": 1220, "AADT 2024": 1468, "AADT 2023": 1134, "AADT 2022": 824, "AADT 2021": 824}, "geometry": {"type": "Point", "coordinates": [-96.074826, 30.772144]}},
    {"type": "Feature", "properties": {"name": "FM 39", "description": "Average vehicles per day, both directions", "Station": "94H85", "AADT 2025": 607, "AADT 2024": 1434, "AADT 2023": 1063, "AADT 2022": 926, "AADT 2021": 926}, "geometry": {"type": "Point", "coordinates": [-96.063306, 30.757715]}},
    {"type": "Feature", "properties": {"name": "FM 39", "description": "Average vehicles per day, both directions", "Station": "94H86", "AADT 2025": 2385, "AADT 2024": 2392, "AADT 2023": 1781, "AADT 2022": 1591, "AADT 2021": 1591}, "geometry": {"type": "Point", "coordinates": [-96.095046, 30.806456]}},
    {"type": "Feature", "properties": {"name": "FM 1696", "description": "Average vehicles per day, both directions", "Station": "94H88", "AADT 2025": 973, "AADT 2024": 1061, "AADT 2023": 1043, "AADT 2022": 488, "AADT 2021": 488}, "geometry": {"type": "Point", "coordinates": [-96.087196, 30.803183]}},
    {"type": "Feature", "properties": {"name": "FM 1696", "description": "Average vehicles per day, both directions", "Station": "94H89", "AADT 2025": 885, "AADT 2024": 900, "AADT 2023": 849, "AADT 2022": 640, "AADT 2021": 640}, "geometry": {"type": "Point", "coordinates": [-96.024431, 30.794027]}},
    {"type": "Feature", "properties": {"name": "Loop 361", "description": "Average vehicles per day, both directions", "Station": "94H90", "AADT 2025": 87, "AADT 2024": 127, "AADT 2023": 98, "AADT 2022": 98, "AADT 2021": 98}, "geometry": {"type": "Point", "coordinates": [-95.950965, 30.773965]}},
    {"type": "Feature", "properties": {"name": "Loop 361", "description": "Average vehicles per day, both directions", "Station": "94H91", "AADT 2025": 188, "AADT 2024": 304, "AADT 2023": 168, "AADT 2022": 168, "AADT 2021": 168}, "geometry": {"type": "Point", "coordinates": [-95.95043, 30.775616]}},
    {"type": "Feature", "properties": {"name": "FM 1696", "description": "Average vehicles per day, both directions", "Station": "94H92", "AADT 2025": 1583, "AADT 2024": 1186, "AADT 2023": 1174, "AADT 2022": 1008, "AADT 2021": 1008}, "geometry": {"type": "Point", "coordinates": [-95.950306, 30.77358]}},
    {"type": "Feature", "properties": {"name": "FM 39", "description": "Average vehicles per day, both directions", "Station": "94H93", "AADT 2025": 1077, "AADT 2024": 1128, "AADT 2023": 865, "AADT 2022": 907, "AADT 2021": 907}, "geometry": {"type": "Point", "coordinates": [-95.965843, 30.660017]}},
    {"type": "Feature", "properties": {"name": "SH 30", "description": "Average vehicles per day, both directions", "Station": "94H94", "AADT 2025": 7719, "AADT 2024": 6083, "AADT 2023": 7275, "AADT 2022": 7061, "AADT 2021": 6986}, "geometry": {"type": "Point", "coordinates": [-95.953832, 30.587554]}},
    {"type": "Feature", "properties": {"name": "FM 1227", "description": "Average vehicles per day, both directions", "Station": "94H95", "AADT 2025": 1985, "AADT 2024": 2311, "AADT 2023": 2288, "AADT 2022": 1470}, "geometry": {"type": "Point", "coordinates": [-96.091178, 30.370434]}},
    {"type": "Feature", "properties": {"name": "Toll 249", "description": "Average vehicles per day, both directions", "Station": "94H96", "AADT 2025": 7779, "AADT 2024": 8144, "AADT 2023": 8687, "AADT 2022": 5788, "AADT 2021": 2000}, "geometry": {"type": "Point", "coordinates": [-95.82193, 30.293094]}},
    {"type": "Feature", "properties": {"name": "SH 6", "description": "Average vehicles per day, both directions", "Station": "94H97", "AADT 2025": 41667}, "geometry": {"type": "Point", "coordinates": [-96.076481, 30.403109]}},
    {"type": "Feature", "properties": {"name": "SH 6", "description": "Average vehicles per day, both directions", "Station": "94H98", "AADT 2025": 28980}, "geometry": {"type": "Point", "coordinates": [-96.065334, 30.367439]}},
    {"type": "Feature", "properties": {"name": "FM 1774", "description": "Average vehicles per day, both directions", "Station": "94H102", "AADT 2025": 5196}, "geometry": {"type": "Point", "coordinates": [-95.83493, 30.294258]}},
    {"type": "Feature", "properties": {"name": "SH 249", "description": "Average vehicles per day, both directions", "Station": "94H103", "AADT 2025": 8026}, "geometry": {"type": "Point", "coordinates": [-95.844345, 30.296932]}},
    {"type": "Feature", "properties": {"name": "SH 249", "description": "Average vehicles per day, both directions", "Station": "94H104", "AADT 2025": 8680}, "geometry": {"type": "Point", "coordinates": [-95.960426, 30.349333]}},
    {"type": "Feature", "properties": {"name": "SH 249", "description": "Average vehicles per day, both directions", "Station": "94H105", "AADT 2025": 8517}, "geometry": {"type": "Point", "coordinates": [-95.950386, 30.328205]}},
    {"type": "Feature", "properties": {"name": "Bus. SH 6S", "description": "Average vehicles per day, both directions", "Station": "94H107", "AADT 2025": 3732}, "geometry": {"type": "Point", "coordinates": [-96.082085, 30.376522]}},
    {"type": "Feature", "properties": {"name": "SH 90", "description": "Average vehicles per day, both directions", "Station": "94SP37", "AADT 2025": 7050, "AADT 2024": 5798, "AADT 2023": 5506, "AADT 2022": 4866, "AADT 2021": 4866}, "geometry": {"type": "Point", "coordinates": [-95.984579, 30.526743]}},
    {"type": "Feature", "properties": {"name": "FM 149", "description": "Average vehicles per day, both directions", "Station": "94T1", "AADT 2025": 2543, "AADT 2024": 2056, "AADT 2023": 2241, "AADT 2022": 1911, "AADT 2021": 1596}, "geometry": {"type": "Point", "coordinates": [-95.987961, 30.490866]}},
    {"type": "Feature", "properties": {"name": "FM 1774", "description": "Average vehicles per day, both directions", "Station": "94T2", "AADT 2025": 3543, "AADT 2024": 3877, "AADT 2023": 3258, "AADT 2022": 2047, "AADT 2021": 2569}, "geometry": {"type": "Point", "coordinates": [-95.98663, 30.487274]}},
    {"type": "Feature", "properties": {"name": "SH 90", "description": "Average vehicles per day, both directions", "Station": "94T3", "AADT 2025": 9309, "AADT 2024": 9703, "AADT 2023": 8775, "AADT 2022": 7833, "AADT 2021": 7833}, "geometry": {"type": "Point", "coordinates": [-95.988908, 30.486511]}},
    {"type": "Feature", "properties": {"name": "FM 149", "description": "Average vehicles per day, both directions", "Station": "94T4", "AADT 2025": 1966, "AADT 2024": 2111, "AADT 2023": 2488, "AADT 2022": 1069, "AADT 2021": 893}, "geometry": {"type": "Point", "coordinates": [-95.98917, 30.489102]}},
    {"type": "Feature", "properties": {"name": "SH 90", "description": "Average vehicles per day, both directions", "Station": "94T5", "AADT 2025": 6715, "AADT 2024": 6859, "AADT 2023": 6711, "AADT 2022": 5525, "AADT 2021": 5525}, "geometry": {"type": "Point", "coordinates": [-95.945067, 30.582277]}},
    {"type": "Feature", "properties": {"name": "SH 90", "description": "Average vehicles per day, both directions", "Station": "94T6", "AADT 2025": 4715, "AADT 2024": 6215, "AADT 2023": 4885, "AADT 2022": 4106, "AADT 2021": 4106}, "geometry": {"type": "Point", "coordinates": [-95.949931, 30.776118]}},
    {"type": "Feature", "properties": {"name": "FM 1696", "description": "Average vehicles per day, both directions", "Station": "94T7", "AADT 2025": 1240, "AADT 2024": 1322, "AADT 2023": 1125, "AADT 2022": 993, "AADT 2021": 993}, "geometry": {"type": "Point", "coordinates": [-95.951634, 30.773587]}},
    {"type": "Feature", "properties": {"name": "SH 30", "description": "Average vehicles per day, both directions", "Station": "94T8", "AADT 2025": 6469, "AADT 2024": 6054, "AADT 2023": 6057, "AADT 2022": 5976, "AADT 2021": 5760}, "geometry": {"type": "Point", "coordinates": [-95.888813, 30.612934]}},
    {"type": "Feature", "properties": {"name": "FM 149", "description": "Average vehicles per day, both directions", "Station": "94T9", "AADT 2025": 1124, "AADT 2024": 1020, "AADT 2023": 1010, "AADT 2022": 1018, "AADT 2021": 850}, "geometry": {"type": "Point", "coordinates": [-95.841407, 30.537677]}},
    {"type": "Feature", "properties": {"name": "FM 149", "description": "Average vehicles per day, both directions", "Station": "94T10", "AADT 2025": 938, "AADT 2024": 1119, "AADT 2023": 851, "AADT 2022": 886, "AADT 2021": 740}, "geometry": {"type": "Point", "coordinates": [-95.837585, 30.538361]}},
    {"type": "Feature", "properties": {"name": "FM 1486", "description": "Average vehicles per day, both directions", "Station": "94T11", "AADT 2025": 1457, "AADT 2024": 1841, "AADT 2023": 1166, "AADT 2022": 1002, "AADT 2021": 1002}, "geometry": {"type": "Point", "coordinates": [-95.842063, 30.537045]}},
    {"type": "Feature", "properties": {"name": "FM 1774", "description": "Average vehicles per day, both directions", "Station": "94T12", "AADT 2025": 4492, "AADT 2024": 4099, "AADT 2023": 4169, "AADT 2022": 7443, "AADT 2021": 9341}, "geometry": {"type": "Point", "coordinates": [-95.861839, 30.332777]}},
    {"type": "Feature", "properties": {"name": "FM 2", "description": "Average vehicles per day, both directions", "Station": "94T13", "AADT 2025": 672, "AADT 2024": 552, "AADT 2023": 231, "AADT 2022": 422, "AADT 2021": 422}, "geometry": {"type": "Point", "coordinates": [-96.060089, 30.267042]}},
    {"type": "Feature", "properties": {"name": "Bus. SH 6S", "description": "Average vehicles per day, both directions", "Station": "94T14", "AADT 2025": 10750, "AADT 2024": 10230, "AADT 2023": 10129, "AADT 2022": 8952, "AADT 2021": 8800}, "geometry": {"type": "Point", "coordinates": [-96.089425, 30.389666]}},
    {"type": "Feature", "properties": {"name": "Bus. SH 6S", "description": "Average vehicles per day, both directions", "Station": "94T15", "AADT 2025": 9022, "AADT 2024": 8726, "AADT 2023": 8640, "AADT 2022": 8030, "AADT 2021": 7893}, "geometry": {"type": "Point", "coordinates": [-96.092387, 30.392409]}},
    {"type": "Feature", "properties": {"name": "FM 3090", "description": "Average vehicles per day, both directions", "Station": "94T16", "AADT 2025": 2045, "AADT 2024": 2857, "AADT 2023": 2829, "AADT 2022": 2088}, "geometry": {"type": "Point", "coordinates": [-96.091385, 30.392518]}},
    {"type": "Feature", "properties": {"name": "Bus. SH 6S", "description": "Average vehicles per day, both directions", "Station": "94T17", "AADT 2025": 8620, "AADT 2024": 8605, "AADT 2023": 9342, "AADT 2022": 10535, "AADT 2021": 10356}, "geometry": {"type": "Point", "coordinates": [-96.087909, 30.388618]}},
    {"type": "Feature", "properties": {"name": "Bus. SH 6S", "description": "Average vehicles per day, both directions", "Station": "94T18", "AADT 2025": 8155, "AADT 2024": 8155, "AADT 2023": 8074, "AADT 2022": 7833, "AADT 2021": 8003}, "geometry": {"type": "Point", "coordinates": [-96.087633, 30.387861]}},
    {"type": "Feature", "properties": {"name": "Spur 515", "description": "Average vehicles per day, both directions", "Station": "94T19", "AADT 2025": 5653, "AADT 2024": 7244, "AADT 2023": 7172, "AADT 2022": 3782, "AADT 2021": 3782}, "geometry": {"type": "Point", "coordinates": [-96.081018, 30.375909]}},
    {"type": "Feature", "properties": {"name": "SH 6", "description": "Average vehicles per day, both directions", "Station": "94T20NBSR", "AADT 2025": 1603, "AADT 2024": 1331, "AADT 2023": 1318, "AADT 2022": 1501}, "geometry": {"type": "Point", "coordinates": [-96.066596, 30.375065]}},
    {"type": "Feature", "properties": {"name": "SH 6", "description": "Average vehicles per day, both directions", "Station": "94T20SBSR", "AADT 2025": 1330, "AADT 2024": 1289, "AADT 2023": 1276, "AADT 2022": 1029}, "geometry": {"type": "Point", "coordinates": [-96.067745, 30.37507]}},
    {"type": "Feature", "properties": {"name": "Bus. SH 6S", "description": "Average vehicles per day, both directions", "Station": "94T21", "AADT 2025": 4508, "AADT 2024": 5753, "AADT 2023": 5696, "AADT 2022": 3915, "AADT 2021": 3848}, "geometry": {"type": "Point", "coordinates": [-96.081724, 30.374941]}},
    {"type": "Feature", "properties": {"name": "SH 105", "description": "Average vehicles per day, both directions", "Station": "94T22", "AADT 2025": 13295, "AADT 2024": 13427, "AADT 2023": 13093, "AADT 2022": 12170, "AADT 2021": 10754}, "geometry": {"type": "Point", "coordinates": [-96.088436, 30.388305]}},
    {"type": "Feature", "properties": {"name": "FM 379", "description": "Average vehicles per day, both directions", "Station": "94T23", "AADT 2025": 4508, "AADT 2024": 4959, "AADT 2023": 4910, "AADT 2022": 3836, "AADT 2021": 3836}, "geometry": {"type": "Point", "coordinates": [-96.094462, 30.383891]}},
    {"type": "Feature", "properties": {"name": "FM 39", "description": "Average vehicles per day, both directions", "Station": "94T24", "AADT 2025": 2218, "AADT 2024": 2770, "AADT 2023": 2044, "AADT 2022": 1740, "AADT 2021": 1740}, "geometry": {"type": "Point", "coordinates": [-96.074354, 30.773241]}},
    {"type": "Feature", "properties": {"name": "FM 39", "description": "Average vehicles per day, both directions", "Station": "94T25", "AADT 2025": 1511, "AADT 2024": 1830, "AADT 2023": 1234, "AADT 2022": 1156, "AADT 2021": 1156}, "geometry": {"type": "Point", "coordinates": [-96.073583, 30.771848]}},
    {"type": "Feature", "properties": {"name": "FM 244", "description": "Average vehicles per day, both directions", "Station": "94T26", "AADT 2025": 1195, "AADT 2024": 1428, "AADT 2023": 1188, "AADT 2022": 915, "AADT 2021": 915}, "geometry": {"type": "Point", "coordinates": [-96.076134, 30.771025]}}
  ]
}
