{
  "type": "FeatureCollection",
  "features": [
    {"type": "Feature", "properties": {"name": "MONTEREY MUSHROOMS INC", "description": "Permitted wastewater discharge point", "Type": "Industrial wastewater", "Status": "Current permit", "Permit": "01896-000", "Outfall": "001", "County": "Madison", "TCEQ stream segment": "0803", "id": "01896-000/001"}, "geometry": {"type": "Point", "coordinates": [-95.827772, 30.921477]}},
    {"type": "Feature", "properties": {"name": "MONTEREY MUSHROOMS INC", "description": "Permitted wastewater discharge point", "Type": "Other (TCEQ type S)", "Status": "Current permit", "Permit": "01896-000", "Outfall": "002", "County": "Madison", "TCEQ stream segment": "0803", "id": "01896-000/002"}, "geometry": {"type": "Point", "coordinates": [-95.829773, 30.926532]}},
    {"type": "Feature", "properties": {"name": "MONTEREY MUSHROOMS INC", "description": "Permitted wastewater discharge point", "Type": "Other (TCEQ type S)", "Status": "Current permit", "Permit": "01896-000", "Outfall": "003", "County": "Madison", "TCEQ stream segment": "0803", "id": "01896-000/003"}, "geometry": {"type": "Point", "coordinates": [-95.828583, 30.923511]}},
    {"type": "Feature", "properties": {"name": "MONTEREY MUSHROOMS INC", "description": "Permitted wastewater discharge point", "Type": "Other (TCEQ type S)", "Status": "Current permit", "Permit": "01896-000", "Outfall": "004", "County": "Madison", "TCEQ stream segment": "0803", "id": "01896-000/004"}, "geometry": {"type": "Point", "coordinates": [-95.828075, 30.923376]}},
    {"type": "Feature", "properties": {"name": "MONTEREY MUSHROOMS INC", "description": "Permitted wastewater discharge point", "Type": "Other (TCEQ type S)", "Status": "Current permit", "Permit": "01896-000", "Outfall": "005", "County": "Madison", "TCEQ stream segment": "0803", "id": "01896-000/005"}, "geometry": {"type": "Point", "coordinates": [-95.830616, 30.92472]}},
    {"type": "Feature", "properties": {"name": "MONTEREY MUSHROOMS INC", "description": "Permitted wastewater discharge point", "Type": "Other (TCEQ type S)", "Status": "Current permit", "Permit": "01896-000", "Outfall": "006", "County": "Madison", "TCEQ stream segment": "0803", "id": "01896-000/006"}, "geometry": {"type": "Point", "coordinates": [-95.826671, 30.923195]}},
    {"type": "Feature", "properties": {"name": "TEXAS MUNICIPAL POWER AGENCY", "description": "Permitted wastewater discharge point", "Type": "Industrial wastewater", "Status": "Current permit", "Permit": "02120-000", "Outfall": "001", "County": "Grimes", "TCEQ stream segment": "1209", "id": "02120-000/001"}, "geometry": {"type": "Point", "coordinates": [-96.075504, 30.616687]}},
    {"type": "Feature", "properties": {"name": "TEXAS MUNICIPAL POWER AGENCY", "description": "Permitted wastewater discharge point", "Type": "Industrial wastewater", "Status": "Current permit", "Permit": "02120-000", "Outfall": "002", "County": "Grimes", "TCEQ stream segment": "1209", "id": "02120-000/002"}, "geometry": {"type": "Point", "coordinates": [-96.085149, 30.613108]}},
    {"type": "Feature", "properties": {"name": "TEXAS MUNICIPAL POWER AGENCY", "description": "Permitted wastewater discharge point", "Type": "Industrial wastewater", "Status": "Current permit", "Permit": "02120-000", "Outfall": "004", "County": "Grimes", "TCEQ stream segment": "1209", "id": "02120-000/004"}, "geometry": {"type": "Point", "coordinates": [-96.079459, 30.625527]}},
    {"type": "Feature", "properties": {"name": "GIBBONS CREEK ENVIRONMENTAL REDEVELOPMENT GROUP, LLC", "description": "Permitted wastewater discharge point", "Type": "Industrial wastewater", "Status": "Current permit", "Permit": "02120-000", "Outfall": "005", "County": "Grimes", "TCEQ stream segment": "1209", "id": "02120-000/005"}, "geometry": {"type": "Point", "coordinates": [-96.081112, 30.631946]}},
    {"type": "Feature", "properties": {"name": "TEXAS MUNICIPAL POWER AGENCY", "description": "Permitted wastewater discharge point", "Type": "Other (TCEQ type M)", "Status": "Current permit", "Permit": "02460-000", "Outfall": "004R", "County": "Grimes", "TCEQ stream segment": "1209", "id": "02460-000/004R"}, "geometry": {"type": "Point", "coordinates": [-96.082478, 30.561379]}},
    {"type": "Feature", "properties": {"name": "TENASKA FRONTIER PARTNERS LTD", "description": "Permitted wastewater discharge point", "Type": "Industrial wastewater", "Status": "Current permit", "Permit": "03996-000", "Outfall": "001", "County": "Grimes", "TCEQ stream segment": "1209", "id": "03996-000/001"}, "geometry": {"type": "Point", "coordinates": [-95.919917, 30.624059]}},
    {"type": "Feature", "properties": {"name": "ELLWOOD TEXAS FORGE NAVASOTA LLC", "description": "Permitted wastewater discharge point", "Type": "Industrial wastewater", "Status": "Current permit", "Permit": "04999-000", "Outfall": "001", "County": "Grimes", "TCEQ stream segment": "1202", "id": "04999-000/001"}, "geometry": {"type": "Point", "coordinates": [-96.079388, 30.347187]}},
    {"type": "Feature", "properties": {"name": "CITY OF COLLEGE STATION", "description": "Permitted wastewater discharge point", "Type": "Industrial wastewater", "Status": "Current permit", "Permit": "10024-003", "Outfall": "001", "County": "Brazos", "TCEQ stream segment": "1209", "id": "10024-003/001"}, "geometry": {"type": "Point", "coordinates": [-96.206278, 30.558851]}},
    {"type": "Feature", "properties": {"name": "CITY OF NAVASOTA", "description": "Permitted wastewater discharge point", "Type": "Industrial wastewater", "Status": "Current permit", "Permit": "10231-001", "Outfall": "001", "County": "Grimes", "TCEQ stream segment": "1209", "id": "10231-001/001"}, "geometry": {"type": "Point", "coordinates": [-96.101176, 30.383878]}},
    {"type": "Feature", "properties": {"name": "GRIMES COUNTY MUD 1", "description": "Permitted wastewater discharge point", "Type": "Domestic wastewater (sewage)", "Status": "Current permit", "Permit": "11437-001", "Outfall": "001", "County": "Grimes", "TCEQ stream segment": "1015", "id": "11437-001/001"}, "geometry": {"type": "Point", "coordinates": [-95.92659, 30.412278]}},
    {"type": "Feature", "properties": {"name": "PROTESTANT EPISCOPAL CHURCH COUNCIL OF THE DIOCES OF TEXAS", "description": "Permitted wastewater discharge point", "Type": "Domestic wastewater (sewage)", "Status": "Current permit", "Permit": "11462-003", "Outfall": "001", "County": "Grimes", "TCEQ stream segment": "1202", "id": "11462-003/001"}, "geometry": {"type": "Point", "coordinates": [-95.957834, 30.242793]}},
    {"type": "Feature", "properties": {"name": "ILP COLLEGE STATION LLC", "description": "Permitted wastewater discharge point", "Type": "Domestic wastewater (sewage)", "Status": "Current permit", "Permit": "12296-001", "Outfall": "001", "County": "Brazos", "TCEQ stream segment": "1209", "id": "12296-001/001"}, "geometry": {"type": "Point", "coordinates": [-96.26071, 30.643049]}},
    {"type": "Feature", "properties": {"name": "TEXAS DEPT OF CRIMINAL JUSTICE", "description": "Permitted wastewater discharge point", "Type": "Domestic wastewater (sewage)", "Status": "Current permit", "Permit": "12458-002", "Outfall": "001", "County": "Grimes", "TCEQ stream segment": "1202", "id": "12458-002/001"}, "geometry": {"type": "Point", "coordinates": [-96.053088, 30.256492]}},
    {"type": "Feature", "properties": {"name": "CITY OF COLLEGE STATION", "description": "Permitted wastewater discharge point", "Type": "Domestic wastewater (sewage)", "Status": "Current permit", "Permit": "13153-001", "Outfall": "001", "County": "Brazos", "TCEQ stream segment": "1209", "id": "13153-001/001"}, "geometry": {"type": "Point", "coordinates": [-96.249332, 30.596567]}},
    {"type": "Feature", "properties": {"name": "RICHARDS ISD", "description": "Permitted wastewater discharge point", "Type": "Domestic wastewater (sewage)", "Status": "Current permit", "Permit": "13527-001", "Outfall": "001", "County": "Grimes", "TCEQ stream segment": "1015", "id": "13527-001/001"}, "geometry": {"type": "Point", "coordinates": [-95.841644, 30.539357]}},
    {"type": "Feature", "properties": {"name": "TEXAS DEPARTMENT OF CRIMINAL JUSTICE", "description": "Permitted wastewater discharge point", "Type": "Domestic wastewater (sewage)", "Status": "Current permit", "Permit": "13743-001", "Outfall": "001", "County": "Grimes", "TCEQ stream segment": "1202", "id": "13743-001/001"}, "geometry": {"type": "Point", "coordinates": [-96.10601, 30.319401]}},
    {"type": "Feature", "properties": {"name": "CITY OF ANDERSON", "description": "Permitted wastewater discharge point", "Type": "Domestic wastewater (sewage)", "Status": "Current permit", "Permit": "13931-001", "Outfall": "001", "County": "Grimes", "TCEQ stream segment": "1209", "id": "13931-001/001"}, "geometry": {"type": "Point", "coordinates": [-95.986589, 30.479768]}},
    {"type": "Feature", "properties": {"name": "SAM HOUSTON AREA COUNCIL BOYS SCOUTS OF AMERICA", "description": "Permitted wastewater discharge point", "Type": "Domestic wastewater (sewage)", "Status": "Current permit", "Permit": "14095-001", "Outfall": "001", "County": "Grimes", "TCEQ stream segment": "1202", "id": "14095-001/001"}, "geometry": {"type": "Point", "coordinates": [-96.027816, 30.332278]}},
    {"type": "Feature", "properties": {"name": "UTILITIES INVESTMENT COMPANY INC", "description": "Permitted wastewater discharge point", "Type": "Domestic wastewater (sewage)", "Status": "Current permit", "Permit": "14133-001", "Outfall": "001", "County": "Montgomery", "TCEQ stream segment": "1008", "id": "14133-001/001"}, "geometry": {"type": "Point", "coordinates": [-95.799978, 30.189956]}},
    {"type": "Feature", "properties": {"name": "IOLA ISD", "description": "Permitted wastewater discharge point", "Type": "Domestic wastewater (sewage)", "Status": "Current permit", "Permit": "14400-001", "Outfall": "001", "County": "Grimes", "TCEQ stream segment": "0803", "id": "14400-001/001"}, "geometry": {"type": "Point", "coordinates": [-96.069851, 30.76829]}},
    {"type": "Feature", "properties": {"name": "NAVASOTA INDEPENDENT SCHOOL DISTRICT", "description": "Permitted wastewater discharge point", "Type": "Domestic wastewater (sewage)", "Status": "Current permit", "Permit": "14662-001", "Outfall": "001", "County": "Grimes", "TCEQ stream segment": "1008", "id": "14662-001/001"}, "geometry": {"type": "Point", "coordinates": [-95.914441, 30.349706]}},
    {"type": "Feature", "properties": {"name": "CITY OF BEDIAS", "description": "Permitted wastewater discharge point", "Type": "Domestic wastewater (sewage)", "Status": "Current permit", "Permit": "14838-001", "Outfall": "001", "County": "Grimes", "TCEQ stream segment": "0803", "id": "14838-001/001"}, "geometry": {"type": "Point", "coordinates": [-95.947519, 30.782891]}},
    {"type": "Feature", "properties": {"name": "CITY OF MAGNOLIA", "description": "Permitted wastewater discharge point", "Type": "Industrial wastewater", "Status": "Current permit", "Permit": "14903-001", "Outfall": "001", "County": "Montgomery", "TCEQ stream segment": "1008", "id": "14903-001/001"}, "geometry": {"type": "Point", "coordinates": [-95.751932, 30.189944]}},
    {"type": "Feature", "properties": {"name": "THE CARDON GROUP LLC", "description": "Permitted wastewater discharge point", "Type": "Domestic wastewater (sewage)", "Status": "Current permit", "Permit": "14989-001", "Outfall": "001", "County": "Montgomery", "TCEQ stream segment": "1015", "id": "14989-001/001"}, "geometry": {"type": "Point", "coordinates": [-95.721501, 30.26076]}},
    {"type": "Feature", "properties": {"name": "GRIMES CO WATER RECLAMATION LLC", "description": "Permitted wastewater discharge point", "Type": "Domestic wastewater (sewage)", "Status": "Current permit", "Permit": "15032-001", "Outfall": "001", "County": "Grimes", "TCEQ stream segment": "1008", "id": "15032-001/001"}, "geometry": {"type": "Point", "coordinates": [-95.892272, 30.255663]}},
    {"type": "Feature", "properties": {"name": "BAM HOUSTON REAL ESTATE INVESTMENT LP", "description": "Permitted wastewater discharge point", "Type": "Domestic wastewater (sewage)", "Status": "Current permit", "Permit": "15041-001", "Outfall": "001", "County": "Montgomery", "TCEQ stream segment": "1008", "id": "15041-001/001"}, "geometry": {"type": "Point", "coordinates": [-95.754278, 30.249917]}},
    {"type": "Feature", "properties": {"name": "BLUEJACK DEVELOPMENT CO LLC", "description": "Permitted wastewater discharge point", "Type": "Domestic wastewater (sewage)", "Status": "Current permit", "Permit": "15283-001", "Outfall": "001", "County": "Montgomery", "TCEQ stream segment": "1015", "id": "15283-001/001"}, "geometry": {"type": "Point", "coordinates": [-95.772019, 30.304878]}},
    {"type": "Feature", "properties": {"name": "WELLBORN SUD", "description": "Permitted wastewater discharge point", "Type": "Domestic wastewater (sewage)", "Status": "Current permit", "Permit": "15554-001", "Outfall": "001", "County": "Brazos", "TCEQ stream segment": "1209", "id": "15554-001/001"}, "geometry": {"type": "Point", "coordinates": [-96.139139, 30.471336]}},
    {"type": "Feature", "properties": {"name": "SMILING MALLARD DEVELOPMENT LTD", "description": "Permitted wastewater discharge point", "Type": "Domestic wastewater (sewage)", "Status": "Current permit", "Permit": "15556-001", "Outfall": "001", "County": "Brazos", "TCEQ stream segment": "1209", "id": "15556-001/001"}, "geometry": {"type": "Point", "coordinates": [-96.222923, 30.509675]}},
    {"type": "Feature", "properties": {"name": "SPIRIT OF AGGIELAND RV RESORT LLC", "description": "Permitted wastewater discharge point", "Type": "Domestic wastewater (sewage)", "Status": "Current permit", "Permit": "15632-001", "Outfall": "001", "County": "Brazos", "TCEQ stream segment": "1209", "id": "15632-001/001"}, "geometry": {"type": "Point", "coordinates": [-96.251212, 30.661139]}},
    {"type": "Feature", "properties": {"name": "WOODHAVEN INTERESTS LLC", "description": "Permitted wastewater discharge point", "Type": "Domestic wastewater (sewage)", "Status": "Current permit", "Permit": "15829-001", "Outfall": "001", "County": "Waller", "TCEQ stream segment": "1008", "id": "15829-001/001"}, "geometry": {"type": "Point", "coordinates": [-95.82055, 30.194623]}},
    {"type": "Feature", "properties": {"name": "PBAR INTERESTS LLC", "description": "Permitted wastewater discharge point", "Type": "Domestic wastewater (sewage)", "Status": "Current permit", "Permit": "15877-001", "Outfall": "001", "County": "Montgomery", "TCEQ stream segment": "1008", "id": "15877-001/001"}, "geometry": {"type": "Point", "coordinates": [-95.793099, 30.225502]}},
    {"type": "Feature", "properties": {"name": "1486 ASSET LLC", "description": "Permitted wastewater discharge point", "Type": "Domestic wastewater (sewage)", "Status": "Current permit", "Permit": "15921-001", "Outfall": "001", "County": "Montgomery", "TCEQ stream segment": "1015", "id": "15921-001/001"}, "geometry": {"type": "Point", "coordinates": [-95.788144, 30.392428]}},
    {"type": "Feature", "properties": {"name": "CITY OF BRYAN", "description": "Permitted wastewater discharge point", "Type": "Industrial wastewater", "Status": "Current permit", "Permit": "15930-001", "Outfall": "001", "County": "Brazos", "TCEQ stream segment": "1209", "id": "15930-001/001"}, "geometry": {"type": "Point", "coordinates": [-96.226515, 30.649038]}},
    {"type": "Feature", "properties": {"name": "SIG MAGNOLIA LP", "description": "Permitted wastewater discharge point", "Type": "Domestic wastewater (sewage)", "Status": "Current permit", "Permit": "15979-001", "Outfall": "001", "County": "Montgomery", "TCEQ stream segment": "1015", "id": "15979-001/001"}, "geometry": {"type": "Point", "coordinates": [-95.770236, 30.289714]}},
    {"type": "Feature", "properties": {"name": "MAGNOLIA FOREST TX LLC", "description": "Permitted wastewater discharge point", "Type": "Domestic wastewater (sewage)", "Status": "Current permit", "Permit": "16001-001", "Outfall": "001", "County": "Montgomery", "TCEQ stream segment": "1015", "id": "16001-001/001"}, "geometry": {"type": "Point", "coordinates": [-95.73252, 30.298778]}},
    {"type": "Feature", "properties": {"name": "CITY OF IOLA", "description": "Permitted wastewater discharge point", "Type": "Domestic wastewater (sewage)", "Status": "Current permit", "Permit": "16021-001", "Outfall": "001", "County": "Grimes", "TCEQ stream segment": "1209", "id": "16021-001/001"}, "geometry": {"type": "Point", "coordinates": [-96.080904, 30.776401]}},
    {"type": "Feature", "properties": {"name": "COLTON DEVELOPMENT COMPANY, LLC", "description": "Permitted wastewater discharge point", "Type": "Domestic wastewater (sewage)", "Status": "Current permit", "Permit": "16050-001", "Outfall": "001", "County": "Montgomery", "TCEQ stream segment": "1008", "id": "16050-001/001"}, "geometry": {"type": "Point", "coordinates": [-95.784724, 30.239996]}},
    {"type": "Feature", "properties": {"name": "PURE STRIKE DEVELOPMENT LP AND B&T REALTY LLC", "description": "Permitted wastewater discharge point", "Type": "Domestic wastewater (sewage)", "Status": "Current permit", "Permit": "16054-001", "Outfall": "001", "County": "Brazos", "TCEQ stream segment": "1209", "id": "16054-001/001"}, "geometry": {"type": "Point", "coordinates": [-96.157384, 30.463759]}},
    {"type": "Feature", "properties": {"name": "SMILING MALLARD DEVELOPMENT LTD", "description": "Permitted wastewater discharge point", "Type": "Domestic wastewater (sewage)", "Status": "Pending application", "Permit": "16077-001", "Outfall": "001", "County": "Brazos", "TCEQ stream segment": "1209", "id": "16077-001/001"}, "geometry": {"type": "Point", "coordinates": [-96.232878, 30.527101]}},
    {"type": "Feature", "properties": {"name": "KICKAPOO ASSET LLC", "description": "Permitted wastewater discharge point", "Type": "Domestic wastewater (sewage)", "Status": "Current permit", "Permit": "16113-001", "Outfall": "001", "County": "Waller", "TCEQ stream segment": "1008", "id": "16113-001/001"}, "geometry": {"type": "Point", "coordinates": [-95.865864, 30.178128]}},
    {"type": "Feature", "properties": {"name": "MTR MATTERN RANCH LLC", "description": "Permitted wastewater discharge point", "Type": "Domestic wastewater (sewage)", "Status": "Pending application", "Permit": "16233-001", "Outfall": "001", "County": "Grimes", "TCEQ stream segment": "1008", "id": "16233-001/001"}, "geometry": {"type": "Point", "coordinates": [-95.810914, 30.245419]}},
    {"type": "Feature", "properties": {"name": "MAGNOLIA M3 RANCH LP", "description": "Permitted wastewater discharge point", "Type": "Industrial wastewater", "Status": "Pending application", "Permit": "16324-001", "Outfall": "001", "County": "Montgomery", "TCEQ stream segment": "1008", "id": "16324-001/001"}, "geometry": {"type": "Point", "coordinates": [-95.783889, 30.239167]}},
    {"type": "Feature", "properties": {"name": "249 SH HOLDINGS LLC", "description": "Permitted wastewater discharge point", "Type": "Industrial wastewater", "Status": "Pending application", "Permit": "16349-001", "Outfall": "001", "County": "Montgomery", "TCEQ stream segment": "1008", "id": "16349-001/001"}, "geometry": {"type": "Point", "coordinates": [-95.77854, 30.279783]}},
    {"type": "Feature", "properties": {"name": "NORTH CATCH 1488 LLC", "description": "Permitted wastewater discharge point", "Type": "Domestic wastewater (sewage)", "Status": "Pending application", "Permit": "16358-001", "Outfall": "001", "County": "Waller", "TCEQ stream segment": "1008", "id": "16358-001/001"}, "geometry": {"type": "Point", "coordinates": [-95.841492, 30.1942]}},
    {"type": "Feature", "properties": {"name": "CASTLEROCK COMMUNITIES LLC & WALLER CO MUNICIPAL UTILITY DISTR NO 53", "description": "Permitted wastewater discharge point", "Type": "Domestic wastewater (sewage)", "Status": "Current permit", "Permit": "16382-001", "Outfall": "001", "County": "Waller", "TCEQ stream segment": "1008", "id": "16382-001/001"}, "geometry": {"type": "Point", "coordinates": [-95.860827, 30.171713]}},
    {"type": "Feature", "properties": {"name": "Shea Homes Houston, LLC", "description": "Permitted wastewater discharge point", "Type": "Domestic wastewater (sewage)", "Status": "Pending application", "Permit": "16512-001", "Outfall": "001", "County": "Montgomery", "TCEQ stream segment": "1015", "id": "16512-001/001"}, "geometry": {"type": "Point", "coordinates": [-95.776135, 30.303239]}},
    {"type": "Feature", "properties": {"name": "WALLER MANAGEMENT SERVICES, LLC", "description": "Permitted wastewater discharge point", "Type": "Domestic wastewater (sewage)", "Status": "Pending application", "Permit": "16584-001", "Outfall": "001", "County": "Waller", "TCEQ stream segment": "1008", "id": "16584-001/001"}, "geometry": {"type": "Point", "coordinates": [-95.87696, 30.186933]}},
    {"type": "Feature", "properties": {"name": "RILEY ROAD HOUSTON SPV LLC", "description": "Permitted wastewater discharge point", "Type": "Domestic wastewater (sewage)", "Status": "Pending application", "Permit": "16634-001", "Outfall": "001", "County": "Waller", "TCEQ stream segment": "1008", "id": "16634-001/001"}, "geometry": {"type": "Point", "coordinates": [-95.838621, 30.229711]}},
    {"type": "Feature", "properties": {"name": "PELAGIC PROPERTY GROUP, LLC", "description": "Permitted wastewater discharge point", "Type": "Domestic wastewater (sewage)", "Status": "Pending application", "Permit": "16650-001", "Outfall": "001", "County": "Montgomery", "TCEQ stream segment": "1008", "id": "16650-001/001"}, "geometry": {"type": "Point", "coordinates": [-95.767281, 30.191639]}},
    {"type": "Feature", "properties": {"name": "CLEAR CREEK RESERVE, LLC", "description": "Permitted wastewater discharge point", "Type": "Domestic wastewater (sewage)", "Status": "Pending application", "Permit": "16680-001", "Outfall": "001", "County": "Waller", "TCEQ stream segment": "1202", "id": "16680-001/001"}, "geometry": {"type": "Point", "coordinates": [-95.983597, 30.163955]}},
    {"type": "Feature", "properties": {"name": "WP HOLDINGS, LLC", "description": "Permitted wastewater discharge point", "Type": "Domestic wastewater (sewage)", "Status": "Pending application", "Permit": "16721-001", "Outfall": "001", "County": "Grimes", "TCEQ stream segment": "1202", "id": "16721-001/001"}, "geometry": {"type": "Point", "coordinates": [-96.045527, 30.311268]}},
    {"type": "Feature", "properties": {"name": "BSR LAND INVESTMENT LP", "description": "Permitted wastewater discharge point", "Type": "Domestic wastewater (sewage)", "Status": "Pending application", "Permit": "16873-001", "Outfall": "001", "County": "Grimes", "TCEQ stream segment": "1008", "id": "16873-001/001"}, "geometry": {"type": "Point", "coordinates": [-95.846661, 30.298629]}},
    {"type": "Feature", "properties": {"name": "DECKER PRAIRIE MUNICIPAL UTILITY DISTRICT", "description": "Permitted wastewater discharge point", "Type": "Domestic wastewater (sewage)", "Status": "Pending application", "Permit": "16894-001", "Outfall": "001", "County": "Montgomery", "TCEQ stream segment": "1015", "id": "16894-001/001"}, "geometry": {"type": "Point", "coordinates": [-95.723069, 30.362714]}},
    {"type": "Feature", "properties": {"name": "WALLER COUNTY MUNICIPAL UTILITY DISTRICT NO. 62B", "description": "Permitted wastewater discharge point", "Type": "Domestic wastewater (sewage)", "Status": "Pending application", "Permit": "16944-001", "Outfall": "001", "County": "Waller", "TCEQ stream segment": "1008", "id": "16944-001/001"}, "geometry": {"type": "Point", "coordinates": [-95.880225, 30.186472]}}
  ]
}
