{
  "type": "FeatureCollection",
  "features": [
    {"type": "Feature", "properties": {"name": "Water right 3941", "description": "Diversion Point", "Point type": "Diversion Point", "Right": "Certificate of adjudication 3941", "Use": "Agriculture, Recreation", "Latest reported year": 2024, "Acre-feet diverted that year": 0.0, "id": "61003941001"}, "geometry": {"type": "Point", "coordinates": [-95.927708, 30.41404]}},
    {"type": "Feature", "properties": {"name": "Water right 3941", "description": "On-channel Reservoir", "Point type": "On-channel Reservoir", "Right": "Certificate of adjudication 3941", "Use": "Agriculture, Recreation", "Latest reported year": 2024, "Acre-feet diverted that year": 0.0, "id": "61003941301"}, "geometry": {"type": "Point", "coordinates": [-95.927708, 30.41404]}},
    {"type": "Feature", "properties": {"name": "Water right 3942", "description": "On-channel Reservoir", "Point type": "On-channel Reservoir", "Right": "Certificate of adjudication 3942", "Use": "Recreation", "Latest reported year": 2024, "Acre-feet diverted that year": 0.0, "id": "61003942301"}, "geometry": {"type": "Point", "coordinates": [-95.739946, 30.354153]}},
    {"type": "Feature", "properties": {"name": "Water right 3942", "description": "On-channel Reservoir", "Point type": "On-channel Reservoir", "Right": "Certificate of adjudication 3942", "Use": "Recreation", "Latest reported year": 2024, "Acre-feet diverted that year": 0.0, "id": "61003942302"}, "geometry": {"type": "Point", "coordinates": [-95.740043, 30.355818]}},
    {"type": "Feature", "properties": {"name": "Water right 3942", "description": "On-channel Reservoir", "Point type": "On-channel Reservoir", "Right": "Certificate of adjudication 3942", "Use": "Recreation", "Latest reported year": 2024, "Acre-feet diverted that year": 0.0, "id": "61003942303"}, "geometry": {"type": "Point", "coordinates": [-95.735121, 30.355446]}},
    {"type": "Feature", "properties": {"name": "Water right 3942", "description": "On-channel Reservoir", "Point type": "On-channel Reservoir", "Right": "Certificate of adjudication 3942", "Use": "Recreation", "Latest reported year": 2024, "Acre-feet diverted that year": 0.0, "id": "61003942304"}, "geometry": {"type": "Point", "coordinates": [-95.734758, 30.3565]}},
    {"type": "Feature", "properties": {"name": "Water right 3953", "description": "On-channel Reservoir", "Point type": "On-channel Reservoir", "Right": "Certificate of adjudication 3953", "Use": "Recreation", "Latest reported year": 2024, "Acre-feet diverted that year": 0.0, "id": "61003953301"}, "geometry": {"type": "Point", "coordinates": [-95.919187, 30.251543]}},
    {"type": "Feature", "properties": {"name": "Water right 3954", "description": "On-channel Reservoir", "Point type": "On-channel Reservoir", "Right": "Certificate of adjudication 3954", "Use": "Recreation", "Latest reported year": 2024, "Acre-feet diverted that year": 0.0, "id": "61003954301"}, "geometry": {"type": "Point", "coordinates": [-95.792148, 30.182553]}},
    {"type": "Feature", "properties": {"name": "Water right 3956", "description": "On-channel Reservoir", "Point type": "On-channel Reservoir", "Right": "Certificate of adjudication 3956", "Use": "Recreation", "Latest reported year": 2024, "Acre-feet diverted that year": 0.0, "id": "61003956301"}, "geometry": {"type": "Point", "coordinates": [-95.814861, 30.253622]}},
    {"type": "Feature", "properties": {"name": "Water right 4242", "description": "On-channel Reservoir", "Point type": "On-channel Reservoir", "Right": "Certificate of adjudication 4242", "Use": "Recreation", "Latest reported year": 2024, "Acre-feet diverted that year": 0.0, "id": "60804242301"}, "geometry": {"type": "Point", "coordinates": [-95.892529, 30.818575]}},
    {"type": "Feature", "properties": {"name": "Water right 4244", "description": "On-channel Reservoir", "Point type": "On-channel Reservoir", "Right": "Certificate of adjudication 4244", "Use": "Recreation", "Latest reported year": 2024, "Acre-feet diverted that year": 0.0, "id": "60804244301"}, "geometry": {"type": "Point", "coordinates": [-95.957485, 30.759904]}},
    {"type": "Feature", "properties": {"name": "Water right 4245", "description": "On-channel Reservoir", "Point type": "On-channel Reservoir", "Right": "Certificate of adjudication 4245", "Use": "Recreation", "Latest reported year": 2024, "Acre-feet diverted that year": 0.0, "id": "60804245301"}, "geometry": {"type": "Point", "coordinates": [-95.952697, 30.712127]}},
    {"type": "Feature", "properties": {"name": "Water right 5286", "description": "Downstream end of a diversion reach", "Point type": "Downstream end of a diversion reach", "Right": "Certificate of adjudication 5286", "Use": "Agriculture", "Latest reported year": 2024, "Acre-feet diverted that year": 0.0, "id": "61205286101"}, "geometry": {"type": "Point", "coordinates": [-96.174309, 30.391968]}},
    {"type": "Feature", "properties": {"name": "Water right 5286", "description": "Downstream end of a diversion reach", "Point type": "Downstream end of a diversion reach", "Right": "Certificate of adjudication 5286", "Use": "Agriculture", "Latest reported year": 2024, "Acre-feet diverted that year": 0.0, "id": "61205286102"}, "geometry": {"type": "Point", "coordinates": [-96.14971, 30.370104]}},
    {"type": "Feature", "properties": {"name": "Water right 5286", "description": "Downstream end of a diversion reach", "Point type": "Downstream end of a diversion reach", "Right": "Certificate of adjudication 5286", "Use": "Agriculture", "Latest reported year": 2024, "Acre-feet diverted that year": 0.0, "id": "61205286103"}, "geometry": {"type": "Point", "coordinates": [-96.145764, 30.370657]}},
    {"type": "Feature", "properties": {"name": "Water right 5286", "description": "Upstream end of a diversion reach", "Point type": "Upstream end of a diversion reach", "Right": "Certificate of adjudication 5286", "Use": "Agriculture", "Latest reported year": 2024, "Acre-feet diverted that year": 0.0, "id": "61205286201"}, "geometry": {"type": "Point", "coordinates": [-96.177448, 30.396262]}},
    {"type": "Feature", "properties": {"name": "Water right 5286", "description": "Upstream end of a diversion reach", "Point type": "Upstream end of a diversion reach", "Right": "Certificate of adjudication 5286", "Use": "Agriculture", "Latest reported year": 2024, "Acre-feet diverted that year": 0.0, "id": "61205286202"}, "geometry": {"type": "Point", "coordinates": [-96.161782, 30.37929]}},
    {"type": "Feature", "properties": {"name": "Water right 5286", "description": "Upstream end of a diversion reach", "Point type": "Upstream end of a diversion reach", "Right": "Certificate of adjudication 5286", "Use": "Agriculture", "Latest reported year": 2024, "Acre-feet diverted that year": 0.0, "id": "61205286203"}, "geometry": {"type": "Point", "coordinates": [-96.136266, 30.383961]}},
    {"type": "Feature", "properties": {"name": "Water right 5304", "description": "On-channel Reservoir", "Point type": "On-channel Reservoir", "Right": "Certificate of adjudication 5304", "Use": "Recreation", "Latest reported year": 2024, "Acre-feet diverted that year": 0.0, "id": "61205304301"}, "geometry": {"type": "Point", "coordinates": [-96.098589, 30.862393]}},
    {"type": "Feature", "properties": {"name": "Water right 5305", "description": "On-channel Reservoir", "Point type": "On-channel Reservoir", "Right": "Certificate of adjudication 5305", "Use": "Recreation", "Latest reported year": 2024, "Acre-feet diverted that year": 0.0, "id": "61205305301"}, "geometry": {"type": "Point", "coordinates": [-96.235562, 30.777159]}},
    {"type": "Feature", "properties": {"name": "Water right 5306", "description": "On-channel Reservoir", "Point type": "On-channel Reservoir", "Right": "Certificate of adjudication 5306", "Use": "Recreation", "Latest reported year": 2024, "Acre-feet diverted that year": 0.0, "id": "61205306301"}, "geometry": {"type": "Point", "coordinates": [-96.133482, 30.735411]}},
    {"type": "Feature", "properties": {"name": "Water right 5307", "description": "Diversion Point", "Point type": "Diversion Point", "Right": "Certificate of adjudication 5307", "Use": "Agriculture, Industrial, Industrial - power generation, Municipal, Recreation, Water quality", "Latest reported year": 2024, "Acre-feet diverted that year": 6.9, "id": "61205307001"}, "geometry": {"type": "Point", "coordinates": [-96.166614, 30.65225]}},
    {"type": "Feature", "properties": {"name": "Water right 5307", "description": "On-channel Reservoir", "Point type": "On-channel Reservoir", "Right": "Certificate of adjudication 5307", "Use": "Agriculture, Industrial, Industrial - power generation, Municipal, Recreation, Water quality", "Latest reported year": 2024, "Acre-feet diverted that year": 6.9, "id": "61205307301"}, "geometry": {"type": "Point", "coordinates": [-96.167315, 30.652083]}},
    {"type": "Feature", "properties": {"name": "Water right 5310", "description": "On-channel Reservoir", "Point type": "On-channel Reservoir", "Right": "Certificate of adjudication 5310", "Use": "Recreation", "Latest reported year": 2024, "Acre-feet diverted that year": 0.0, "id": "61205310301"}, "geometry": {"type": "Point", "coordinates": [-96.248826, 30.595]}},
    {"type": "Feature", "properties": {"name": "Water right 5311", "description": "Diversion Point", "Point type": "Diversion Point", "Right": "Certificate of adjudication 5311", "Use": "Agriculture, Domestic and livestock, Industrial, Industrial - power generation, Municipal, Recreation", "Latest reported year": 2024, "Acre-feet diverted that year": 0.0, "id": "61205311001"}, "geometry": {"type": "Point", "coordinates": [-96.063062, 30.610502]}},
    {"type": "Feature", "properties": {"name": "Water right 5311", "description": "On-channel Reservoir", "Point type": "On-channel Reservoir", "Right": "Certificate of adjudication 5311", "Use": "Agriculture, Domestic and livestock, Industrial, Industrial - power generation, Municipal, Recreation", "Latest reported year": 2024, "Acre-feet diverted that year": 0.0, "id": "61205311301"}, "geometry": {"type": "Point", "coordinates": [-96.063062, 30.610502]}},
    {"type": "Feature", "properties": {"name": "Water right 5311", "description": "On-channel Reservoir", "Point type": "On-channel Reservoir", "Right": "Certificate of adjudication 5311", "Use": "Agriculture, Domestic and livestock, Industrial, Industrial - power generation, Municipal, Recreation", "Latest reported year": 2024, "Acre-feet diverted that year": 0.0, "id": "61205311302"}, "geometry": {"type": "Point", "coordinates": [-96.077656, 30.629895]}},
    {"type": "Feature", "properties": {"name": "Water right 5311", "description": "Release Point", "Point type": "Release Point", "Right": "Certificate of adjudication 5311", "Use": "Agriculture, Domestic and livestock, Industrial, Industrial - power generation, Municipal, Recreation", "Latest reported year": 2024, "Acre-feet diverted that year": 0.0, "id": "61205311701"}, "geometry": {"type": "Point", "coordinates": [-96.05561, 30.638694]}},
    {"type": "Feature", "properties": {"name": "Water right 5312", "description": "Diversion Point", "Point type": "Diversion Point", "Right": "Certificate of adjudication 5312", "Use": "Domestic and livestock, Game preserves, Industrial, Mining, Public parks, Recreation", "Latest reported year": 2024, "Acre-feet diverted that year": 0.0, "id": "61205312001"}, "geometry": {"type": "Point", "coordinates": [-96.079685, 30.60599]}},
    {"type": "Feature", "properties": {"name": "Water right 5312", "description": "On-channel Reservoir", "Point type": "On-channel Reservoir", "Right": "Certificate of adjudication 5312", "Use": "Domestic and livestock, Game preserves, Industrial, Mining, Public parks, Recreation", "Latest reported year": 2024, "Acre-feet diverted that year": 0.0, "id": "61205312301"}, "geometry": {"type": "Point", "coordinates": [-96.079685, 30.60599]}},
    {"type": "Feature", "properties": {"name": "Water right 5313", "description": "On-channel Reservoir", "Point type": "On-channel Reservoir", "Right": "Certificate of adjudication 5313", "Use": "Recreation", "Latest reported year": 2024, "Acre-feet diverted that year": 0.0, "id": "61205313301"}, "geometry": {"type": "Point", "coordinates": [-96.063614, 30.567472]}},
    {"type": "Feature", "properties": {"name": "Water right 5315", "description": "On-channel Reservoir", "Point type": "On-channel Reservoir", "Right": "Certificate of adjudication 5315", "Use": "Recreation", "Latest reported year": 2024, "Acre-feet diverted that year": 0.0, "id": "61205315301"}, "geometry": {"type": "Point", "coordinates": [-95.955482, 30.357877]}},
    {"type": "Feature", "properties": {"name": "Water right 5317", "description": "On-channel Reservoir", "Point type": "On-channel Reservoir", "Right": "Certificate of adjudication 5317", "Use": "Recreation", "Latest reported year": 2024, "Acre-feet diverted that year": 0.0, "id": "61205317301"}, "geometry": {"type": "Point", "coordinates": [-96.027746, 30.162722]}},
    {"type": "Feature", "properties": {"name": "Water right 12023", "description": "On-channel Reservoir", "Point type": "On-channel Reservoir", "Right": "Water use permit 12023", "Use": "Agriculture, Domestic and livestock, Recreation", "Latest reported year": 2024, "Acre-feet diverted that year": 0.0, "id": "11212023301"}, "geometry": {"type": "Point", "coordinates": [-95.998382, 30.622662]}},
    {"type": "Feature", "properties": {"name": "Water right 12759", "description": "Diversion Point", "Point type": "Diversion Point", "Right": "Water use permit 12759", "Use": "Agriculture, Recreation", "Latest reported year": 2024, "Acre-feet diverted that year": 0.0, "id": "11212759001"}, "geometry": {"type": "Point", "coordinates": [-96.206963, 30.379855]}},
    {"type": "Feature", "properties": {"name": "Water right 4016", "description": "Downstream end of a diversion reach", "Point type": "Downstream end of a diversion reach", "Right": "Water use permit 4016", "Use": "Agriculture, Domestic and livestock", "Latest reported year": 2024, "Acre-feet diverted that year": 655.2, "id": "11204016101"}, "geometry": {"type": "Point", "coordinates": [-96.187448, 30.39808]}},
    {"type": "Feature", "properties": {"name": "Water right 4016", "description": "Off-channel Reservoir", "Point type": "Off-channel Reservoir", "Right": "Water use permit 4016", "Use": "Agriculture, Domestic and livestock", "Latest reported year": 2024, "Acre-feet diverted that year": 655.2, "id": "11204016401"}, "geometry": {"type": "Point", "coordinates": [-96.212477, 30.381851]}},
    {"type": "Feature", "properties": {"name": "Water right 4016", "description": "Off-channel Diversion Point", "Point type": "Off-channel Diversion Point", "Right": "Water use permit 4016", "Use": "Agriculture, Domestic and livestock", "Latest reported year": 2024, "Acre-feet diverted that year": 655.2, "id": "11204016601"}, "geometry": {"type": "Point", "coordinates": [-96.212477, 30.381851]}},
    {"type": "Feature", "properties": {"name": "Water right 5053", "description": "On-channel Reservoir", "Point type": "On-channel Reservoir", "Right": "Water use permit 5053", "Use": "Agriculture, Domestic and livestock, Game preserves, Mining, Public parks, Recreation", "Latest reported year": 2024, "Acre-feet diverted that year": 0.0, "id": "11205053301"}, "geometry": {"type": "Point", "coordinates": [-96.095554, 30.583656]}},
    {"type": "Feature", "properties": {"name": "Water right 5053", "description": "On-channel Reservoir", "Point type": "On-channel Reservoir", "Right": "Water use permit 5053", "Use": "Agriculture, Domestic and livestock, Game preserves, Mining, Public parks, Recreation", "Latest reported year": 2024, "Acre-feet diverted that year": 0.0, "id": "11205053302"}, "geometry": {"type": "Point", "coordinates": [-96.080892, 30.571764]}},
    {"type": "Feature", "properties": {"name": "Water right 5053", "description": "On-channel Reservoir", "Point type": "On-channel Reservoir", "Right": "Water use permit 5053", "Use": "Agriculture, Domestic and livestock, Game preserves, Mining, Public parks, Recreation", "Latest reported year": 2024, "Acre-feet diverted that year": 0.0, "id": "11205053303"}, "geometry": {"type": "Point", "coordinates": [-96.083503, 30.573973]}},
    {"type": "Feature", "properties": {"name": "Water right 5053", "description": "On-channel Reservoir", "Point type": "On-channel Reservoir", "Right": "Water use permit 5053", "Use": "Agriculture, Domestic and livestock, Game preserves, Mining, Public parks, Recreation", "Latest reported year": 2024, "Acre-feet diverted that year": 0.0, "id": "11205053304"}, "geometry": {"type": "Point", "coordinates": [-96.076761, 30.579858]}},
    {"type": "Feature", "properties": {"name": "Water right 5053", "description": "On-channel Reservoir", "Point type": "On-channel Reservoir", "Right": "Water use permit 5053", "Use": "Agriculture, Domestic and livestock, Game preserves, Mining, Public parks, Recreation", "Latest reported year": 2024, "Acre-feet diverted that year": 0.0, "id": "11205053305"}, "geometry": {"type": "Point", "coordinates": [-96.091765, 30.582737]}},
    {"type": "Feature", "properties": {"name": "Water right 5053", "description": "On-channel Reservoir", "Point type": "On-channel Reservoir", "Right": "Water use permit 5053", "Use": "Agriculture, Domestic and livestock, Game preserves, Mining, Public parks, Recreation", "Latest reported year": 2024, "Acre-feet diverted that year": 0.0, "id": "11205053306"}, "geometry": {"type": "Point", "coordinates": [-96.07858, 30.589629]}},
    {"type": "Feature", "properties": {"name": "Water right 5081", "description": "On-channel Reservoir", "Point type": "On-channel Reservoir", "Right": "Water use permit 5081", "Use": "Agriculture, Recreation", "Latest reported year": 2024, "Acre-feet diverted that year": 0.0, "id": "11205081301"}, "geometry": {"type": "Point", "coordinates": [-96.211894, 30.550169]}},
    {"type": "Feature", "properties": {"name": "Water right 5081", "description": "On-channel Reservoir", "Point type": "On-channel Reservoir", "Right": "Water use permit 5081", "Use": "Agriculture, Recreation", "Latest reported year": 2024, "Acre-feet diverted that year": 0.0, "id": "11205081302"}, "geometry": {"type": "Point", "coordinates": [-96.231409, 30.544463]}},
    {"type": "Feature", "properties": {"name": "Water right 5081", "description": "On-channel Reservoir", "Point type": "On-channel Reservoir", "Right": "Water use permit 5081", "Use": "Agriculture, Recreation", "Latest reported year": 2024, "Acre-feet diverted that year": 0.0, "id": "11205081303"}, "geometry": {"type": "Point", "coordinates": [-96.221658, 30.547667]}},
    {"type": "Feature", "properties": {"name": "Water right 5132", "description": "Diversion Point", "Point type": "Diversion Point", "Right": "Water use permit 5132", "Use": "Agriculture, Domestic and livestock, Game preserves, Industrial, Mining, Public parks, Recreation", "Latest reported year": 2024, "Acre-feet diverted that year": 0.0, "id": "11205132001"}, "geometry": {"type": "Point", "coordinates": [-96.118663, 30.532249]}},
    {"type": "Feature", "properties": {"name": "Water right 5132", "description": "On-channel Reservoir", "Point type": "On-channel Reservoir", "Right": "Water use permit 5132", "Use": "Agriculture, Domestic and livestock, Game preserves, Industrial, Mining, Public parks, Recreation", "Latest reported year": 2024, "Acre-feet diverted that year": 0.0, "id": "11205132301"}, "geometry": {"type": "Point", "coordinates": [-96.125974, 30.54337]}},
    {"type": "Feature", "properties": {"name": "Water right 5132", "description": "On-channel Reservoir", "Point type": "On-channel Reservoir", "Right": "Water use permit 5132", "Use": "Agriculture, Domestic and livestock, Game preserves, Industrial, Mining, Public parks, Recreation", "Latest reported year": 2024, "Acre-feet diverted that year": 0.0, "id": "11205132302"}, "geometry": {"type": "Point", "coordinates": [-96.136596, 30.531243]}},
    {"type": "Feature", "properties": {"name": "Water right 5132", "description": "On-channel Reservoir", "Point type": "On-channel Reservoir", "Right": "Water use permit 5132", "Use": "Agriculture, Domestic and livestock, Game preserves, Industrial, Mining, Public parks, Recreation", "Latest reported year": 2024, "Acre-feet diverted that year": 0.0, "id": "11205132303"}, "geometry": {"type": "Point", "coordinates": [-96.15105, 30.57477]}},
    {"type": "Feature", "properties": {"name": "Water right 5132", "description": "Off-channel Reservoir", "Point type": "Off-channel Reservoir", "Right": "Water use permit 5132", "Use": "Agriculture, Domestic and livestock, Game preserves, Industrial, Mining, Public parks, Recreation", "Latest reported year": 2024, "Acre-feet diverted that year": 0.0, "id": "11205132401"}, "geometry": {"type": "Point", "coordinates": [-96.126865, 30.524682]}},
    {"type": "Feature", "properties": {"name": "Water right 5290", "description": "Diversion Point", "Point type": "Diversion Point", "Right": "Water use permit 5290", "Use": "Agriculture, Recreation", "Latest reported year": 2024, "Acre-feet diverted that year": 0.0, "id": "11205290001"}, "geometry": {"type": "Point", "coordinates": [-96.097271, 30.311523]}},
    {"type": "Feature", "properties": {"name": "Water right 5290", "description": "Diversion Point", "Point type": "Diversion Point", "Right": "Water use permit 5290", "Use": "Agriculture, Recreation", "Latest reported year": 2024, "Acre-feet diverted that year": 0.0, "id": "11205290002"}, "geometry": {"type": "Point", "coordinates": [-96.094712, 30.266288]}},
    {"type": "Feature", "properties": {"name": "Water right 5290", "description": "On-channel Reservoir", "Point type": "On-channel Reservoir", "Right": "Water use permit 5290", "Use": "Agriculture, Recreation", "Latest reported year": 2024, "Acre-feet diverted that year": 0.0, "id": "11205290301"}, "geometry": {"type": "Point", "coordinates": [-96.096739, 30.313]}},
    {"type": "Feature", "properties": {"name": "Water right 5290", "description": "Off-channel Reservoir", "Point type": "Off-channel Reservoir", "Right": "Water use permit 5290", "Use": "Agriculture, Recreation", "Latest reported year": 2024, "Acre-feet diverted that year": 0.0, "id": "11205290401"}, "geometry": {"type": "Point", "coordinates": [-96.08362, 30.263263]}},
    {"type": "Feature", "properties": {"name": "Water right 5329", "description": "Diversion Point", "Point type": "Diversion Point", "Right": "Water use permit 5329", "Use": "Agriculture, Recreation", "Latest reported year": 2024, "Acre-feet diverted that year": 237.7, "id": "11205329001"}, "geometry": {"type": "Point", "coordinates": [-96.225214, 30.589028]}},
    {"type": "Feature", "properties": {"name": "Water right 5329", "description": "Diversion Point", "Point type": "Diversion Point", "Right": "Water use permit 5329", "Use": "Agriculture, Recreation", "Latest reported year": 2024, "Acre-feet diverted that year": 237.7, "id": "11205329002"}, "geometry": {"type": "Point", "coordinates": [-96.239441, 30.572252]}},
    {"type": "Feature", "properties": {"name": "Water right 5329", "description": "On-channel Reservoir", "Point type": "On-channel Reservoir", "Right": "Water use permit 5329", "Use": "Agriculture, Recreation", "Latest reported year": 2024, "Acre-feet diverted that year": 237.7, "id": "11205329301"}, "geometry": {"type": "Point", "coordinates": [-96.239441, 30.572252]}},
    {"type": "Feature", "properties": {"name": "Water right 5329", "description": "On-channel Reservoir", "Point type": "On-channel Reservoir", "Right": "Water use permit 5329", "Use": "Agriculture, Recreation", "Latest reported year": 2024, "Acre-feet diverted that year": 237.7, "id": "11205329302"}, "geometry": {"type": "Point", "coordinates": [-96.225193, 30.589111]}},
    {"type": "Feature", "properties": {"name": "Water right 5354", "description": "Diversion Point", "Point type": "Diversion Point", "Right": "Water use permit 5354", "Use": "Industrial, Mining", "Latest reported year": 2024, "Acre-feet diverted that year": 0.0, "id": "11205354001"}, "geometry": {"type": "Point", "coordinates": [-96.096141, 30.54933]}},
    {"type": "Feature", "properties": {"name": "Water right 5354", "description": "Diversion Point", "Point type": "Diversion Point", "Right": "Water use permit 5354", "Use": "Industrial, Mining", "Latest reported year": 2024, "Acre-feet diverted that year": 0.0, "id": "11205354002"}, "geometry": {"type": "Point", "coordinates": [-96.082454, 30.561017]}},
    {"type": "Feature", "properties": {"name": "Water right 5354", "description": "On-channel Reservoir", "Point type": "On-channel Reservoir", "Right": "Water use permit 5354", "Use": "Industrial, Mining", "Latest reported year": 2024, "Acre-feet diverted that year": 0.0, "id": "11205354301"}, "geometry": {"type": "Point", "coordinates": [-96.096141, 30.54933]}},
    {"type": "Feature", "properties": {"name": "Water right 5354", "description": "On-channel Reservoir", "Point type": "On-channel Reservoir", "Right": "Water use permit 5354", "Use": "Industrial, Mining", "Latest reported year": 2024, "Acre-feet diverted that year": 0.0, "id": "11205354302"}, "geometry": {"type": "Point", "coordinates": [-96.082454, 30.561017]}},
    {"type": "Feature", "properties": {"name": "Water right 5385", "description": "On-channel Reservoir", "Point type": "On-channel Reservoir", "Right": "Water use permit 5385", "Use": "Agriculture, Recreation", "Latest reported year": 2024, "Acre-feet diverted that year": 0.0, "id": "11205385301"}, "geometry": {"type": "Point", "coordinates": [-96.244139, 30.544432]}},
    {"type": "Feature", "properties": {"name": "Water right 5458", "description": "Diversion Point", "Point type": "Diversion Point", "Right": "Water use permit 5458", "Use": "Agriculture, Industrial, Mining, Recreation", "Latest reported year": 2024, "Acre-feet diverted that year": 0.0, "id": "11205458001"}, "geometry": {"type": "Point", "coordinates": [-96.057309, 30.590021]}},
    {"type": "Feature", "properties": {"name": "Water right 5458", "description": "On-channel Reservoir", "Point type": "On-channel Reservoir", "Right": "Water use permit 5458", "Use": "Agriculture, Industrial, Mining, Recreation", "Latest reported year": 2024, "Acre-feet diverted that year": 0.0, "id": "11205458301"}, "geometry": {"type": "Point", "coordinates": [-96.057309, 30.590021]}},
    {"type": "Feature", "properties": {"name": "Water right 5473", "description": "Diversion Point", "Point type": "Diversion Point", "Right": "Water use permit 5473", "Use": "Agriculture, Industrial, Mining, Recreation", "Latest reported year": 2024, "Acre-feet diverted that year": 0.0, "id": "11205473001"}, "geometry": {"type": "Point", "coordinates": [-96.027899, 30.624007]}},
    {"type": "Feature", "properties": {"name": "Water right 5473", "description": "On-channel Reservoir", "Point type": "On-channel Reservoir", "Right": "Water use permit 5473", "Use": "Agriculture, Industrial, Mining, Recreation", "Latest reported year": 2024, "Acre-feet diverted that year": 0.0, "id": "11205473301"}, "geometry": {"type": "Point", "coordinates": [-96.027899, 30.624007]}},
    {"type": "Feature", "properties": {"name": "Water right 5566", "description": "Diversion Point", "Point type": "Diversion Point", "Right": "Water use permit 5566", "Use": "Agriculture", "Latest reported year": 2024, "Acre-feet diverted that year": 0.0, "id": "11205566001"}, "geometry": {"type": "Point", "coordinates": [-96.08335, 30.42222]}},
    {"type": "Feature", "properties": {"name": "Water right 5566", "description": "Off-channel Reservoir", "Point type": "Off-channel Reservoir", "Right": "Water use permit 5566", "Use": "Agriculture", "Latest reported year": 2024, "Acre-feet diverted that year": 0.0, "id": "11205566401"}, "geometry": {"type": "Point", "coordinates": [-96.081519, 30.416159]}},
    {"type": "Feature", "properties": {"name": "Water right 5570", "description": "Downstream end of a diversion reach", "Point type": "Downstream end of a diversion reach", "Right": "Water use permit 5570", "Use": "Agriculture", "Latest reported year": 2024, "Acre-feet diverted that year": 0.0, "id": "11205570101"}, "geometry": {"type": "Point", "coordinates": [-96.14029, 30.509347]}},
    {"type": "Feature", "properties": {"name": "Water right 5570", "description": "Upstream end of a diversion reach", "Point type": "Upstream end of a diversion reach", "Right": "Water use permit 5570", "Use": "Agriculture", "Latest reported year": 2024, "Acre-feet diverted that year": 0.0, "id": "11205570201"}, "geometry": {"type": "Point", "coordinates": [-96.148873, 30.523958]}},
    {"type": "Feature", "properties": {"name": "Water right 5616", "description": "On-channel Reservoir", "Point type": "On-channel Reservoir", "Right": "Water use permit 5616", "Use": "Recreation", "Latest reported year": 2024, "Acre-feet diverted that year": 0.0, "id": "11205616301"}, "geometry": {"type": "Point", "coordinates": [-95.971676, 30.240453]}},
    {"type": "Feature", "properties": {"name": "Water right 5738", "description": "On-channel Reservoir", "Point type": "On-channel Reservoir", "Right": "Water use permit 5738", "Use": "Recreation", "Latest reported year": 2024, "Acre-feet diverted that year": 0.0, "id": "11205738301"}, "geometry": {"type": "Point", "coordinates": [-96.123101, 30.555171]}},
    {"type": "Feature", "properties": {"name": "Water right 5741", "description": "On-channel Reservoir", "Point type": "On-channel Reservoir", "Right": "Water use permit 5741", "Use": "Recreation", "Latest reported year": 2024, "Acre-feet diverted that year": 0.0, "id": "11205741301"}, "geometry": {"type": "Point", "coordinates": [-96.132902, 30.529111]}},
    {"type": "Feature", "properties": {"name": "Water right 5741", "description": "On-channel Reservoir", "Point type": "On-channel Reservoir", "Right": "Water use permit 5741", "Use": "Recreation", "Latest reported year": 2024, "Acre-feet diverted that year": 0.0, "id": "11205741302"}, "geometry": {"type": "Point", "coordinates": [-96.118659, 30.560927]}},
    {"type": "Feature", "properties": {"name": "Water right 5748", "description": "Diversion Point", "Point type": "Diversion Point", "Right": "Water use permit 5748", "Use": "Agriculture", "Latest reported year": 2024, "Acre-feet diverted that year": 0.0, "id": "11205748001"}, "geometry": {"type": "Point", "coordinates": [-96.102008, 30.383315]}},
    {"type": "Feature", "properties": {"name": "Water right 5748", "description": "On-channel Reservoir", "Point type": "On-channel Reservoir", "Right": "Water use permit 5748", "Use": "Agriculture", "Latest reported year": 2024, "Acre-feet diverted that year": 0.0, "id": "11205748301"}, "geometry": {"type": "Point", "coordinates": [-96.10202, 30.383333]}},
    {"type": "Feature", "properties": {"name": "Water right 5748", "description": "Discharge Point", "Point type": "Discharge Point", "Right": "Water use permit 5748", "Use": "Agriculture", "Latest reported year": 2024, "Acre-feet diverted that year": 0.0, "id": "11205748501"}, "geometry": {"type": "Point", "coordinates": [-96.110002, 30.380011]}},
    {"type": "Feature", "properties": {"name": "Water right 5748", "description": "Release Point", "Point type": "Release Point", "Right": "Water use permit 5748", "Use": "Agriculture", "Latest reported year": 2024, "Acre-feet diverted that year": 0.0, "id": "11205748701"}, "geometry": {"type": "Point", "coordinates": [-96.101075, 30.383545]}},
    {"type": "Feature", "properties": {"name": "Water right 5851", "description": "Downstream end of a diversion reach", "Point type": "Downstream end of a diversion reach", "Right": "Water use permit 5851", "Use": "Agriculture, Industrial, Mining, Municipal, Recreation", "Latest reported year": 2024, "Acre-feet diverted that year": 22595.5, "id": "11205851128"}, "geometry": {"type": "Point", "coordinates": [-96.155128, 30.330969]}},
    {"type": "Feature", "properties": {"name": "Water right 5851", "description": "Downstream end of a diversion reach", "Point type": "Downstream end of a diversion reach", "Right": "Water use permit 5851", "Use": "Agriculture, Industrial, Mining, Municipal, Recreation", "Latest reported year": 2024, "Acre-feet diverted that year": 22595.5, "id": "11205851130"}, "geometry": {"type": "Point", "coordinates": [-96.155128, 30.330969]}},
    {"type": "Feature", "properties": {"name": "Water right 5851", "description": "Upstream end of a diversion reach", "Point type": "Upstream end of a diversion reach", "Right": "Water use permit 5851", "Use": "Agriculture, Industrial, Mining, Municipal, Recreation", "Latest reported year": 2024, "Acre-feet diverted that year": 22595.5, "id": "11205851231"}, "geometry": {"type": "Point", "coordinates": [-96.155128, 30.330969]}},
    {"type": "Feature", "properties": {"name": "Water right 5851", "description": "Discharge Point", "Point type": "Discharge Point", "Right": "Water use permit 5851", "Use": "Agriculture, Industrial, Mining, Municipal, Recreation", "Latest reported year": 2024, "Acre-feet diverted that year": 22595.5, "id": "11205851512"}, "geometry": {"type": "Point", "coordinates": [-96.101075, 30.383545]}},
    {"type": "Feature", "properties": {"name": "Water right 5851", "description": "Discharge Point", "Point type": "Discharge Point", "Right": "Water use permit 5851", "Use": "Agriculture, Industrial, Mining, Municipal, Recreation", "Latest reported year": 2024, "Acre-feet diverted that year": 22595.5, "id": "11205851552"}, "geometry": {"type": "Point", "coordinates": [-96.05355, 30.256378]}},
    {"type": "Feature", "properties": {"name": "Water right 5851", "description": "Discharge Point", "Point type": "Discharge Point", "Right": "Water use permit 5851", "Use": "Agriculture, Industrial, Mining, Municipal, Recreation", "Latest reported year": 2024, "Acre-feet diverted that year": 22595.5, "id": "11205851560"}, "geometry": {"type": "Point", "coordinates": [-96.105959, 30.319019]}},
    {"type": "Feature", "properties": {"name": "Water right 5858", "description": "On-channel Reservoir", "Point type": "On-channel Reservoir", "Right": "Water use permit 5858", "Use": "Agriculture, Game preserves, Public parks, Recreation, Wildlife management", "Latest reported year": 2024, "Acre-feet diverted that year": 0.0, "id": "11205858301"}, "geometry": {"type": "Point", "coordinates": [-96.083272, 30.604953]}},
    {"type": "Feature", "properties": {"name": "Water right 5858", "description": "On-channel Reservoir", "Point type": "On-channel Reservoir", "Right": "Water use permit 5858", "Use": "Agriculture, Game preserves, Public parks, Recreation, Wildlife management", "Latest reported year": 2024, "Acre-feet diverted that year": 0.0, "id": "11205858302"}, "geometry": {"type": "Point", "coordinates": [-96.109436, 30.576172]}},
    {"type": "Feature", "properties": {"name": "Water right 5858", "description": "On-channel Reservoir", "Point type": "On-channel Reservoir", "Right": "Water use permit 5858", "Use": "Agriculture, Game preserves, Public parks, Recreation, Wildlife management", "Latest reported year": 2024, "Acre-feet diverted that year": 0.0, "id": "11205858303"}, "geometry": {"type": "Point", "coordinates": [-96.09441, 30.561652]}},
    {"type": "Feature", "properties": {"name": "Water right 5858", "description": "On-channel Reservoir", "Point type": "On-channel Reservoir", "Right": "Water use permit 5858", "Use": "Agriculture, Game preserves, Public parks, Recreation, Wildlife management", "Latest reported year": 2024, "Acre-feet diverted that year": 0.0, "id": "11205858304"}, "geometry": {"type": "Point", "coordinates": [-96.102124, 30.55642]}},
    {"type": "Feature", "properties": {"name": "Water right 5858", "description": "On-channel Reservoir", "Point type": "On-channel Reservoir", "Right": "Water use permit 5858", "Use": "Agriculture, Game preserves, Public parks, Recreation, Wildlife management", "Latest reported year": 2024, "Acre-feet diverted that year": 0.0, "id": "11205858305"}, "geometry": {"type": "Point", "coordinates": [-96.148334, 30.562232]}},
    {"type": "Feature", "properties": {"name": "Water right 5858", "description": "On-channel Reservoir", "Point type": "On-channel Reservoir", "Right": "Water use permit 5858", "Use": "Agriculture, Game preserves, Public parks, Recreation, Wildlife management", "Latest reported year": 2024, "Acre-feet diverted that year": 0.0, "id": "11205858306"}, "geometry": {"type": "Point", "coordinates": [-96.144161, 30.547086]}},
    {"type": "Feature", "properties": {"name": "Water right 5858", "description": "On-channel Reservoir", "Point type": "On-channel Reservoir", "Right": "Water use permit 5858", "Use": "Agriculture, Game preserves, Public parks, Recreation, Wildlife management", "Latest reported year": 2024, "Acre-feet diverted that year": 0.0, "id": "11205858307"}, "geometry": {"type": "Point", "coordinates": [-96.147634, 30.556197]}},
    {"type": "Feature", "properties": {"name": "Water right 5858", "description": "On-channel Reservoir", "Point type": "On-channel Reservoir", "Right": "Water use permit 5858", "Use": "Agriculture, Game preserves, Public parks, Recreation, Wildlife management", "Latest reported year": 2024, "Acre-feet diverted that year": 0.0, "id": "11205858308"}, "geometry": {"type": "Point", "coordinates": [-96.14621, 30.558008]}},
    {"type": "Feature", "properties": {"name": "Water right 5858", "description": "On-channel Reservoir", "Point type": "On-channel Reservoir", "Right": "Water use permit 5858", "Use": "Agriculture, Game preserves, Public parks, Recreation, Wildlife management", "Latest reported year": 2024, "Acre-feet diverted that year": 0.0, "id": "11205858309"}, "geometry": {"type": "Point", "coordinates": [-96.126933, 30.575602]}},
    {"type": "Feature", "properties": {"name": "Water right 5858", "description": "On-channel Reservoir", "Point type": "On-channel Reservoir", "Right": "Water use permit 5858", "Use": "Agriculture, Game preserves, Public parks, Recreation, Wildlife management", "Latest reported year": 2024, "Acre-feet diverted that year": 0.0, "id": "11205858310"}, "geometry": {"type": "Point", "coordinates": [-96.08411, 30.590962]}},
    {"type": "Feature", "properties": {"name": "Water right 5858", "description": "On-channel Reservoir", "Point type": "On-channel Reservoir", "Right": "Water use permit 5858", "Use": "Agriculture, Game preserves, Public parks, Recreation, Wildlife management", "Latest reported year": 2024, "Acre-feet diverted that year": 0.0, "id": "11205858311"}, "geometry": {"type": "Point", "coordinates": [-96.100034, 30.58314]}},
    {"type": "Feature", "properties": {"name": "Water right 5858", "description": "On-channel Reservoir", "Point type": "On-channel Reservoir", "Right": "Water use permit 5858", "Use": "Agriculture, Game preserves, Public parks, Recreation, Wildlife management", "Latest reported year": 2024, "Acre-feet diverted that year": 0.0, "id": "11205858312"}, "geometry": {"type": "Point", "coordinates": [-96.108676, 30.58062]}},
    {"type": "Feature", "properties": {"name": "Water right 5858", "description": "On-channel Reservoir", "Point type": "On-channel Reservoir", "Right": "Water use permit 5858", "Use": "Agriculture, Game preserves, Public parks, Recreation, Wildlife management", "Latest reported year": 2024, "Acre-feet diverted that year": 0.0, "id": "11205858313"}, "geometry": {"type": "Point", "coordinates": [-96.126143, 30.574158]}},
    {"type": "Feature", "properties": {"name": "Water right 5858", "description": "On-channel Reservoir", "Point type": "On-channel Reservoir", "Right": "Water use permit 5858", "Use": "Agriculture, Game preserves, Public parks, Recreation, Wildlife management", "Latest reported year": 2024, "Acre-feet diverted that year": 0.0, "id": "11205858314"}, "geometry": {"type": "Point", "coordinates": [-96.1254, 30.530807]}},
    {"type": "Feature", "properties": {"name": "Water right 5858", "description": "On-channel Reservoir", "Point type": "On-channel Reservoir", "Right": "Water use permit 5858", "Use": "Agriculture, Game preserves, Public parks, Recreation, Wildlife management", "Latest reported year": 2024, "Acre-feet diverted that year": 0.0, "id": "11205858315"}, "geometry": {"type": "Point", "coordinates": [-96.142373, 30.562112]}},
    {"type": "Feature", "properties": {"name": "Water right 5858", "description": "On-channel Reservoir", "Point type": "On-channel Reservoir", "Right": "Water use permit 5858", "Use": "Agriculture, Game preserves, Public parks, Recreation, Wildlife management", "Latest reported year": 2024, "Acre-feet diverted that year": 0.0, "id": "11205858316"}, "geometry": {"type": "Point", "coordinates": [-96.135509, 30.561861]}},
    {"type": "Feature", "properties": {"name": "Water right 5858", "description": "On-channel Reservoir", "Point type": "On-channel Reservoir", "Right": "Water use permit 5858", "Use": "Agriculture, Game preserves, Public parks, Recreation, Wildlife management", "Latest reported year": 2024, "Acre-feet diverted that year": 0.0, "id": "11205858317"}, "geometry": {"type": "Point", "coordinates": [-96.126429, 30.570905]}},
    {"type": "Feature", "properties": {"name": "Water right 5858", "description": "On-channel Reservoir", "Point type": "On-channel Reservoir", "Right": "Water use permit 5858", "Use": "Agriculture, Game preserves, Public parks, Recreation, Wildlife management", "Latest reported year": 2024, "Acre-feet diverted that year": 0.0, "id": "11205858318"}, "geometry": {"type": "Point", "coordinates": [-96.112789, 30.573792]}},
    {"type": "Feature", "properties": {"name": "Water right 5858", "description": "On-channel Reservoir", "Point type": "On-channel Reservoir", "Right": "Water use permit 5858", "Use": "Agriculture, Game preserves, Public parks, Recreation, Wildlife management", "Latest reported year": 2024, "Acre-feet diverted that year": 0.0, "id": "11205858319"}, "geometry": {"type": "Point", "coordinates": [-96.095268, 30.574414]}},
    {"type": "Feature", "properties": {"name": "Water right 5858", "description": "On-channel Reservoir", "Point type": "On-channel Reservoir", "Right": "Water use permit 5858", "Use": "Agriculture, Game preserves, Public parks, Recreation, Wildlife management", "Latest reported year": 2024, "Acre-feet diverted that year": 0.0, "id": "11205858320"}, "geometry": {"type": "Point", "coordinates": [-96.102453, 30.580581]}},
    {"type": "Feature", "properties": {"name": "Water right 5858", "description": "On-channel Reservoir", "Point type": "On-channel Reservoir", "Right": "Water use permit 5858", "Use": "Agriculture, Game preserves, Public parks, Recreation, Wildlife management", "Latest reported year": 2024, "Acre-feet diverted that year": 0.0, "id": "11205858321"}, "geometry": {"type": "Point", "coordinates": [-96.109292, 30.56777]}},
    {"type": "Feature", "properties": {"name": "Water right 5858", "description": "On-channel Reservoir", "Point type": "On-channel Reservoir", "Right": "Water use permit 5858", "Use": "Agriculture, Game preserves, Public parks, Recreation, Wildlife management", "Latest reported year": 2024, "Acre-feet diverted that year": 0.0, "id": "11205858322"}, "geometry": {"type": "Point", "coordinates": [-96.120449, 30.59115]}},
    {"type": "Feature", "properties": {"name": "Water right 5858", "description": "On-channel Reservoir", "Point type": "On-channel Reservoir", "Right": "Water use permit 5858", "Use": "Agriculture, Game preserves, Public parks, Recreation, Wildlife management", "Latest reported year": 2024, "Acre-feet diverted that year": 0.0, "id": "11205858323"}, "geometry": {"type": "Point", "coordinates": [-96.127952, 30.58541]}},
    {"type": "Feature", "properties": {"name": "Water right 5858", "description": "On-channel Reservoir", "Point type": "On-channel Reservoir", "Right": "Water use permit 5858", "Use": "Agriculture, Game preserves, Public parks, Recreation, Wildlife management", "Latest reported year": 2024, "Acre-feet diverted that year": 0.0, "id": "11205858324"}, "geometry": {"type": "Point", "coordinates": [-96.133345, 30.580831]}},
    {"type": "Feature", "properties": {"name": "Water right 5858", "description": "On-channel Reservoir", "Point type": "On-channel Reservoir", "Right": "Water use permit 5858", "Use": "Agriculture, Game preserves, Public parks, Recreation, Wildlife management", "Latest reported year": 2024, "Acre-feet diverted that year": 0.0, "id": "11205858325"}, "geometry": {"type": "Point", "coordinates": [-96.136855, 30.573557]}},
    {"type": "Feature", "properties": {"name": "Water right 5858", "description": "On-channel Reservoir", "Point type": "On-channel Reservoir", "Right": "Water use permit 5858", "Use": "Agriculture, Game preserves, Public parks, Recreation, Wildlife management", "Latest reported year": 2024, "Acre-feet diverted that year": 0.0, "id": "11205858326"}, "geometry": {"type": "Point", "coordinates": [-96.143194, 30.573733]}},
    {"type": "Feature", "properties": {"name": "Water right 5913", "description": "Diversion Point", "Point type": "Diversion Point", "Right": "Water use permit 5913", "Use": "Agriculture, Industrial, Municipal", "Latest reported year": 2024, "Acre-feet diverted that year": 0.0, "id": "11205913002"}, "geometry": {"type": "Point", "coordinates": [-96.225214, 30.589028]}},
    {"type": "Feature", "properties": {"name": "Water right 5913", "description": "Release Point", "Point type": "Release Point", "Right": "Water use permit 5913", "Use": "Agriculture, Industrial, Municipal", "Latest reported year": 2024, "Acre-feet diverted that year": 0.0, "id": "11205913702"}, "geometry": {"type": "Point", "coordinates": [-96.20632, 30.56169]}}
  ]
}
